{"type": "FeatureCollection", "crs": {"type": "name", "properties": {"name": "EPSG:4326"}}, "features": [{"type": "Feature", "id": 36, "geometry": {"type": "Polygon", "coordinates": [[[-89.1978464050906, 48.3845659866644], [-89.1978767055945, 48.3536606517227], [-89.2142532647243, 48.355222606172], [-89.2168201446274, 48.3539130172509], [-89.2002284853031, 48.3499167572523], [-89.2019102689075, 48.3468243981504], [-89.1952821959267, 48.3304142734476], [-89.2016290948102, 48.3305842099217], [-89.201664281886, 48.3304554009593], [-89.2016398309309, 48.330301569505], [-89.2016346147054, 48.3301620913087], [-89.2016445838694, 48.3298814440959], [-89.2017701783252, 48.3296738929404], [-89.2019479898728, 48.329481609832], [-89.2020943369098, 48.329356379657], [-89.2022741303558, 48.3292783443871], [-89.2024581583915, 48.3291744644551], [-89.2025837666963, 48.3290561972568], [-89.202729566845, 48.3290144450438], [-89.2029143154814, 48.3290841147026], [-89.2031473775299, 48.3288223212431], [-89.2032722627562, 48.3287786261899], [-89.2033811361106, 48.3285793104876], [-89.2034483078365, 48.3283784491797], [-89.2036134103073, 48.328195042729], [-89.203744125551, 48.3280941700584], [-89.2038734364709, 48.3279901849491], [-89.2040038097471, 48.3278895722587], [-89.2041555840701, 48.3278017861564], [-89.204305385018, 48.3277113339555], [-89.2044325236246, 48.3276132165937], [-89.20460647126, 48.3275125099864], [-89.2047191125972, 48.3273945871093], [-89.204860013337, 48.327301260113], [-89.2050852745505, 48.3270741110685], [-89.2052045637186, 48.3269594306361], [-89.205337581866, 48.3268595412441], [-89.2054439506932, 48.3267424091609], [-89.2055674875809, 48.3266025961804], [-89.2057447843225, 48.32644057438], [-89.2059732620598, 48.3258098319427], [-89.2059543691849, 48.3255790474534], [-89.2058524289848, 48.3253670280033], [-89.2056947641477, 48.3251291338233], [-89.2056148632547, 48.3249227106125], [-89.2055669989977, 48.3246556723967], [-89.2054885260039, 48.3244003727729], [-89.2055688871238, 48.3241071753802], [-89.2057819346249, 48.3238577420985], [-89.2059564442833, 48.3235906615835], [-89.2061259509807, 48.3233759591464], [-89.206350513586, 48.3231612453764], [-89.2065343701905, 48.3229549134644], [-89.2067288212001, 48.3227660236853], [-89.2068770865838, 48.3225714412115], [-89.2070161277987, 48.3222846030326], [-89.2072136610474, 48.3220979889644], [-89.2074586287767, 48.3219252303831], [-89.2076868668754, 48.3217264264024], [-89.2082782355161, 48.3211561391974], [-89.2085395642262, 48.3209558152104], [-89.2087957746652, 48.320786523087], [-89.2089993711025, 48.3205953599224], [-89.2091108603545, 48.3204955620251], [-89.2091617271535, 48.3203927739216], [-89.2092039535063, 48.3202654502255], [-89.2092069348427, 48.3201257038915], [-89.2092514181131, 48.3198628909508], [-89.209316621867, 48.3197220127609], [-89.2093398919792, 48.3194379298596], [-89.2093276066624, 48.3193372928033], [-89.2089866523734, 48.3190783395975], [-89.2078678631004, 48.3183980027177], [-89.2075324149828, 48.3181735652694], [-89.208063663584, 48.317806969419], [-89.209005069953, 48.3145852623484], [-89.2077611231916, 48.313585395586], [-89.2076724121301, 48.3135087061081], [-89.2075920393636, 48.3134280316237], [-89.2075204119086, 48.3133437710196], [-89.2074578850258, 48.3132563430703], [-89.207404770423, 48.3131661889791], [-89.2073613384088, 48.3130737597397], [-89.2073278029131, 48.3129795128251], [-89.207304331388, 48.3128839227937], [-89.2072910359857, 48.3127874643635], [-89.2072469258756, 48.31226452588], [-89.2072374359765, 48.3122065511925], [-89.2072187699824, 48.312149576849], [-89.2071911337503, 48.3120942467101], [-89.2071548431027, 48.3120411899268], [-89.2071103095345, 48.3119910023206], [-89.2070580312435, 48.311944257353], [-89.2069986094473, 48.3119014779207], [-89.2069327100746, 48.3118631550867], [-89.206861078542, 48.3118297154062], [-89.206784528555, 48.311801542736], [-89.2059951509273, 48.3115463640713], [-89.2058892937066, 48.3115152270745], [-89.2057804141894, 48.3114891325634], [-89.2056690521618, 48.3114682123328], [-89.2055557623773, 48.3114525700001], [-89.2054411010415, 48.3114422803651], [-89.2050983844918, 48.3114198746677], [-89.2048982151232, 48.3114011960363], [-89.2047404669197, 48.3113784680207], [-89.2045852837292, 48.3113489038157], [-89.2044333333737, 48.3113126309865], [-89.2042852660414, 48.3112698062314], [-89.20414171671, 48.3112206090371], [-89.2040033029148, 48.3111652525179], [-89.2038706108066, 48.3111039728857], [-89.2037442156371, 48.311037035355], [-89.203624657035, 48.3109647238197], [-89.2026307305562, 48.3103212138144], [-89.2025244408854, 48.3102443992068], [-89.2024256819996, 48.3101632348133], [-89.2023348537584, 48.3100780485981], [-89.2022523203609, 48.3099891863036], [-89.2021784181613, 48.3098970050016], [-89.2021134423474, 48.3098018769475], [-89.2020576590704, 48.3097041893474], [-89.2020112915043, 48.3096043338279], [-89.2019745269728, 48.3095027152968], [-89.2019589839089, 48.309448255359], [-89.2019439800652, 48.3093825382636], [-89.201862142544, 48.3089678453679], [-89.2018414686042, 48.3088868296017], [-89.2018117543726, 48.3088070738717], [-89.2017731662037, 48.3087290266575], [-89.2017259253907, 48.3086531281868], [-89.2016702983452, 48.3085798016263], [-89.2016065929008, 48.3085094612501], [-89.2015351673206, 48.3084425023705], [-89.2014564288718, 48.3083792995666], [-89.2013708096448, 48.3083202089465], [-89.2012788000125, 48.308265562109], [-89.2011809122046, 48.3082156659417], [-89.2010776991368, 48.3081708013612], [-89.199245845635, 48.3074384127345], [-89.199967008004, 48.306713069637], [-89.2003339585984, 48.306599112794], [-89.2008543853218, 48.3065415333136], [-89.20146250908, 48.3066022794009], [-89.2020077583488, 48.307015466973], [-89.2022967473982, 48.3071480521123], [-89.2029227105558, 48.3073396794732], [-89.2034701280287, 48.3073769503821], [-89.2040339989561, 48.3074985262003], [-89.204505897462, 48.3076976756365], [-89.2048446537309, 48.3079046771978], [-89.20522229226, 48.3081083865274], [-89.2056587062078, 48.3085162234327], [-89.2058889225624, 48.3087390713777], [-89.2061181862906, 48.3090440588057], [-89.2063006626668, 48.3093378115362], [-89.2064315981733, 48.3094895592013], [-89.2066298505849, 48.309557452076], [-89.2070080754982, 48.3095886836003], [-89.207769366354, 48.30951369914], [-89.2079283535497, 48.3095086096166], [-89.2080697710493, 48.3095544410915], [-89.208420521933, 48.3095251397611], [-89.2086811248821, 48.3095608773358], [-89.2088834950714, 48.3097118480993], [-89.2090198539853, 48.3097891470704], [-89.2092227317706, 48.3099623213285], [-89.209244172875, 48.3100162503827], [-89.2093211086137, 48.310150796439], [-89.2094441064067, 48.3101869840346], [-89.2095629995713, 48.31027668544], [-89.2097257517207, 48.3103943031917], [-89.2098723158856, 48.3105169663603], [-89.2099145965952, 48.3105667697397], [-89.2100193200821, 48.3106268822715], [-89.2100701362196, 48.3106763424579], [-89.2101078212417, 48.3107087097526], [-89.2103213366604, 48.3108366884413], [-89.2103501623503, 48.3108347018176], [-89.2103844702023, 48.3108277979352], [-89.2104532451109, 48.3108567250399], [-89.2105483570264, 48.3108765432034], [-89.2106607172442, 48.3108804999848], [-89.210686859267, 48.3109030244931], [-89.2106663024052, 48.3109487238364], [-89.2107073858755, 48.3109961089354], [-89.210806356068, 48.311070957669], [-89.2108314189295, 48.3110840816516], [-89.2109088087861, 48.3110826005279], [-89.2109378233674, 48.3111596933478], [-89.2109350194977, 48.3112132219083], [-89.2109798230796, 48.3112246786654], [-89.2110814712954, 48.3111999133041], [-89.2111846063123, 48.3111978765447], [-89.2113637873008, 48.3112462329087], [-89.2114455216702, 48.3112692075422], [-89.2115795537538, 48.3112611739954], [-89.2116593303622, 48.3112877500361], [-89.2116870265592, 48.3113302646793], [-89.2117175716507, 48.3113416796506], [-89.2118644087263, 48.311337589538], [-89.2121686906546, 48.3112494861769], [-89.2125334951898, 48.31109648365], [-89.2117232093182, 48.3125363058737], [-89.2118236996726, 48.3128040193168], [-89.2106972103929, 48.3129077106192], [-89.2105782597446, 48.312915719445], [-89.2104513358467, 48.3129178882449], [-89.2103245393862, 48.3129135168979], [-89.2101986295089, 48.3129026294989], [-89.2100743496648, 48.3128852927355], [-89.2099524514382, 48.3128616055333], [-89.2098336561612, 48.3128317159887], [-89.2097186741577, 48.312795798505], [-89.2096081932726, 48.3127540693082], [-89.2095028703188, 48.3127067758144], [-89.2094033298062, 48.3126541984533], [-89.2093101776124, 48.3125966549031], [-89.2092239571951, 48.3125344856368], [-89.2081277386572, 48.3116789615142], [-89.2081038979688, 48.3116631754137], [-89.2080765175951, 48.3116501925242], [-89.208046335425, 48.3116403585691], [-89.2080141492338, 48.3116339380447], [-89.2079808295394, 48.3116310995778], [-89.2079472604984, 48.3116319215593], [-89.2079143435235, 48.311636382178], [-89.2078829514619, 48.3116443603005], [-89.2078539289851, 48.3116556444609], [-89.2078031342812, 48.3116793151704], [-89.2077571223427, 48.3117044208769], [-89.207717022639, 48.3117336922197], [-89.2076836733668, 48.3117665174762], [-89.2076577773172, 48.3118022101463], [-89.2076398673, 48.3118400204119], [-89.2076303233242, 48.3118791582], [-89.2076293448369, 48.3119188063123], [-89.2077013245454, 48.3127720659378], [-89.2077138663152, 48.3128588269371], [-89.2077366972569, 48.3129446516492], [-89.2077696818892, 48.313028993825], [-89.2078126030187, 48.3131113204787], [-89.2078651942398, 48.313191114863], [-89.2079271194452, 48.3132678705648], [-89.2079979921206, 48.3133411010322], [-89.2080773607509, 48.3134103452536], [-89.2091066318184, 48.3142376616794], [-89.2095242864348, 48.3145733580936], [-89.2096052807787, 48.314642109347], [-89.209680679783, 48.3147136322385], [-89.2097502778831, 48.3147877273877], [-89.2098138704308, 48.3148641854989], [-89.2098712848102, 48.3149427894623], [-89.2104373966524, 48.3157733790009], [-89.2104790866502, 48.3158265009765], [-89.2105292311896, 48.3158762680739], [-89.2105872205319, 48.3159220864775], [-89.2106523671569, 48.3159634043556], [-89.2107238863233, 48.3159997302295], [-89.2108009282994, 48.3160306296555], [-89.2115708210951, 48.3163012993491], [-89.2116716459465, 48.3163397790061], [-89.2117681424829, 48.3163829134558], [-89.2118598345754, 48.3164304851339], [-89.2119462573252, 48.3164822555664], [-89.2121351199166, 48.3166058609832], [-89.2122153266136, 48.3166673466136], [-89.2122884636492, 48.3167326373965], [-89.2123541241197, 48.3168013704801], [-89.2124119543277, 48.3168731657932], [-89.2124616215511, 48.3169476293637], [-89.2125028650672, 48.3170243478378], [-89.2125354494073, 48.3171028992764], [-89.2125591951238, 48.3171828471648], [-89.2125739737893, 48.3172637495054], [-89.2125796973315, 48.3173451617224], [-89.2125763421012, 48.3174266317002], [-89.2125666105741, 48.3175265063287], [-89.2125653513571, 48.3175803740515], [-89.2125720285438, 48.3176340629392], [-89.2125865725429, 48.3176870551766], [-89.2126088452541, 48.3177388396638], [-89.2126386321744, 48.3177889166674], [-89.2126756452091, 48.317836800465], [-89.2138123221782, 48.3191446617708], [-89.2138873065883, 48.3192376929082], [-89.2139531809829, 48.3193337390318], [-89.2140096761408, 48.3194324094536], [-89.2140565624534, 48.3195332938262], [-89.2140936425781, 48.3196359793795], [-89.2141207603684, 48.3197400390515], [-89.2141378109337, 48.3198450456905], [-89.2141447201096, 48.3199505652521], [-89.2141414582116, 48.3200561628327], [-89.2141280401136, 48.3201614044674], [-89.2141045250941, 48.3202658535339], [-89.2140710038247, 48.3203690818003], [-89.2140276168926, 48.3204706609704], [-89.213974543098, 48.320570172807], [-89.212368870814, 48.3229362351912], [-89.2122909417231, 48.3230447855666], [-89.2122065821803, 48.3231511796681], [-89.21211592072, 48.3232552395579], [-89.2116246559204, 48.3237933641366], [-89.2115873128483, 48.3238352206366], [-89.2114925952905, 48.3239508027947], [-89.2114072618876, 48.3240695955045], [-89.2113315581641, 48.3241912539607], [-89.21126569726, 48.3243154330798], [-89.2112098677468, 48.3244417810507], [-89.211164229426, 48.3245699358164], [-89.2111289148715, 48.3246995295433], [-89.2111040203802, 48.3248301977919], [-89.2110539124543, 48.325165378845], [-89.2110351432656, 48.3252713149516], [-89.2110107676669, 48.3253767407487], [-89.210980816385, 48.3254815251788], [-89.2108153727958, 48.3260095430654], [-89.2108020904128, 48.3260666551396], [-89.2107979026741, 48.3261243841004], [-89.2108028451375, 48.3261820850481], [-89.2108168738624, 48.3262391155093], [-89.2108398280896, 48.3262948460518], [-89.2108714503442, 48.3263486571989], [-89.2109113921763, 48.3263999474174], [-89.2111273512117, 48.3266451052946], [-89.211188599661, 48.3267213044453], [-89.2112406514218, 48.3268004849511], [-89.2112831923046, 48.3268821526094], [-89.2113159467804, 48.326965802575], [-89.2113387210048, 48.3270509158329], [-89.2113513663812, 48.3271369589993], [-89.211353804451, 48.3272233982385], [-89.2113460241595, 48.3273096984155], [-89.2113280696082, 48.3273953206328], [-89.2113000554297, 48.3274797345306], [-89.2103910845632, 48.3297871114884], [-89.2103646977341, 48.3298655987068], [-89.2103470106046, 48.3299451657082], [-89.2103381179599, 48.3300253823962], [-89.2103380687487, 48.3301058195538], [-89.210346861648, 48.3301860399311], [-89.2103644539292, 48.3302656160695], [-89.2103907447346, 48.3303441180272], [-89.2104214429693, 48.3304129259759], [-89.210458828935, 48.3304802458225], [-89.210502740409, 48.3305457891627], [-89.2105529913258, 48.3306092779467], [-89.2107995251267, 48.330897704698], [-89.2108950823316, 48.3310032587944], [-89.2109984292169, 48.3311054959097], [-89.2111093065759, 48.3312041627817], [-89.2112274405976, 48.3312990118271], [-89.2113525337785, 48.3313898094141], [-89.2114842751645, 48.3314763230691], [-89.2128454232874, 48.3323264188429], [-89.2142066165061, 48.3331764949937], [-89.2143473095593, 48.333269199569], [-89.2144803691827, 48.3333667845537], [-89.2146054229586, 48.3334689701294], [-89.2147221048503, 48.333575468257], [-89.2148300884411, 48.3336859712393], [-89.2149290578185, 48.3338001648778], [-89.2150187355763, 48.3339177207348], [-89.215098861516, 48.3340383028421], [-89.2151330442126, 48.3340548221659], [-89.2163334211425, 48.3346350783327], [-89.2187342615205, 48.3357955506438], [-89.221135206075, 48.3369559710022], [-89.2235362561579, 48.3381163393759], [-89.2259374118117, 48.3392766566582], [-89.2263489342067, 48.3402268510556], [-89.2271720265172, 48.3421272324901], [-89.2279951794856, 48.3440276038625], [-89.2288183947049, 48.3459279705394], [-89.2296416706004, 48.3478283271519], [-89.23005333583, 48.3487785048575], [-89.2635076180827, 48.3568570440812], [-89.2649532905025, 48.3568061231907], [-89.2663989607508, 48.3567551841384], [-89.26784463569, 48.356704229488], [-89.2692903097239, 48.3566532548512], [-89.2707359802331, 48.3566022620791], [-89.2721816431698, 48.3565512512519], [-89.2736273067455, 48.3565002249065], [-89.2750729667124, 48.3564491786283], [-89.276518646079, 48.3563981137613], [-89.2779643233027, 48.3563470316313], [-89.2794099957648, 48.3562959340896], [-89.2808415700697, 48.3559081424042], [-89.2822731180984, 48.3555203341883], [-89.2837046371931, 48.3551325103954], [-89.2848548738822, 48.3548208725284], [-89.2851361045048, 48.3547446732801], [-89.2861405246881, 48.3544725256678], [-89.2866466133121, 48.3543353969874], [-89.2864373511969, 48.3537787476253], [-89.2854347193897, 48.3511115260519], [-89.2853918802842, 48.3510114269137], [-89.2853391900354, 48.3509134400268], [-89.2852768730337, 48.3508179936959], [-89.2852052087972, 48.3507255115293], [-89.2851245108963, 48.350636393963], [-89.2850351345405, 48.3505510370054], [-89.2849374703387, 48.3504698134665], [-89.2848319513238, 48.3503930791174], [-89.2847190367683, 48.3503211730124], [-89.2845992199545, 48.3502544101366], [-89.2844730350787, 48.3501930848686], [-89.284341034043, 48.3501374651438], [-89.2842037960572, 48.3500877958629], [-89.284061918078, 48.350044296383], [-89.2839160307527, 48.3500071548032], [-89.2837667759754, 48.3499765392071], [-89.2836148046949, 48.3499525788125], [-89.2834607858526, 48.3499353826885], [-89.2833053934014, 48.3499250211193], [-89.2831493139744, 48.3499215461455], [-89.2749131184205, 48.3499185947695], [-89.2749649967607, 48.3446564638868], [-89.2786972695793, 48.3446727521707], [-89.2786755939374, 48.3467941079996], [-89.2786758410919, 48.3468627465695], [-89.2787108521703, 48.3468703654405], [-89.2787730813602, 48.34687647582], [-89.2788325416016, 48.3468877471093], [-89.2788989347467, 48.3468861090486], [-89.2789409493545, 48.3469135984984], [-89.2790120249589, 48.3469276365195], [-89.2790499285134, 48.3469221201362], [-89.2790814714213, 48.3469121735072], [-89.279095283213, 48.3469271135383], [-89.2791456153483, 48.3469391153534], [-89.2791692630504, 48.3469520321127], [-89.2792471066638, 48.346977873663], [-89.2792874948066, 48.346975859247], [-89.2793143065912, 48.3469909887101], [-89.2793790271985, 48.3470005979718], [-89.2794597908943, 48.3470249652866], [-89.2795117267412, 48.3469979734182], [-89.2795540518715, 48.3470090289143], [-89.2795751357302, 48.3470165133665], [-89.2796243194045, 48.347023856361], [-89.2797146508344, 48.3470302359069], [-89.2797967013292, 48.34703927368], [-89.2798414387831, 48.3470616459374], [-89.2799153601488, 48.3470664891452], [-89.279989156499, 48.3470768178408], [-89.2801736278743, 48.3470338820175], [-89.2802033109369, 48.3470552723523], [-89.2802668125618, 48.3470459719202], [-89.2804344168814, 48.3471101710296], [-89.2805002809067, 48.3471120650475], [-89.2806079000592, 48.3471113915809], [-89.280746281398, 48.3471262213538], [-89.2807464603307, 48.3469069450266], [-89.2852696723329, 48.3469084156844], [-89.2876768222252, 48.3469086788857], [-89.2876811970531, 48.3444182970314], [-89.289221249544, 48.3439867113436], [-89.2900042104057, 48.3429153009955], [-89.2928041201906, 48.3429143669636], [-89.2928061458875, 48.3420658685039], [-89.297036353031, 48.3420253622374], [-89.2970290572972, 48.3466567741875], [-89.2960500013044, 48.3466563217413], [-89.2960561176284, 48.3498735956418], [-89.3056042498157, 48.3440264805932], [-89.3057203959493, 48.3439359813821], [-89.3057198493402, 48.3440784657913], [-89.3066323891789, 48.3436792707419], [-89.3087282651683, 48.3429115622514], [-89.3128869286277, 48.3414656687159], [-89.3182657445072, 48.3397732423967], [-89.3222478771789, 48.3389909036545], [-89.323943269165, 48.3385193300578], [-89.3215068522629, 48.3397247547536], [-89.3194222806496, 48.3406659482311], [-89.3180365822225, 48.3415770397372], [-89.3171507429826, 48.3425843167371], [-89.3167374045266, 48.3433963193448], [-89.3165725853994, 48.3440819162005], [-89.3165568081857, 48.3451425710876], [-89.3166196688202, 48.3516363913639], [-89.3165954292479, 48.3556428020468], [-89.3164946913067, 48.356227154124], [-89.3163854487386, 48.3567105421108], [-89.3161224475277, 48.3574912566648], [-89.3156682562399, 48.358408277605], [-89.315510521958, 48.3586657346868], [-89.3151348895187, 48.359126256982], [-89.3147288835252, 48.3595822708031], [-89.3143553650782, 48.3599550269906], [-89.313703595472, 48.3605987367393], [-89.3132295050137, 48.3611565286774], [-89.3124938223914, 48.3625756245904], [-89.3124051797428, 48.3631957215489], [-89.3123917981766, 48.3645159291624], [-89.3123803911919, 48.3656535364256], [-89.312386674651, 48.3663183281571], [-89.3124073315112, 48.3675189824339], [-89.3121995748393, 48.3686465062148], [-89.3119760949997, 48.3691488420807], [-89.3115580803258, 48.3697891667634], [-89.3112459520363, 48.3701446505402], [-89.3108143134531, 48.3705388966925], [-89.3101504243824, 48.3710169986583], [-89.3095017411098, 48.3713810616453], [-89.3081721706745, 48.371891098391], [-89.3070994769981, 48.3722679968682], [-89.3052421497409, 48.3728117349997], [-89.3043595757412, 48.3731414192842], [-89.303372325336, 48.3736083407006], [-89.3027059577472, 48.3740221123701], [-89.301932021075, 48.3747169949175], [-89.3011774840727, 48.3756496714105], [-89.300914925705, 48.3762257458719], [-89.3007061145025, 48.3771690968772], [-89.3006778465875, 48.3790287325856], [-89.3006898600711, 48.3807904749924], [-89.2895003593357, 48.3808138737336], [-89.2856842050535, 48.380808694701], [-89.2785718776195, 48.3807987136598], [-89.264902693607, 48.3808534891979], [-89.2425546270694, 48.3808878805873], [-89.2410055067671, 48.3826518609477], [-89.2371589175401, 48.3852005040024], [-89.2330019327317, 48.3875694751648], [-89.225206158976, 48.3902676524725], [-89.2201274654534, 48.391499544934], [-89.2105045793088, 48.3938379589145], [-89.2009556527208, 48.3962928842663], [-89.2009651942796, 48.3954558163166], [-89.2009748099601, 48.3854465718985], [-89.1978464050906, 48.3845659866644]], [[-89.2255818399551, 48.3394433490136], [-89.2153096948266, 48.3344787608432], [-89.2161269023256, 48.3364398718576], [-89.2161665652562, 48.3365244093237], [-89.2162143392566, 48.3366070611202], [-89.2162700192332, 48.3366874847894], [-89.2163333719282, 48.3367653420143], [-89.2164041416239, 48.3368403057066], [-89.2164820234483, 48.3369120668199], [-89.2165666952671, 48.3369803229385], [-89.2176654219737, 48.3378101586335], [-89.218764183238, 48.3386399858926], [-89.2198629788667, 48.3394698002198], [-89.2202768050564, 48.3404252969955], [-89.2206906460179, 48.341380793721], [-89.2211044975506, 48.3423362868782], [-89.2215183638574, 48.343291779985], [-89.2219322447828, 48.3442472694451], [-89.2223461417159, 48.3452027561315], [-89.2227600548531, 48.3461582445388], [-89.2231739852316, 48.347113727449], [-89.224454231316, 48.3474235864605], [-89.2257344950457, 48.3477334273125], [-89.227014777886, 48.3480432526753], [-89.2282950717837, 48.3483530636042], [-89.2295753808626, 48.3486628618182], [-89.2255818399551, 48.3394433490136]]]}, "properties": {"OBJECTID": 36, "WARD_NAME": "WESTFORT", "WARD_NO": "600", "Shape__Area": 35927937.78637695, "Shape__Length": 49799.911903273154}}, {"type": "Feature", "id": 37, "geometry": {"type": "Polygon", "coordinates": [[[-89.2422420287782, 48.51477973412], [-89.2416401999451, 48.5147783706916], [-89.2413889658433, 48.5147840460083], [-89.2307520267309, 48.5147551982648], [-89.2282736472361, 48.5147468710574], [-89.2281990582696, 48.5147469884408], [-89.2281210857415, 48.514598734497], [-89.2279839029748, 48.5144838334349], [-89.2276441505334, 48.5144193401277], [-89.2268679718685, 48.5135491423333], [-89.2266348395466, 48.5130379936322], [-89.2261233986992, 48.5116646565169], [-89.2260790397939, 48.5104185672465], [-89.2254720661354, 48.5097323360201], [-89.2255598491319, 48.5093423427542], [-89.2255281459568, 48.5088490540683], [-89.2259790460061, 48.5086235590324], [-89.2259754588175, 48.5072149626545], [-89.2258521494044, 48.5060670759021], [-89.2254109344068, 48.5057895946094], [-89.2254870516378, 48.5055311186586], [-89.2257853056043, 48.5053532756968], [-89.2255484626896, 48.5050136858094], [-89.2256756109663, 48.5044614621236], [-89.2256353415643, 48.5040486093075], [-89.2256346013167, 48.5037791587387], [-89.2257166363623, 48.50361256103], [-89.2262083641706, 48.5033720736982], [-89.2262931621102, 48.5032714625901], [-89.2262868829647, 48.5031286200683], [-89.2261873517392, 48.5028941025926], [-89.2225080341615, 48.4974777179764], [-89.2222686699449, 48.4971562947944], [-89.2219788126646, 48.4969676583312], [-89.2216345201328, 48.4968217312403], [-89.2210938982271, 48.4966934626806], [-89.2205024849102, 48.4966910569446], [-89.219761499336, 48.4968094948422], [-89.2194715551095, 48.4969398971081], [-89.2191176590985, 48.4972172907523], [-89.2188830764967, 48.497325926477], [-89.2187301584318, 48.4973704507944], [-89.2184347479015, 48.4973761661606], [-89.2174993444616, 48.4972347293141], [-89.2167425624263, 48.4969926626871], [-89.2160534020388, 48.4966869414979], [-89.2154141431324, 48.4962344940412], [-89.2152919105279, 48.4960148934136], [-89.2156436356903, 48.4950438630178], [-89.2160734489816, 48.4945708513464], [-89.2160514981044, 48.4943908807167], [-89.2161748072282, 48.4933479648], [-89.2160926519524, 48.4930790052243], [-89.2156604918, 48.4925324958345], [-89.2147761171674, 48.4919460448914], [-89.212681369769, 48.4910430296214], [-89.2110691302204, 48.4905469789532], [-89.2106551907018, 48.4904162214623], [-89.2103788780472, 48.4902134390146], [-89.2100228726686, 48.4897971602902], [-89.2098651354285, 48.4897308306089], [-89.209384203145, 48.4896776572164], [-89.2073694164256, 48.4899592940643], [-89.2065004020773, 48.4900453847263], [-89.2054621101789, 48.4904468419444], [-89.2045670638941, 48.4905820046482], [-89.2006602252756, 48.4907333363126], [-89.1995283801352, 48.4906024579054], [-89.1981155975063, 48.4901578202758], [-89.1970992929574, 48.490094072705], [-89.1964423724222, 48.4898776773538], [-89.1940066991492, 48.4898688789888], [-89.1909207249045, 48.4901220414064], [-89.1903446372123, 48.490146992171], [-89.1889676942165, 48.489881864236], [-89.1882138442987, 48.4893760318764], [-89.1864961023973, 48.4887151085798], [-89.1859905073786, 48.488412633585], [-89.1851409778019, 48.4876449835327], [-89.1846617250559, 48.4859961923223], [-89.1846664272163, 48.485423609491], [-89.1853282026176, 48.4849294669543], [-89.1866823318483, 48.484792450792], [-89.187940089376, 48.4838745880492], [-89.1880477033574, 48.4826650175429], [-89.190043250718, 48.4821200286861], [-89.1915034617555, 48.4814895030539], [-89.1931649872452, 48.480600834302], [-89.1949998894321, 48.4794639755904], [-89.2035991593998, 48.4742611255104], [-89.2109125852147, 48.4698169222088], [-89.2175187097622, 48.4657437040522], [-89.2196859804418, 48.4644588157519], [-89.2228057759214, 48.4629388723228], [-89.2279849320791, 48.4609174603289], [-89.231563576753, 48.459538982237], [-89.2348232433092, 48.4583173008829], [-89.2375322455865, 48.4571345541676], [-89.2375323739572, 48.4571344895893], [-89.2408149758894, 48.4554790841693], [-89.2432466382213, 48.4541132044915], [-89.2458666408483, 48.4525269890256], [-89.2498222955016, 48.4504154690918], [-89.2534524215531, 48.4486304193747], [-89.2617584139063, 48.4447190977887], [-89.2640745671095, 48.4433267535282], [-89.2751327809666, 48.4338886985715], [-89.2792440634632, 48.4305676480052], [-89.2808758631202, 48.4290849855507], [-89.2817480161811, 48.4280255627125], [-89.2822225186767, 48.4269371800227], [-89.282722853462, 48.4250217691677], [-89.2840907210877, 48.4191385134668], [-89.2846518475492, 48.4162914517065], [-89.2865111674023, 48.4079048059051], [-89.2866822411253, 48.407010106672], [-89.2869950109618, 48.4060872976342], [-89.2871469488352, 48.4057492922626], [-89.2873424055824, 48.4053699733178], [-89.2873424279081, 48.4053699287865], [-89.2873425783958, 48.4053699698806], [-89.2877328544732, 48.405476553835], [-89.2878392943266, 48.4055014204823], [-89.2893677960963, 48.4058585169039], [-89.2921863428373, 48.4065430607492], [-89.2956183339021, 48.4072868520858], [-89.2961338666347, 48.4073985685383], [-89.2972194024765, 48.4075770900464], [-89.297661007468, 48.4076345203839], [-89.2991098385963, 48.4078229268361], [-89.3020344821592, 48.4076643078747], [-89.3044964153025, 48.4072479505741], [-89.3106720971806, 48.4052888214744], [-89.3145980439893, 48.4040086477758], [-89.3148233474362, 48.4039375383216], [-89.3148481993744, 48.4039296952871], [-89.3181551207903, 48.4028859186597], [-89.3224637614002, 48.4017645786547], [-89.3258422837636, 48.4011290308363], [-89.3302492883399, 48.4005225793588], [-89.3364752208659, 48.4002460273562], [-89.3407335722625, 48.4002261071675], [-89.3431137290859, 48.4002154478444], [-89.3431436880042, 48.4002153133804], [-89.3501771131584, 48.4001835311733], [-89.355455170986, 48.4001449842465], [-89.3554868540117, 48.4001450262881], [-89.3631615195624, 48.4001548783183], [-89.3681920549669, 48.3999635406551], [-89.3729836826171, 48.3997417740687], [-89.3744136822059, 48.3997200041595], [-89.376226639747, 48.3996923740674], [-89.3874127678007, 48.3996481708381], [-89.388496536826, 48.3996680813943], [-89.3884972773808, 48.3989845769879], [-89.3912988819429, 48.3989766719996], [-89.3926996926728, 48.3989726995562], [-89.3941005068546, 48.3989687153578], [-89.3954552371115, 48.3989645268906], [-89.3968099705607, 48.3989603214808], [-89.3981647005364, 48.3989561010668], [-89.3995194310448, 48.3989518646652], [-89.400874373339, 48.3989465605577], [-89.4022293119732, 48.3989412387455], [-89.4035842482535, 48.3989358983015], [-89.4049391878321, 48.3989305445062], [-89.4143708876099, 48.3989633443236], [-89.4158287494418, 48.3989683416916], [-89.4171892923536, 48.3989722036634], [-89.4185498376962, 48.398976052171], [-89.4199103811633, 48.3989798819065], [-89.4212709256665, 48.3989836973074], [-89.4226314684624, 48.3989874975315], [-89.4239920106862, 48.3989912780563], [-89.4253525553351, 48.3989950451168], [-89.4267130900033, 48.3989987935762], [-89.4267220885835, 48.3999895002376], [-89.4267302586102, 48.40088975521], [-89.4267384295654, 48.4017900109469], [-89.4267466013635, 48.4026902656507], [-89.4267547739617, 48.4035905184225], [-89.426762948924, 48.4044907737281], [-89.4267711233794, 48.4053910280291], [-89.4267792987635, 48.4062912830946], [-89.4267874750334, 48.4071915380258], [-89.4267956521465, 48.4080917919239], [-89.4268038315813, 48.4089920474569], [-89.4268120132949, 48.409892303726], [-89.4268184494824, 48.4107742733182], [-89.4268447461402, 48.4134933239211], [-89.4268462535722, 48.4136741929617], [-89.4268902718018, 48.4220896710863], [-89.4268957198573, 48.4230803864284], [-89.4268978833258, 48.4234746903541], [-89.4268995005559, 48.4237697501095], [-89.4269010074174, 48.4240438183676], [-89.4269229718331, 48.4280334578312], [-89.426968000505, 48.4353029904915], [-89.4270465612846, 48.4500054660266], [-89.4270737439333, 48.4570484695486], [-89.4270805745483, 48.4579548556153], [-89.4270874057977, 48.4588612370527], [-89.427128410862, 48.4642995174481], [-89.4271819641827, 48.4715521963841], [-89.4272046649264, 48.4751764749605], [-89.4272307101489, 48.4788029016528], [-89.4272374461082, 48.4797071608179], [-89.4272568426927, 48.4824208958607], [-89.4272676541647, 48.4842292344456], [-89.4272748775769, 48.4860371372208], [-89.4273213177558, 48.4900084856831], [-89.4273456138573, 48.4919727225786], [-89.4273735712005, 48.4942891365832], [-89.4274014031301, 48.4965789822941], [-89.4274038019959, 48.4967856105863], [-89.4274078990663, 48.4969679343966], [-89.4274344082501, 48.4990966847464], [-89.4274515704197, 48.5010782204294], [-89.4274823187499, 48.5047434121489], [-89.4274879963995, 48.5055127000207], [-89.4275084768593, 48.507744836902], [-89.4275112152144, 48.5080203091728], [-89.427544412536, 48.5113589816006], [-89.4275806515344, 48.5149648260704], [-89.4177532465272, 48.5149857595897], [-89.4166671710227, 48.5149880739612], [-89.4056466345192, 48.5150019756042], [-89.4053677705717, 48.515002545387], [-89.3947926824635, 48.5150045629575], [-89.3835733459775, 48.5150061964516], [-89.3729766943535, 48.5149768284078], [-89.3726801644681, 48.5149780539352], [-89.3616098474236, 48.5149838987023], [-89.3508082249981, 48.5149877474255], [-89.3476869040378, 48.5149883652747], [-89.346708677573, 48.5149885367845], [-89.3400006681889, 48.5149894970775], [-89.3289522716525, 48.5149547063378], [-89.3281476464199, 48.5149523735748], [-89.3264356236773, 48.5149482658206], [-89.3179578128914, 48.5149252024746], [-89.3071254108927, 48.5149265022904], [-89.30540334582, 48.5149265491813], [-89.304750862291, 48.5149265589869], [-89.3015568742096, 48.514926547627], [-89.2999067112889, 48.5149265062128], [-89.2977182860816, 48.5149264101869], [-89.2962920511502, 48.5149263272041], [-89.2907832326249, 48.5149256475959], [-89.2879570973764, 48.5149250560959], [-89.2852725807106, 48.5149244309112], [-89.2838246307776, 48.514922083727], [-89.283493806309, 48.5149215474788], [-89.2813847623227, 48.5149170521181], [-89.2635884619292, 48.5148483906116], [-89.2633161552065, 48.5148473828207], [-89.25253562076, 48.5148025581814], [-89.2470879200901, 48.5147905888167], [-89.2465161247357, 48.5147893211591], [-89.2452606683128, 48.5147865211526], [-89.243888841722, 48.5147834460199], [-89.2425170106727, 48.5147803546053], [-89.2422420287782, 48.51477973412]]]}, "properties": {"OBJECTID": 37, "WARD_NAME": "MCINTYRE", "WARD_NO": "400", "Shape__Area": 172521016.85925293, "Shape__Length": 56452.36598698144}}, {"type": "Feature", "id": 38, "geometry": {"type": "Polygon", "coordinates": [[[-89.2895982558304, 48.4028154239226], [-89.2924699620696, 48.4004341660599], [-89.2968611287236, 48.3968499086413], [-89.2969877783996, 48.3966984592033], [-89.2978708540833, 48.3959683244434], [-89.2987568518473, 48.3949924903185], [-89.2996320487051, 48.3937784361594], [-89.3001519736267, 48.3926201001253], [-89.3005428878366, 48.3913760048446], [-89.3007056005403, 48.3902034542293], [-89.3007052854688, 48.3830515998785], [-89.3006898600711, 48.3807904749924], [-89.3006778465875, 48.3790287325856], [-89.3007061145025, 48.3771690968772], [-89.300914925705, 48.3762257458719], [-89.3011774840727, 48.3756496714105], [-89.301932021075, 48.3747169949175], [-89.3027059577472, 48.3740221123701], [-89.303372325336, 48.3736083407006], [-89.3043595757412, 48.3731414192842], [-89.3052421497409, 48.3728117349997], [-89.3070994769981, 48.3722679968682], [-89.3081721706745, 48.371891098391], [-89.3095017411098, 48.3713810616453], [-89.3101504243824, 48.3710169986583], [-89.3108143134531, 48.3705388966925], [-89.3112459520363, 48.3701446505402], [-89.3115580803258, 48.3697891667634], [-89.3119760949997, 48.3691488420807], [-89.3121995748393, 48.3686465062148], [-89.3124073315112, 48.3675189824339], [-89.312386674651, 48.3663183281571], [-89.3123803911919, 48.3656535364256], [-89.3123917981766, 48.3645159291624], [-89.3124051797428, 48.3631957215489], [-89.3124938223914, 48.3625756245904], [-89.3132295050137, 48.3611565286774], [-89.313703595472, 48.3605987367393], [-89.3143553650782, 48.3599550269906], [-89.3147288835252, 48.3595822708031], [-89.3151348895187, 48.359126256982], [-89.315510521958, 48.3586657346868], [-89.3156682562399, 48.358408277605], [-89.3161224475277, 48.3574912566648], [-89.3163854487386, 48.3567105421108], [-89.3164946913067, 48.356227154124], [-89.3165954292479, 48.3556428020468], [-89.3166196688202, 48.3516363913639], [-89.3165568081857, 48.3451425710876], [-89.3165725853994, 48.3440819162005], [-89.3167374045266, 48.3433963193448], [-89.3171507429826, 48.3425843167371], [-89.3180365822225, 48.3415770397372], [-89.3194222806496, 48.3406659482311], [-89.3215068522629, 48.3397247547536], [-89.323943269165, 48.3385193300578], [-89.3222478771789, 48.3389909036545], [-89.3182657445072, 48.3397732423967], [-89.3128869286277, 48.3414656687159], [-89.3087282651683, 48.3429115622514], [-89.3066323891789, 48.3436792707419], [-89.3057198493402, 48.3440784657913], [-89.3057203959493, 48.3439359813821], [-89.3057773686673, 48.316851893074], [-89.3060485931274, 48.3168523586621], [-89.3076270296431, 48.3168550426498], [-89.3081694820994, 48.3168559589807], [-89.3087119318691, 48.3168568746031], [-89.3092543829141, 48.316857787638], [-89.3108817260177, 48.3168605079742], [-89.3123343492841, 48.31685901521], [-89.3132653274935, 48.3168609264768], [-89.3141693540765, 48.3168627330264], [-89.3155326342436, 48.3168670246955], [-89.3168978011314, 48.3168703741018], [-89.3182684505578, 48.3168619089232], [-89.3196390142744, 48.3168534938973], [-89.3223802220246, 48.3168365510688], [-89.3249547384833, 48.3168205757069], [-89.325227356642, 48.3168189892592], [-89.3278015743789, 48.3168027005878], [-89.330883258214, 48.3167831460816], [-89.3313621292971, 48.3167801332297], [-89.3318409846118, 48.3167771303976], [-89.3334022196446, 48.3167673285767], [-89.3334023869324, 48.3076045550179], [-89.3348809633324, 48.3076046650119], [-89.336359534924, 48.3076047542686], [-89.3378381099547, 48.3076048262192], [-89.3393166842984, 48.3076048791481], [-89.3393205434747, 48.2985193164343], [-89.3395937060348, 48.2985205960075], [-89.3395973732242, 48.2899011565834], [-89.3364634461204, 48.2894329851573], [-89.3358545894067, 48.2893420162173], [-89.3401086059005, 48.2893457928878], [-89.3528706295846, 48.2893561698303], [-89.3598227515067, 48.2893479069521], [-89.3625667813963, 48.2893410959087], [-89.3639387089352, 48.2893380612397], [-89.3653105996494, 48.289335192689], [-89.366682485349, 48.2893323906292], [-89.3680524722582, 48.2893284128171], [-89.3694240444577, 48.2893240521692], [-89.3707960341568, 48.2893192175461], [-89.3721680494867, 48.2893145891416], [-89.3735403394386, 48.2893111749441], [-89.3749127659546, 48.289307537279], [-89.3762843087892, 48.2893033652217], [-89.3776569629607, 48.2892999284876], [-89.3790287514467, 48.2892960838708], [-89.3804022912434, 48.2892932537138], [-89.3817752535539, 48.2892900663866], [-89.3831473043616, 48.2892863272885], [-89.3845040150663, 48.2892826821886], [-89.3862776966653, 48.289277942933], [-89.3872174315031, 48.289275345801], [-89.3887104912887, 48.289271280826], [-89.3887042543933, 48.2901866170657], [-89.3886980219234, 48.2911019530911], [-89.3886917897962, 48.2920172880872], [-89.3886855566647, 48.292932622082], [-89.3886793198765, 48.2938479560304], [-89.3886730888612, 48.2947632897365], [-89.3886668569254, 48.2956786242391], [-89.3886606253322, 48.2965939577124], [-89.3886543900821, 48.2975092911394], [-89.3886481606053, 48.298424624324], [-89.3886470370496, 48.2994108532179], [-89.3886459128506, 48.3003970828842], [-89.388644792092, 48.3013833141377], [-89.3886436678698, 48.3023695435229], [-89.3886425483516, 48.3033557726696], [-89.3886414282741, 48.3043420043864], [-89.3886403073855, 48.3053282332801], [-89.3886391885903, 48.306314463789], [-89.388638069026, 48.3073006923735], [-89.3886381215074, 48.3085624155007], [-89.3886385626397, 48.309481832074], [-89.3886390017479, 48.3104012494669], [-89.3886394442219, 48.3113206675676], [-89.3886398845458, 48.3122400837914], [-89.3886403282356, 48.3131595007229], [-89.3886407685536, 48.3140789185021], [-89.388641214849, 48.3149983351353], [-89.3886416563408, 48.3159177508464], [-89.3886421039362, 48.3168371681081], [-89.388642546686, 48.3177565835488], [-89.3886429941919, 48.3186760005682], [-89.3886434395054, 48.3195954148117], [-89.3886438881434, 48.3205148288641], [-89.3886443348411, 48.321434245534], [-89.3886447847794, 48.3223536602149], [-89.388645235305, 48.3232730738618], [-89.3886456825421, 48.3241924901541], [-89.3886461343261, 48.3251119035307], [-89.3886465826116, 48.3260313150583], [-89.3886437965798, 48.3269433166836], [-89.3886410123157, 48.3278553163519], [-89.3886382271654, 48.3287673150182], [-89.3886354425608, 48.3296793144523], [-89.3886326598921, 48.3305913155249], [-89.3886298762952, 48.3315033146966], [-89.3886270932021, 48.3324153137371], [-89.3886243119189, 48.3333273117196], [-89.3886215312656, 48.3342393122676], [-89.3886187509902, 48.3351513099878], [-89.3885955967811, 48.3451413955648], [-89.3885934163112, 48.3460794263853], [-89.3885912390963, 48.3470174570105], [-89.3885890624394, 48.3479554874967], [-89.3885868862986, 48.3488935169448], [-89.3885847067124, 48.3498315472367], [-89.3885825451734, 48.3507695761265], [-89.3885803868904, 48.351707604821], [-89.3885782305147, 48.3526456333484], [-89.3885760733492, 48.3535836617647], [-89.3885739140453, 48.3545216900978], [-89.3885717579974, 48.3554597182358], [-89.3885696024664, 48.3563977453358], [-89.388567448885, 48.3573357731675], [-89.3885652945137, 48.3582738008881], [-89.3885631233353, 48.3592118324294], [-89.3885609540641, 48.3601498638035], [-89.3884972773808, 48.3989845769879], [-89.388496536826, 48.3996680813943], [-89.3874127678007, 48.3996481708381], [-89.376226639747, 48.3996923740674], [-89.3744136822059, 48.3997200041595], [-89.3729836826171, 48.3997417740687], [-89.3681920549669, 48.3999635406551], [-89.3631615195624, 48.4001548783183], [-89.3554868540117, 48.4001450262881], [-89.355455170986, 48.4001449842465], [-89.3501771131584, 48.4001835311733], [-89.3431436880042, 48.4002153133804], [-89.3431137290859, 48.4002154478444], [-89.3407335722625, 48.4002261071675], [-89.3364752208659, 48.4002460273562], [-89.3302492883399, 48.4005225793588], [-89.3258422837636, 48.4011290308363], [-89.3224637614002, 48.4017645786547], [-89.3181551207903, 48.4028859186597], [-89.3148481993744, 48.4039296952871], [-89.3148233474362, 48.4039375383216], [-89.3145980439893, 48.4040086477758], [-89.3106720971806, 48.4052888214744], [-89.3044964153025, 48.4072479505741], [-89.3020344821592, 48.4076643078747], [-89.2991098385963, 48.4078229268361], [-89.297661007468, 48.4076345203839], [-89.2972194024765, 48.4075770900464], [-89.2961338666347, 48.4073985685383], [-89.2956183339021, 48.4072868520858], [-89.2921863428373, 48.4065430607492], [-89.2893677947462, 48.4058585169308], [-89.2878392943266, 48.4055014204823], [-89.2877328544732, 48.405476553835], [-89.2873425783958, 48.4053699698806], [-89.2873424279081, 48.4053699287865], [-89.2874826558379, 48.4051260877295], [-89.2876964822347, 48.4047881965442], [-89.2880413287176, 48.4043082296342], [-89.2887561984843, 48.4034635034063], [-89.2895982558304, 48.4028154239226]]]}, "properties": {"OBJECTID": 38, "WARD_NAME": "NEEBING", "WARD_NO": "700", "Shape__Area": 69034411.61889648, "Shape__Length": 42633.21964814863}}, {"type": "Feature", "id": 39, "geometry": {"type": "Polygon", "coordinates": [[[-89.2387014462303, 48.4560843715151], [-89.2387447017446, 48.4560629177811], [-89.2387445287534, 48.4560629211479], [-89.2387435947923, 48.4560629375253], [-89.238743424504, 48.4560629408395], [-89.2387432513942, 48.4560629415094], [-89.2383628160934, 48.4560692248115], [-89.2383626430231, 48.4560692263798], [-89.2383624740863, 48.4560692296671], [-89.2382743614933, 48.4560706850812], [-89.238274188423, 48.4560706866493], [-89.2382740154317, 48.4560706900154], [-89.2381156402346, 48.4560733028248], [-89.2381154671247, 48.4560733034938], [-89.2381152941334, 48.4560733068596], [-89.2374810390909, 48.4560837732827], [-89.2374810144711, 48.4560836747914], [-89.2374808659463, 48.4560831270462], [-89.2374807283048, 48.4560826114795], [-89.2374805711255, 48.4560820207157], [-89.2374803851533, 48.4560813288425], [-89.2374798219573, 48.4560792254339], [-89.237479365547, 48.4560775203278], [-89.2374771371856, 48.4560692006901], [-89.2374763042632, 48.4560661002299], [-89.2374759565437, 48.4560648059851], [-89.2374756295159, 48.4560635824165], [-89.2374747923493, 48.4560604469494], [-89.2374737406948, 48.4560565247924], [-89.2374727422949, 48.4560527986402], [-89.2374721907732, 48.4560507453894], [-89.2374716805952, 48.4560488325918], [-89.2374711437663, 48.4560468366379], [-89.237470493007, 48.4560444029325], [-89.2374698799322, 48.4560421187488], [-89.2374692617753, 48.456039811271], [-89.2374689024616, 48.4560384686665], [-89.2374684428749, 48.4560367528252], [-89.2374679074769, 48.4560347586429], [-89.2374673442029, 48.4560326534364], [-89.2374666722386, 48.4560301373683], [-89.2374662547466, 48.4560285790606], [-89.2374657501254, 48.4560267003447], [-89.2374653387508, 48.4560251581131], [-89.2374650947193, 48.4560242532337], [-89.2374646352119, 48.4560225391904], [-89.2374641709386, 48.4560208090446], [-89.2374638196079, 48.4560194941764], [-89.2374634587058, 48.4560181462043], [-89.237463036053, 48.4560165628045], [-89.2374627873742, 48.4560156445196], [-89.2374623893412, 48.4560141596111], [-89.237461959022, 48.4560125556668], [-89.2374616979187, 48.4560115701438], [-89.2374614907417, 48.4560107959079], [-89.2374612421421, 48.4560098794208], [-89.2374609649946, 48.4560088366272], [-89.237460662192, 48.4560077025603], [-89.237460397232, 48.4560067216109], [-89.2374601814796, 48.4560059061543], [-89.2374599870116, 48.4560051748583], [-89.2374597301528, 48.4560042243421], [-89.2374594727801, 48.4560032621395], [-89.2374592622679, 48.4560024735729], [-89.2374590380905, 48.4560016510823], [-89.2374587775011, 48.4560006772458], [-89.2374584746987, 48.4559995431788], [-89.2374581104221, 48.4559981799769], [-89.2374577703306, 48.4559969053778], [-89.2374574596641, 48.4559957462714], [-89.2374571086103, 48.4559944376958], [-89.2374568805048, 48.45599358739], [-89.2374567074346, 48.455993588957], [-89.2363062424272, 48.4560129332754], [-89.2360703199534, 48.4560169005796], [-89.2360701468436, 48.4560169012454], [-89.2360696350496, 48.4560017120724], [-89.2360690866328, 48.4559854430366], [-89.2360686936016, 48.4559738189802], [-89.2360681883087, 48.4559588393175], [-89.2360673846382, 48.4559403934007], [-89.2360662886897, 48.4559100920379], [-89.2360625946261, 48.4558077252], [-89.2360607055626, 48.4557554309823], [-89.2360592615565, 48.4557154831918], [-89.2360590925022, 48.4557154837788], [-89.2358129874878, 48.455719608009], [-89.2358128144975, 48.4557196113714], [-89.2358126415071, 48.4557196147337], [-89.2355658199882, 48.4557237487621], [-89.2355656469978, 48.4557237521241], [-89.2355654740074, 48.4557237554861], [-89.2355651036208, 48.4557237608849], [-89.2355649306304, 48.4557237642469], [-89.2355647575215, 48.455723764912], [-89.2353186550541, 48.4557278871342], [-89.2353184820636, 48.4557278904958], [-89.2353183089942, 48.4557278920595], [-89.2353179386865, 48.4557278992554], [-89.2353177655776, 48.4557278999202], [-89.2353175925872, 48.4557279032818], [-89.2350714875558, 48.455732029523], [-89.2350713185408, 48.4557320310075], [-89.2350711455503, 48.4557320343688], [-89.2350707752425, 48.455732041564], [-89.2350706021336, 48.4557320422283], [-89.2350704318461, 48.4557320455371], [-89.235070387247, 48.4557320464036], [-89.2350702169594, 48.4557320497124], [-89.23507004389, 48.4557320512757], [-89.2348236034337, 48.4557361790047], [-89.2348234303247, 48.4557361796686], [-89.2348232573342, 48.4557361830295], [-89.2345782455407, 48.4557402869747], [-89.2345780751742, 48.4557402884848], [-89.2345779021836, 48.4557402918453], [-89.2345771546918, 48.4557403036668], [-89.2345769817012, 48.4557403070273], [-89.2345768127651, 48.4557403103091], [-89.2345764383237, 48.4557403157835], [-89.2345762653332, 48.455740319144], [-89.234576096397, 48.4557403224257], [-89.2343292705313, 48.4557444538822], [-89.2343290974617, 48.4557444554444], [-89.2343289244711, 48.4557444588046], [-89.2338466129065, 48.4557525304953], [-89.2338464399158, 48.4557525338548], [-89.2338462668067, 48.4557525345173], [-89.2336991388206, 48.4557545737328], [-89.2336989657115, 48.4557545743951], [-89.2336929197214, 48.4557656459965], [-89.2336878367996, 48.4557749606204], [-89.2336844625837, 48.4557811388993], [-89.233681440163, 48.4557866724391], [-89.2336667747778, 48.4558165672888], [-89.2336530787341, 48.4558490399313], [-89.2336412638065, 48.4558826438929], [-89.2336359325485, 48.4559013718007], [-89.2336337704483, 48.455907892731], [-89.2336320213359, 48.455913961176], [-89.2336297953827, 48.4559255920064], [-89.2336275484542, 48.4559346491198], [-89.2336245531079, 48.4559498920057], [-89.2336196415767, 48.4559828994559], [-89.2336174546015, 48.4560278419882], [-89.233616604808, 48.4560508267661], [-89.2336164573506, 48.4560681476093], [-89.2336169114592, 48.4560894668629], [-89.2336181865227, 48.4561619152586], [-89.2336180174667, 48.4561619158421], [-89.2281964745583, 48.4562175993727], [-89.2281963014473, 48.4562176000268], [-89.2282285818545, 48.4570196826668], [-89.2282284114438, 48.4570196832685], [-89.2254759447046, 48.45706229281], [-89.2254757716299, 48.4570622943589], [-89.2254543206039, 48.4531186206472], [-89.2254541480535, 48.4531186338825], [-89.2228116369116, 48.4533572336417], [-89.2228114671017, 48.4533572477198], [-89.2228112944319, 48.4533572582543], [-89.2224006652364, 48.4533802664653], [-89.2224004924487, 48.4533802743022], [-89.2224054079661, 48.4532442879625], [-89.2224370233197, 48.4532015149715], [-89.2225091291804, 48.4531547764167], [-89.2228852137517, 48.4530584102143], [-89.2229568907775, 48.4530291820792], [-89.2230031231411, 48.452992488433], [-89.2229641984041, 48.4528405054632], [-89.2230029461974, 48.452796797316], [-89.223053599568, 48.4527791122467], [-89.2230537725499, 48.4527791089037], [-89.2231454312804, 48.4527773365791], [-89.2231456042623, 48.4527773332359], [-89.2232035834622, 48.4527905318529], [-89.2233281149121, 48.4528764224934], [-89.2233282793931, 48.4528764103169], [-89.2238083367443, 48.4528408972421], [-89.2238085094121, 48.4528408867062], [-89.2238692762807, 48.4527921963533], [-89.2239219288243, 48.4526175379988], [-89.2238942411088, 48.4523396450917], [-89.2235269681111, 48.4520427088071], [-89.2234620374126, 48.4519176339113], [-89.2234336861389, 48.451898296123], [-89.2230729757339, 48.4518535622299], [-89.2230390332432, 48.4518430813622], [-89.2229052707197, 48.4515690295066], [-89.2228594458011, 48.451537100149], [-89.2226539815159, 48.451514821741], [-89.2225876229195, 48.4514713424401], [-89.2225940148224, 48.4512916474987], [-89.2225503008484, 48.4512216915873], [-89.2224016138995, 48.4511577433235], [-89.22209190139, 48.451100904915], [-89.2220918004855, 48.4511008861705], [-89.2220917284137, 48.4511009082565], [-89.2219631589211, 48.4511399667164], [-89.2219002867437, 48.4511483241185], [-89.2219001455553, 48.4511483430408], [-89.2219001137673, 48.4511483274597], [-89.2218407161819, 48.4511181993027], [-89.2216162159502, 48.4510543926717], [-89.2214048129446, 48.4510330211973], [-89.2213246714275, 48.4510051360178], [-89.2213593444782, 48.4508405916745], [-89.2211305162376, 48.4506394584277], [-89.2211069545998, 48.4504827137], [-89.2211067813509, 48.4504827107472], [-89.220887952206, 48.4504750226389], [-89.2208877830112, 48.4504750196075], [-89.2206971072624, 48.4504333761461], [-89.2206970239274, 48.4504333570611], [-89.2206969342882, 48.4504333794854], [-89.2206129884307, 48.4504532771664], [-89.2204646234834, 48.4504768151993], [-89.2204645374668, 48.4504768276565], [-89.220464450509, 48.4504768185383], [-89.2203539549671, 48.4504638494994], [-89.2201560995569, 48.4503682538458], [-89.2201560579968, 48.450368231255], [-89.220155930637, 48.4503682571061], [-89.2201050619807, 48.4503779662725], [-89.2198804226568, 48.4504642408719], [-89.2198263785358, 48.4505138124873], [-89.2198109657211, 48.4505443381024], [-89.219816425339, 48.4505871911815], [-89.2199318730679, 48.4508915754042], [-89.219910223649, 48.4509831330085], [-89.2198711583753, 48.4510196844078], [-89.2195188840955, 48.4510837454006], [-89.2195187834476, 48.4510837635377], [-89.2195187111189, 48.4510837487382], [-89.2193727867434, 48.4510539671376], [-89.219289624306, 48.4510010975877], [-89.2190021068182, 48.4508351975401], [-89.2189233679835, 48.4508120557929], [-89.2188623252139, 48.4508076810755], [-89.2188621894497, 48.4508076692987], [-89.2188621562924, 48.450807684334], [-89.2184595128752, 48.4509522667556], [-89.2183231468572, 48.450978764635], [-89.2183229742727, 48.4509787769606], [-89.2182268107056, 48.4509869736095], [-89.2182267647588, 48.4509869744955], [-89.2182266408238, 48.4509869858828], [-89.2182265959149, 48.450986979551], [-89.2181555894654, 48.4509756311609], [-89.2181045305653, 48.4509200363232], [-89.2180982387039, 48.450741468896], [-89.2180960753083, 48.4506800564649], [-89.2179344809834, 48.4505695555649], [-89.2179000110908, 48.4504245577639], [-89.2179147901099, 48.4503343251559], [-89.2179616653634, 48.4502300056405], [-89.2181104478374, 48.4501316755596], [-89.2185384731831, 48.4499102196343], [-89.2187964873157, 48.4496840879843], [-89.2188483419638, 48.4495945517505], [-89.2189330792353, 48.4494706386575], [-89.2188984655467, 48.4494172110787], [-89.2182288880995, 48.4492596978107], [-89.2181131751681, 48.4491507515238], [-89.2180903738877, 48.449093915381], [-89.2180776311017, 48.4490209735763], [-89.2180649238122, 48.4488939349018], [-89.2180186464904, 48.448710071574], [-89.2178739272842, 48.4484219896446], [-89.2177261334377, 48.4482807638404], [-89.217689742431, 48.4482210423714], [-89.2177380759021, 48.4479233466921], [-89.2178049530499, 48.4478114788155], [-89.2183116980003, 48.4473936020324], [-89.2183636312315, 48.4473504382898], [-89.2184204351948, 48.4473398182505], [-89.2184205626654, 48.4473397950983], [-89.2184206081587, 48.4473398149147], [-89.2185058892048, 48.4473771275088], [-89.2185652498383, 48.4474088209217], [-89.2185873094635, 48.447443214056], [-89.2185653470724, 48.4475342889336], [-89.2185708859351, 48.4475873110918], [-89.2186570107917, 48.4476621898728], [-89.2188222828462, 48.4478602641155], [-89.2188685844167, 48.4479349472929], [-89.2189649099235, 48.4479776392159], [-89.2189650792275, 48.4479776449471], [-89.2190977112415, 48.4479830174116], [-89.2190978777646, 48.4479830213969], [-89.219196018279, 48.4479256516593], [-89.2193177460642, 48.4478697962571], [-89.2196206242397, 48.4477388322869], [-89.2197413471542, 48.4477120606637], [-89.220241966849, 48.4476204569461], [-89.2203148657036, 48.4475920012869], [-89.2203736041036, 48.4475119972317], [-89.2203930031599, 48.4474329855567], [-89.2203966657075, 48.4473621043865], [-89.220387555396, 48.4473083873772], [-89.2203347558927, 48.4472527290338], [-89.220104860703, 48.4471632967781], [-89.220104690364, 48.4471632982664], [-89.2200345031683, 48.447163862946], [-89.22003433279, 48.4471638635352], [-89.2199445056606, 48.4471878708639], [-89.2198785999237, 48.4472089935014], [-89.2198784665208, 48.447209035664], [-89.2198784269603, 48.4472089968394], [-89.2198297656209, 48.4471585910981], [-89.2198247203957, 48.4470957965064], [-89.2198454645837, 48.447055341142], [-89.2199340800575, 48.446948622692], [-89.2199825705994, 48.4468489109989], [-89.2200170027305, 48.4467934871556], [-89.2198870690908, 48.4466106416179], [-89.2198558482574, 48.4465253290121], [-89.2197304534666, 48.4463917161508], [-89.2196757064463, 48.4463426550108], [-89.219676936181, 48.446288535969], [-89.2197436990062, 48.4461742830352], [-89.2197905209159, 48.4461511039791], [-89.2197906937581, 48.4461510979444], [-89.2198524011687, 48.4461483244705], [-89.21985257405, 48.4461483193346], [-89.2200169094316, 48.4461896690697], [-89.2200169969307, 48.4461896907739], [-89.2200170823914, 48.4461896657315], [-89.2200925228524, 48.4461667538625], [-89.2201158594857, 48.446096040899], [-89.2201224103032, 48.4460386017152], [-89.2201050896041, 48.4460074472991], [-89.2200542739436, 48.4459749770413], [-89.2200076621321, 48.4458931447616], [-89.2200360422195, 48.4458583875205], [-89.2200638837091, 48.4458387579169], [-89.2201448629922, 48.4458037826069], [-89.2202971972571, 48.4457618857999], [-89.220297282717, 48.4457618607574], [-89.220297367513, 48.4457618825136], [-89.2204784219755, 48.4458044851916], [-89.220478498429, 48.4458045017103], [-89.2204785908803, 48.445804481931], [-89.2205424225261, 48.4457897420671], [-89.2205758194558, 48.4457438832538], [-89.2206695762504, 48.4456365278089], [-89.2207213463775, 48.4455054697717], [-89.2207115469, 48.4454274248025], [-89.2206348010021, 48.4452207567726], [-89.2205394031768, 48.4451740679364], [-89.2204638957424, 48.4451593430263], [-89.2200907054479, 48.4447896210965], [-89.2197182711878, 48.4445287146277], [-89.2197092881636, 48.4443682943888], [-89.2198057961576, 48.4442483101151], [-89.2200153599174, 48.4442029483142], [-89.2202704827831, 48.443942225637], [-89.2204753212923, 48.4438814230672], [-89.2204754940483, 48.4438814152336], [-89.2207470302956, 48.4438653601688], [-89.2207472030123, 48.4438653514359], [-89.2208478255484, 48.4438403963329], [-89.2209271799709, 48.4437469550038], [-89.2209123060342, 48.4437161124495], [-89.2207306723223, 48.4435327247802], [-89.2205906631474, 48.443447455823], [-89.2204469154373, 48.4432296225348], [-89.2202597211637, 48.4431818065446], [-89.2201435217118, 48.4430881472418], [-89.220110612941, 48.4430276889862], [-89.2200485187281, 48.4429097857564], [-89.2200243648589, 48.4428222790793], [-89.2200508759205, 48.4427771039264], [-89.2200878136369, 48.4426911245259], [-89.2201008781698, 48.4422673345414], [-89.2201029428956, 48.4422431999297], [-89.220109476978, 48.4421668064298], [-89.2201041054681, 48.4420682340532], [-89.2199789827598, 48.4418904610309], [-89.219939553048, 48.441834439179], [-89.2198675702144, 48.4417912890859], [-89.2197830647516, 48.4416724641214], [-89.2197068591447, 48.4414641573575], [-89.2195164036225, 48.4413879833452], [-89.219538153327, 48.4413667628074], [-89.2230814509466, 48.4379096007953], [-89.224015290108, 48.4369983758707], [-89.2244926846272, 48.436556851455], [-89.2256261771536, 48.4367820102292], [-89.2263183851213, 48.4367210876888], [-89.2286690515828, 48.4370322272933], [-89.2288781765948, 48.4368102683233], [-89.2292027584633, 48.4365120720895], [-89.2293442186326, 48.4364724180251], [-89.2295941973895, 48.4363947682165], [-89.2299373323851, 48.4362505923972], [-89.2302851443449, 48.4359064729541], [-89.2324964388356, 48.4369120715302], [-89.2331366281552, 48.4362838795963], [-89.2339831114183, 48.4366774405917], [-89.2354220802337, 48.4343679321096], [-89.2374438823626, 48.4310573281958], [-89.2382661783535, 48.4296504892584], [-89.2485231372204, 48.4324813472409], [-89.2491393629579, 48.4325923373227], [-89.2529720372122, 48.4336599179736], [-89.25307944362, 48.4334558131517], [-89.2531533113027, 48.4332074424487], [-89.2530440441851, 48.4328184256335], [-89.252761419987, 48.4323526865727], [-89.2527422295992, 48.426392602491], [-89.252783415731, 48.4256124244233], [-89.2528125852844, 48.4217679334765], [-89.2528410166005, 48.4213299641991], [-89.2530310684928, 48.4208543636889], [-89.2531876565321, 48.4206127052907], [-89.2534251081527, 48.4203084926927], [-89.2538328399764, 48.4199823812678], [-89.2545283880783, 48.4196502596742], [-89.2566869408226, 48.4189614437318], [-89.2571588710337, 48.4187225846998], [-89.2575284511829, 48.4184491909002], [-89.2578497755833, 48.4181140622526], [-89.2580403663343, 48.4177790405079], [-89.2581652998089, 48.4174364631818], [-89.258195401584, 48.4117870354525], [-89.2582070190667, 48.4065023667035], [-89.2632516025187, 48.4061621818557], [-89.2693393166619, 48.4057621358585], [-89.2738442299195, 48.4054972257084], [-89.2755245634237, 48.4053823719665], [-89.2776845275272, 48.4052750220037], [-89.2795340053589, 48.4051830687278], [-89.2811537251036, 48.4051025154811], [-89.2827897370788, 48.4050211274241], [-89.2835545317585, 48.4049858787308], [-89.2848777620235, 48.4049827844526], [-89.2858032850192, 48.4050693650027], [-89.2869088965141, 48.405282859779], [-89.2870269686368, 48.4053065745267], [-89.2871687331386, 48.4053350436502], [-89.2873424279081, 48.4053699287865], [-89.2873424055824, 48.4053699733178], [-89.2871469488352, 48.4057492922626], [-89.2869950109618, 48.4060872976342], [-89.2866822411253, 48.407010106672], [-89.2865111674023, 48.4079048059051], [-89.2846518475492, 48.4162914517065], [-89.2840907210877, 48.4191385134668], [-89.282722853462, 48.4250217691677], [-89.2822225186767, 48.4269371800227], [-89.2817480161811, 48.4280255627125], [-89.2808758631202, 48.4290849855507], [-89.2792440634632, 48.4305676480052], [-89.2751327809666, 48.4338886985715], [-89.2640745671095, 48.4433267535282], [-89.2617584139063, 48.4447190977887], [-89.2534524215531, 48.4486304193747], [-89.2498222955016, 48.4504154690918], [-89.2458666408483, 48.4525269890256], [-89.2432466382213, 48.4541132044915], [-89.2408149758894, 48.4554790841693], [-89.2375323739572, 48.4571344895893], [-89.2375322455865, 48.4571345541676], [-89.2375322009622, 48.4571344929543], [-89.2375314381188, 48.4571333561397], [-89.2375306148357, 48.457132136826], [-89.2375296785848, 48.4571307478614], [-89.2375288042833, 48.4571294449655], [-89.2375280998486, 48.457128405985], [-89.2375272331348, 48.4571271218358], [-89.2375265991934, 48.4571261786548], [-89.2375257655408, 48.4571249388489], [-89.2375248988271, 48.4571236546997], [-89.2375240436371, 48.4571223865215], [-89.237523231878, 48.4571211831787], [-89.2375227022421, 48.4571203972207], [-89.2375220134649, 48.4571193759302], [-89.2375215097374, 48.4571186254574], [-89.2375206212491, 48.457117307542], [-89.2375196054874, 48.4571158022595], [-89.2375188788436, 48.4571147196242], [-89.2375180163825, 48.4571134398908], [-89.2375172641071, 48.457112328063], [-89.2375162047961, 48.4571107552481], [-89.2375152236845, 48.4571092996764], [-89.2375143827216, 48.4571080474164], [-89.2375133264696, 48.4571064826396], [-89.2375123033579, 48.457104964004], [-89.23751160433, 48.4571039249182], [-89.2375102660738, 48.4571019454533], [-89.2375092660885, 48.4571004605575], [-89.237506962181, 48.4570970387159], [-89.2375041694849, 48.4570928985012], [-89.2375012158619, 48.4570885130914], [-89.237497967202, 48.4570836934529], [-89.2374946924763, 48.4570788347332], [-89.2374918965654, 48.4570746828842], [-89.2374884108043, 48.4570695160633], [-89.2374866322032, 48.4570668739655], [-89.2374841272762, 48.4570631564238], [-89.2374820464856, 48.4570600712391], [-89.2374794719435, 48.4570562470839], [-89.2374752032766, 48.4570499177457], [-89.2374720803853, 48.4570452819041], [-89.2374675135853, 48.4570385093999], [-89.237462901767, 48.4570316666926], [-89.2374592825028, 48.4570262937304], [-89.2374570597809, 48.457022995371], [-89.2374537069037, 48.4570180203058], [-89.2374470200252, 48.457008099499], [-89.2374337994575, 48.4569884807365], [-89.2374203590438, 48.4569685378476], [-89.2374144650584, 48.4569597910583], [-89.2374070011313, 48.4569487175149], [-89.2373940729275, 48.4569295330287], [-89.2373666191129, 48.4568887964441], [-89.2373447148381, 48.4568562942019], [-89.2373301789583, 48.4568347234058], [-89.2373187878068, 48.4568178240183], [-89.2373042217497, 48.4567962124183], [-89.2372895745274, 48.4567744773328], [-89.2372817170405, 48.4567628194141], [-89.2373256052774, 48.4567426549232], [-89.2373390498147, 48.4567364786109], [-89.2373575034597, 48.4567279987342], [-89.2373891641764, 48.4567134182337], [-89.2374213969662, 48.4566984972963], [-89.2374540501112, 48.4566833540379], [-89.2374845068308, 48.4566692027074], [-89.2375045651159, 48.4566598710418], [-89.2375361363019, 48.4566451635805], [-89.2375674346391, 48.4566305576889], [-89.2375941895538, 48.456618048363], [-89.2376255228933, 48.4566033778937], [-89.2376553454627, 48.4565893882081], [-89.2377516876033, 48.4565440418494], [-89.237787643913, 48.4565270563724], [-89.2378320948203, 48.4565060080025], [-89.2378981562307, 48.4564746331727], [-89.2379509944598, 48.4564494528776], [-89.2379937718087, 48.4564290155296], [-89.2380292966351, 48.4564120032813], [-89.2380605983218, 48.4563969878118], [-89.2381270924314, 48.4563650007119], [-89.2381991971116, 48.4563301800262], [-89.2382136376786, 48.4563231888696], [-89.2382487541211, 48.4563060288457], [-89.2382997888497, 48.4562810931172], [-89.2383431166231, 48.456259921545], [-89.2383740591269, 48.4562448014117], [-89.2384061894322, 48.4562291012241], [-89.2384444004185, 48.456210429659], [-89.238478648073, 48.4561936949472], [-89.2385043532689, 48.4561811329561], [-89.238531870013, 48.4561676872613], [-89.2385725888809, 48.4561477891034], [-89.2386057758084, 48.4561315734456], [-89.2386393493637, 48.4561151685085], [-89.2386665118723, 48.4561016972846], [-89.2387014462303, 48.4560843715151]]]}, "properties": {"OBJECTID": 39, "WARD_NAME": "RED RIVER", "WARD_NO": "200", "Shape__Area": 13439759.536987305, "Shape__Length": 20591.39890737377}}, {"type": "Feature", "id": 40, "geometry": {"type": "Polygon", "coordinates": [[[-89.2582070190667, 48.4065023667035], [-89.2581950325871, 48.4026262766731], [-89.2581833780001, 48.3910073429916], [-89.2581434115346, 48.3896588093983], [-89.2575815009715, 48.3894415340662], [-89.2576469371071, 48.3893655134665], [-89.2584077690484, 48.3884746011249], [-89.2585203516727, 48.3883427717683], [-89.258757700986, 48.3880648293526], [-89.2589007941564, 48.3878972627772], [-89.2611465399207, 48.3852672937034], [-89.2619679137461, 48.3843053131338], [-89.2620994256699, 48.3841512827613], [-89.2620994653941, 48.3841512342936], [-89.2622053235403, 48.3840221606861], [-89.2627272203456, 48.3834104726375], [-89.262954932884, 48.383143575151], [-89.2634428903343, 48.3825716480242], [-89.2635971818699, 48.3823908095732], [-89.2639798473508, 48.381941984885], [-89.2641411946971, 48.381752673355], [-89.2646076989612, 48.3812079802365], [-89.2648332547895, 48.3809439573166], [-89.264902693607, 48.3808534891979], [-89.2785718776195, 48.3807987136598], [-89.2856842050535, 48.380808694701], [-89.2895003593357, 48.3808138737336], [-89.3006898600711, 48.3807904749924], [-89.3007052854688, 48.3830515998785], [-89.3007056005403, 48.3902034542293], [-89.3005428878366, 48.3913760048446], [-89.3001519736267, 48.3926201001253], [-89.2996320487051, 48.3937784361594], [-89.2987568518473, 48.3949924903185], [-89.2978708540833, 48.3959683244434], [-89.2969877783996, 48.3966984592033], [-89.2968611287236, 48.3968499086413], [-89.2924699620696, 48.4004341660599], [-89.2895982557901, 48.4028154230237], [-89.2887561914516, 48.4034634972481], [-89.2880413287176, 48.4043082296342], [-89.2876964836251, 48.4047881974163], [-89.2874826572284, 48.4051260886016], [-89.2873424279081, 48.4053699287865], [-89.2871687331386, 48.4053350436502], [-89.2870269686368, 48.4053065745267], [-89.2869088965141, 48.405282859779], [-89.2858032850192, 48.4050693650027], [-89.2848777620235, 48.4049827844526], [-89.2835545317585, 48.4049858787308], [-89.2827897370788, 48.4050211274241], [-89.2811537251036, 48.4051025154811], [-89.2795340053589, 48.4051830687278], [-89.2776845275272, 48.4052750220037], [-89.2755245634237, 48.4053823719665], [-89.2738442299195, 48.4054972257084], [-89.2693393166619, 48.4057621358585], [-89.2632516025187, 48.4061621818557], [-89.2582070190667, 48.4065023667035]]]}, "properties": {"OBJECTID": 40, "WARD_NAME": "NORTHWOOD", "WARD_NO": "500", "Shape__Area": 7738492.405761719, "Shape__Length": 10879.578439968816}}, {"type": "Feature", "id": 41, "geometry": {"type": "Polygon", "coordinates": [[[-89.2286690515828, 48.4370322272933], [-89.2263183851213, 48.4367210876888], [-89.2256261771536, 48.4367820102292], [-89.2244926846272, 48.436556851455], [-89.224015290108, 48.4369983758707], [-89.2231641106446, 48.4362105399736], [-89.2213187759885, 48.43539361563], [-89.2200268586561, 48.4349096139057], [-89.217296312926, 48.4340483448555], [-89.2022335611508, 48.427453580278], [-89.2010100420719, 48.399150482592], [-89.2009556527208, 48.3962928842663], [-89.2105045793088, 48.3938379589145], [-89.2201274654534, 48.391499544934], [-89.225206158976, 48.3902676524725], [-89.2330019327317, 48.3875694751648], [-89.2371589175401, 48.3852005040024], [-89.2410055067671, 48.3826518609477], [-89.2425546270694, 48.3808878805873], [-89.264902693607, 48.3808534891979], [-89.2648332547895, 48.3809439573166], [-89.2646076989612, 48.3812079802365], [-89.2641411946971, 48.381752673355], [-89.2639798473508, 48.381941984885], [-89.2635971818699, 48.3823908095732], [-89.2634428903343, 48.3825716480242], [-89.262954932884, 48.383143575151], [-89.2627272203456, 48.3834104726375], [-89.2622053235403, 48.3840221606861], [-89.2620994653941, 48.3841512342936], [-89.2620994256699, 48.3841512827613], [-89.2619679137461, 48.3843053131338], [-89.2611465399207, 48.3852672937034], [-89.2589007941564, 48.3878972627772], [-89.258757700986, 48.3880648293526], [-89.2585203516727, 48.3883427717683], [-89.2584077690484, 48.3884746011249], [-89.2576469371071, 48.3893655134665], [-89.2575815009715, 48.3894415340662], [-89.2581434115346, 48.3896588093983], [-89.2581833780001, 48.3910073429916], [-89.2581950325871, 48.4026262766731], [-89.2582070190667, 48.4065023667035], [-89.258195401584, 48.4117870354525], [-89.2581652998089, 48.4174364631818], [-89.2580403663343, 48.4177790405079], [-89.2578497755833, 48.4181140622526], [-89.2575284511829, 48.4184491909002], [-89.2571588710337, 48.4187225846998], [-89.2566869408226, 48.4189614437318], [-89.2545283880783, 48.4196502596742], [-89.2538328399764, 48.4199823812678], [-89.2534251081527, 48.4203084926927], [-89.2531876565321, 48.4206127052907], [-89.2530310684928, 48.4208543636889], [-89.2528410166005, 48.4213299641991], [-89.2528125852844, 48.4217679334765], [-89.252783415731, 48.4256124244233], [-89.2527422295992, 48.426392602491], [-89.252761419987, 48.4323526865727], [-89.2530440441851, 48.4328184256335], [-89.2531533113027, 48.4332074424487], [-89.25307944362, 48.4334558131517], [-89.2529720372122, 48.4336599179736], [-89.2491393629579, 48.4325923373227], [-89.2485231372204, 48.4324813472409], [-89.2382661783535, 48.4296504892584], [-89.2374438823626, 48.4310573281958], [-89.2354220802337, 48.4343679321096], [-89.2339831114183, 48.4366774405917], [-89.2331366281552, 48.4362838795963], [-89.2324964388356, 48.4369120715302], [-89.2302851443449, 48.4359064729541], [-89.2299373323851, 48.4362505923972], [-89.2295941973895, 48.4363947682165], [-89.2293442186326, 48.4364724180251], [-89.2292027584633, 48.4365120720895], [-89.2288781765948, 48.4368102683233], [-89.2286690515828, 48.4370322272933]]]}, "properties": {"OBJECTID": 41, "WARD_NAME": "MCKELLAR", "WARD_NO": "300", "Shape__Area": 20657917.72998047, "Shape__Length": 19826.436147964618}}, {"type": "Feature", "id": 42, "geometry": {"type": "Polygon", "coordinates": [[[-89.1820610396469, 48.4980788457307], [-89.1820554104474, 48.497717737629], [-89.1820391093856, 48.4966714147486], [-89.1820213474103, 48.4955312174611], [-89.1820124609772, 48.4949611192979], [-89.1819999950465, 48.4941607894632], [-89.1819911178025, 48.4935906928087], [-89.1819822326649, 48.4930205917569], [-89.1820277667613, 48.4887108800016], [-89.1820356809072, 48.487752499426], [-89.1820724209156, 48.4833067008063], [-89.1820790091961, 48.482506947504], [-89.1818295476469, 48.4825050504947], [-89.1811674074792, 48.4825000109372], [-89.1792755167941, 48.4824855917138], [-89.179003411784, 48.4824835164802], [-89.1773018640079, 48.4824705168356], [-89.176406058367, 48.4824636637393], [-89.1761339532096, 48.4824615781184], [-89.1735221780862, 48.4824415533331], [-89.1733160351559, 48.4824399710914], [-89.1733140777418, 48.4827132478978], [-89.1733117854615, 48.4830332454228], [-89.1733068136258, 48.4837255719003], [-89.1732807958202, 48.487353805589], [-89.1625578140812, 48.4874208309988], [-89.1629584009613, 48.4964506113198], [-89.1520347571234, 48.4966289478441], [-89.1516770664764, 48.4905705911674], [-89.1516066890288, 48.4893818049226], [-89.1514937620087, 48.4874686868303], [-89.1514235720739, 48.4820854438593], [-89.1514191704278, 48.4817479415584], [-89.1514073067206, 48.4809236622896], [-89.1513872058476, 48.479928298713], [-89.1513828783927, 48.4795772703292], [-89.1513730421929, 48.4788645856132], [-89.1513534520344, 48.4773556088342], [-89.1513522303068, 48.477260796693], [-89.1513495613551, 48.4770545165071], [-89.1513391300944, 48.4762476095607], [-89.1513311971621, 48.4756336628859], [-89.1512967758741, 48.4729714292483], [-89.1540095468716, 48.4707887026797], [-89.15452573438, 48.4703733397545], [-89.1608554759926, 48.4652792826662], [-89.1628341488679, 48.4636866216825], [-89.1379800226849, 48.4579356213694], [-89.164451807017, 48.4453820264008], [-89.1770637482301, 48.4451205190048], [-89.2022335611508, 48.427453580278], [-89.217296312926, 48.4340483448555], [-89.2200268586561, 48.4349096139057], [-89.2213187759885, 48.43539361563], [-89.2231641106446, 48.4362105399736], [-89.224015290108, 48.4369983758707], [-89.2230814509466, 48.4379096007953], [-89.219538153327, 48.4413667628074], [-89.2195164036225, 48.4413879833452], [-89.2197068591447, 48.4414641573575], [-89.2197830647516, 48.4416724641214], [-89.2198675702144, 48.4417912890859], [-89.219939553048, 48.441834439179], [-89.2199789827598, 48.4418904610309], [-89.2201041054681, 48.4420682340532], [-89.220109476978, 48.4421668064298], [-89.2201029428956, 48.4422431999297], [-89.2201008781698, 48.4422673345414], [-89.2200878136369, 48.4426911245259], [-89.2200508759205, 48.4427771039264], [-89.2200243648589, 48.4428222790793], [-89.2200485187281, 48.4429097857564], [-89.220110612941, 48.4430276889862], [-89.2201435217118, 48.4430881472418], [-89.2202597211637, 48.4431818065446], [-89.2204469154373, 48.4432296225348], [-89.2205906631474, 48.443447455823], [-89.2207306723223, 48.4435327247802], [-89.2209123060342, 48.4437161124495], [-89.2209271799709, 48.4437469550038], [-89.2208478255484, 48.4438403963329], [-89.2207472030123, 48.4438653514359], [-89.2207470302956, 48.4438653601688], [-89.2204754940483, 48.4438814152336], [-89.2204753212923, 48.4438814230672], [-89.2202704827831, 48.443942225637], [-89.2200153599174, 48.4442029483142], [-89.2198057961576, 48.4442483101151], [-89.2197092881636, 48.4443682943888], [-89.2197182711878, 48.4445287146277], [-89.2200907054479, 48.4447896210965], [-89.2204638957424, 48.4451593430263], [-89.2205394031768, 48.4451740679364], [-89.2206348010021, 48.4452207567726], [-89.2207115469, 48.4454274248025], [-89.2207213463775, 48.4455054697717], [-89.2206695762504, 48.4456365278089], [-89.2205758194558, 48.4457438832538], [-89.2205424225261, 48.4457897420671], [-89.2204785908803, 48.445804481931], [-89.220478498429, 48.4458045017103], [-89.2204784219755, 48.4458044851916], [-89.220297367513, 48.4457618825136], [-89.220297282717, 48.4457618607574], [-89.2202971972571, 48.4457618857999], [-89.2201448629922, 48.4458037826069], [-89.2200638837091, 48.4458387579169], [-89.2200360422195, 48.4458583875205], [-89.2200076621321, 48.4458931447616], [-89.2200542739436, 48.4459749770413], [-89.2201050896041, 48.4460074472991], [-89.2201224103032, 48.4460386017152], [-89.2201158594857, 48.446096040899], [-89.2200925228524, 48.4461667538625], [-89.2200170823914, 48.4461896657315], [-89.2200169969307, 48.4461896907739], [-89.2200169094316, 48.4461896690697], [-89.21985257405, 48.4461483193346], [-89.2198524011687, 48.4461483244705], [-89.2197906937581, 48.4461510979444], [-89.2197905209159, 48.4461511039791], [-89.2197436990062, 48.4461742830352], [-89.219676936181, 48.446288535969], [-89.2196757064463, 48.4463426550108], [-89.2197304534666, 48.4463917161508], [-89.2198558482574, 48.4465253290121], [-89.2198870690908, 48.4466106416179], [-89.2200170027305, 48.4467934871556], [-89.2199825705994, 48.4468489109989], [-89.2199340800575, 48.446948622692], [-89.2198454645837, 48.447055341142], [-89.2198247203957, 48.4470957965064], [-89.2198297656209, 48.4471585910981], [-89.2198784269603, 48.4472089968394], [-89.2198784665208, 48.447209035664], [-89.2198785999237, 48.4472089935014], [-89.2199445056606, 48.4471878708639], [-89.22003433279, 48.4471638635352], [-89.2200345031683, 48.447163862946], [-89.220104690364, 48.4471632982664], [-89.220104860703, 48.4471632967781], [-89.2203347558927, 48.4472527290338], [-89.220387555396, 48.4473083873772], [-89.2203966657075, 48.4473621043865], [-89.2203930031599, 48.4474329855567], [-89.2203736041036, 48.4475119972317], [-89.2203148657036, 48.4475920012869], [-89.220241966849, 48.4476204569461], [-89.2197413471542, 48.4477120606637], [-89.2196206242397, 48.4477388322869], [-89.2193177460642, 48.4478697962571], [-89.219196018279, 48.4479256516593], [-89.2190978777646, 48.4479830213969], [-89.2190977112415, 48.4479830174116], [-89.2189650792275, 48.4479776449471], [-89.2189649099235, 48.4479776392159], [-89.2188685844167, 48.4479349472929], [-89.2188222828462, 48.4478602641155], [-89.2186570107917, 48.4476621898728], [-89.2185708859351, 48.4475873110918], [-89.2185653470724, 48.4475342889336], [-89.2185873094635, 48.447443214056], [-89.2185652498383, 48.4474088209217], [-89.2185058892048, 48.4473771275088], [-89.2184206081587, 48.4473398149147], [-89.2184205626654, 48.4473397950983], [-89.2184204351948, 48.4473398182505], [-89.2183636312315, 48.4473504382898], [-89.2183116980003, 48.4473936020324], [-89.2178049530499, 48.4478114788155], [-89.2177380759021, 48.4479233466921], [-89.217689742431, 48.4482210423714], [-89.2177261334377, 48.4482807638404], [-89.2178739272842, 48.4484219896446], [-89.2180186464904, 48.448710071574], [-89.2180649238122, 48.4488939349018], [-89.2180776311017, 48.4490209735763], [-89.2180903738877, 48.449093915381], [-89.2181131751681, 48.4491507515238], [-89.2182288880995, 48.4492596978107], [-89.2188984655467, 48.4494172110787], [-89.2189330792353, 48.4494706386575], [-89.2188483419638, 48.4495945517505], [-89.2187964873157, 48.4496840879843], [-89.2185384731831, 48.4499102196343], [-89.2181104478374, 48.4501316755596], [-89.2179616653634, 48.4502300056405], [-89.2179147901099, 48.4503343251559], [-89.2179000110908, 48.4504245577639], [-89.2179344809834, 48.4505695555649], [-89.2180960753083, 48.4506800564649], [-89.2180982387039, 48.450741468896], [-89.2181045305653, 48.4509200363232], [-89.2181555894654, 48.4509756311609], [-89.2182265959149, 48.450986979551], [-89.2182266408238, 48.4509869858828], [-89.2182267647588, 48.4509869744955], [-89.2182268107056, 48.4509869736095], [-89.2183229742727, 48.4509787769606], [-89.2183231468572, 48.450978764635], [-89.2184595128752, 48.4509522667556], [-89.2188621562924, 48.450807684334], [-89.2188621894497, 48.4508076692987], [-89.2188623252139, 48.4508076810755], [-89.2189233679835, 48.4508120557929], [-89.2190021068182, 48.4508351975401], [-89.219289624306, 48.4510010975877], [-89.2193727867434, 48.4510539671376], [-89.2195187111189, 48.4510837487382], [-89.2195187834476, 48.4510837635377], [-89.2195188840955, 48.4510837454006], [-89.2198711583753, 48.4510196844078], [-89.219910223649, 48.4509831330085], [-89.2199318730679, 48.4508915754042], [-89.219816425339, 48.4505871911815], [-89.2198109657211, 48.4505443381024], [-89.2198263785358, 48.4505138124873], [-89.2198804226568, 48.4504642408719], [-89.2201050619807, 48.4503779662725], [-89.220155930637, 48.4503682571061], [-89.2201560579968, 48.450368231255], [-89.2201560995569, 48.4503682538458], [-89.2203539549671, 48.4504638494994], [-89.220464450509, 48.4504768185383], [-89.2204645374668, 48.4504768276565], [-89.2204646234834, 48.4504768151993], [-89.2206129884307, 48.4504532771664], [-89.2206969342882, 48.4504333794854], [-89.2206970239274, 48.4504333570611], [-89.2206971072624, 48.4504333761461], [-89.2208877830112, 48.4504750196075], [-89.220887952206, 48.4504750226389], [-89.2211067813509, 48.4504827107472], [-89.2211069545998, 48.4504827137], [-89.2211305162376, 48.4506394584277], [-89.2213593444782, 48.4508405916745], [-89.2213246714275, 48.4510051360178], [-89.2214048129446, 48.4510330211973], [-89.2216162159502, 48.4510543926717], [-89.2218407161819, 48.4511181993027], [-89.2219001137673, 48.4511483274597], [-89.2219001455553, 48.4511483430408], [-89.2219002867437, 48.4511483241185], [-89.2219631589211, 48.4511399667164], [-89.2220917284137, 48.4511009082565], [-89.2220918004855, 48.4511008861705], [-89.22209190139, 48.451100904915], [-89.2224016138995, 48.4511577433235], [-89.2225503008484, 48.4512216915873], [-89.2225940148224, 48.4512916474987], [-89.2225876229195, 48.4514713424401], [-89.2226539815159, 48.451514821741], [-89.2228594458011, 48.451537100149], [-89.2229052707197, 48.4515690295066], [-89.2230390332432, 48.4518430813622], [-89.2230729757339, 48.4518535622299], [-89.2234336861389, 48.451898296123], [-89.2234620374126, 48.4519176339113], [-89.2235269681111, 48.4520427088071], [-89.2238942411088, 48.4523396450917], [-89.2239219288243, 48.4526175379988], [-89.2238692762807, 48.4527921963533], [-89.2238085094121, 48.4528408867062], [-89.2238083367443, 48.4528408972421], [-89.2233282793931, 48.4528764103169], [-89.2233281149121, 48.4528764224934], [-89.2232035834622, 48.4527905318529], [-89.2231456042623, 48.4527773332359], [-89.2231454312804, 48.4527773365791], [-89.2230537725499, 48.4527791089037], [-89.223053599568, 48.4527791122467], [-89.2230029461974, 48.452796797316], [-89.2229641984041, 48.4528405054632], [-89.2230031231411, 48.452992488433], [-89.2229568907775, 48.4530291820792], [-89.2228852137517, 48.4530584102143], [-89.2225091291804, 48.4531547764167], [-89.2224370233197, 48.4532015149715], [-89.2224054079661, 48.4532442879625], [-89.2224004924487, 48.4533802743022], [-89.2224006652364, 48.4533802664653], [-89.2228112944319, 48.4533572582543], [-89.2228114671017, 48.4533572477198], [-89.2228116369116, 48.4533572336417], [-89.2254541480535, 48.4531186338825], [-89.2254543206039, 48.4531186206472], [-89.2254757716299, 48.4570622943589], [-89.2254759447046, 48.45706229281], [-89.2282284114438, 48.4570196832685], [-89.2282285818545, 48.4570196826668], [-89.2281963014473, 48.4562176000268], [-89.2281964745583, 48.4562175993727], [-89.2336180174667, 48.4561619158421], [-89.2336181865227, 48.4561619152586], [-89.2336169114592, 48.4560894668629], [-89.2336164573506, 48.4560681476093], [-89.233616604808, 48.4560508267661], [-89.2336174546015, 48.4560278419882], [-89.2336196415767, 48.4559828994559], [-89.2336245531079, 48.4559498920057], [-89.2336275484542, 48.4559346491198], [-89.2336297953827, 48.4559255920064], [-89.2336320213359, 48.455913961176], [-89.2336337704483, 48.455907892731], [-89.2336359325485, 48.4559013718007], [-89.2336412638065, 48.4558826438929], [-89.2336530787341, 48.4558490399313], [-89.2336667747778, 48.4558165672888], [-89.233681440163, 48.4557866724391], [-89.2336844625837, 48.4557811388993], [-89.2336878367996, 48.4557749606204], [-89.2336929197214, 48.4557656459965], [-89.2336989657115, 48.4557545743951], [-89.2336991388206, 48.4557545737328], [-89.2338462668067, 48.4557525345173], [-89.2338464399158, 48.4557525338548], [-89.2338466129065, 48.4557525304953], [-89.2343289244711, 48.4557444588046], [-89.2343290974617, 48.4557444554444], [-89.2343292705313, 48.4557444538822], [-89.234576096397, 48.4557403224257], [-89.2345762653332, 48.455740319144], [-89.2345764383237, 48.4557403157835], [-89.2345768127651, 48.4557403103091], [-89.2345769817012, 48.4557403070273], [-89.2345771546918, 48.4557403036668], [-89.2345779021836, 48.4557402918453], [-89.2345780751742, 48.4557402884848], [-89.2345782455407, 48.4557402869747], [-89.2348232573342, 48.4557361830295], [-89.2348234303247, 48.4557361796686], [-89.2348236034337, 48.4557361790047], [-89.23507004389, 48.4557320512757], [-89.2350702169594, 48.4557320497124], [-89.235070387247, 48.4557320464036], [-89.2350704318461, 48.4557320455371], [-89.2350706021336, 48.4557320422283], [-89.2350707752425, 48.455732041564], [-89.2350711455503, 48.4557320343688], [-89.2350713185408, 48.4557320310075], [-89.2350714875558, 48.455732029523], [-89.2353175925872, 48.4557279032818], [-89.2353177655776, 48.4557278999202], [-89.2353179386865, 48.4557278992554], [-89.2353183089942, 48.4557278920595], [-89.2353184820636, 48.4557278904958], [-89.2353186550541, 48.4557278871342], [-89.2355647575215, 48.455723764912], [-89.2355649306304, 48.4557237642469], [-89.2355651036208, 48.4557237608849], [-89.2355654740074, 48.4557237554861], [-89.2355656469978, 48.4557237521241], [-89.2355658199882, 48.4557237487621], [-89.2358126415071, 48.4557196147337], [-89.2358128144975, 48.4557196113714], [-89.2358129874878, 48.455719608009], [-89.2360590925022, 48.4557154837788], [-89.2360592615565, 48.4557154831918], [-89.2360607055626, 48.4557554309823], [-89.2360625946261, 48.4558077252], [-89.2360662886897, 48.4559100920379], [-89.2360673846382, 48.4559403934007], [-89.2360681883087, 48.4559588393175], [-89.2360686936016, 48.4559738189802], [-89.2360690866328, 48.4559854430366], [-89.2360696350496, 48.4560017120724], [-89.2360701468436, 48.4560169012454], [-89.2360703199534, 48.4560169005796], [-89.2363062424272, 48.4560129332754], [-89.2374567074346, 48.455993588957], [-89.2374568805048, 48.45599358739], [-89.2374571086103, 48.4559944376958], [-89.2374574596641, 48.4559957462714], [-89.2374577703306, 48.4559969053778], [-89.2374581104221, 48.4559981799769], [-89.2374584746987, 48.4559995431788], [-89.2374587775011, 48.4560006772458], [-89.2374590380905, 48.4560016510823], [-89.2374592622679, 48.4560024735729], [-89.2374594727801, 48.4560032621395], [-89.2374597301528, 48.4560042243421], [-89.2374599870116, 48.4560051748583], [-89.2374601814796, 48.4560059061543], [-89.237460397232, 48.4560067216109], [-89.237460662192, 48.4560077025603], [-89.2374609649946, 48.4560088366272], [-89.2374612421421, 48.4560098794208], [-89.2374614907417, 48.4560107959079], [-89.2374616979187, 48.4560115701438], [-89.237461959022, 48.4560125556668], [-89.2374623893412, 48.4560141596111], [-89.2374627873742, 48.4560156445196], [-89.237463036053, 48.4560165628045], [-89.2374634587058, 48.4560181462043], [-89.2374638196079, 48.4560194941764], [-89.2374641709386, 48.4560208090446], [-89.2374646352119, 48.4560225391904], [-89.2374650947193, 48.4560242532337], [-89.2374653387508, 48.4560251581131], [-89.2374657501254, 48.4560267003447], [-89.2374662547466, 48.4560285790606], [-89.2374666722386, 48.4560301373683], [-89.2374673442029, 48.4560326534364], [-89.2374679074769, 48.4560347586429], [-89.2374684428749, 48.4560367528252], [-89.2374689024616, 48.4560384686665], [-89.2374692617753, 48.456039811271], [-89.2374698799322, 48.4560421187488], [-89.237470493007, 48.4560444029325], [-89.2374711437663, 48.4560468366379], [-89.2374716805952, 48.4560488325918], [-89.2374721907732, 48.4560507453894], [-89.2374727422949, 48.4560527986402], [-89.2374737406948, 48.4560565247924], [-89.2374747923493, 48.4560604469494], [-89.2374756295159, 48.4560635824165], [-89.2374759565437, 48.4560648059851], [-89.2374763042632, 48.4560661002299], [-89.2374771371856, 48.4560692006901], [-89.237479365547, 48.4560775203278], [-89.2374798219573, 48.4560792254339], [-89.2374803851533, 48.4560813288425], [-89.2374805711255, 48.4560820207157], [-89.2374807283048, 48.4560826114795], [-89.2374808659463, 48.4560831270462], [-89.2374810144711, 48.4560836747914], [-89.2374810390909, 48.4560837732827], [-89.2381152941334, 48.4560733068596], [-89.2381154671247, 48.4560733034938], [-89.2381156402346, 48.4560733028248], [-89.2382740154317, 48.4560706900154], [-89.238274188423, 48.4560706866493], [-89.2382743614933, 48.4560706850812], [-89.2383624740863, 48.4560692296671], [-89.2383626430231, 48.4560692263798], [-89.2383628160934, 48.4560692248115], [-89.2387432513942, 48.4560629415094], [-89.238743424504, 48.4560629408395], [-89.2387435947923, 48.4560629375253], [-89.2387445287534, 48.4560629211479], [-89.2387447017446, 48.4560629177811], [-89.2387014462303, 48.4560843715151], [-89.2386665118723, 48.4561016972846], [-89.2386393493637, 48.4561151685085], [-89.2386057758084, 48.4561315734456], [-89.2385725888809, 48.4561477891034], [-89.238531870013, 48.4561676872613], [-89.2385043532689, 48.4561811329561], [-89.238478648073, 48.4561936949472], [-89.2384444004185, 48.456210429659], [-89.2384061894322, 48.4562291012241], [-89.2383740591269, 48.4562448014117], [-89.2383431166231, 48.456259921545], [-89.2382997888497, 48.4562810931172], [-89.2382487541211, 48.4563060288457], [-89.2382136376786, 48.4563231888696], [-89.2381991971116, 48.4563301800262], [-89.2381270924314, 48.4563650007119], [-89.2380605983218, 48.4563969878118], [-89.2380292966351, 48.4564120032813], [-89.2379937718087, 48.4564290155296], [-89.2379509944598, 48.4564494528776], [-89.2378981562307, 48.4564746331727], [-89.2378320948203, 48.4565060080025], [-89.237787643913, 48.4565270563724], [-89.2377516876033, 48.4565440418494], [-89.2376553454627, 48.4565893882081], [-89.2376255228933, 48.4566033778937], [-89.2375941895538, 48.456618048363], [-89.2375674346391, 48.4566305576889], [-89.2375361363019, 48.4566451635805], [-89.2375045651159, 48.4566598710418], [-89.2374845068308, 48.4566692027074], [-89.2374540501112, 48.4566833540379], [-89.2374213969662, 48.4566984972963], [-89.2373891641764, 48.4567134182337], [-89.2373575034597, 48.4567279987342], [-89.2373390498147, 48.4567364786109], [-89.2373256052774, 48.4567426549232], [-89.2372817170405, 48.4567628194141], [-89.2372895745274, 48.4567744773328], [-89.2373042217497, 48.4567962124183], [-89.2373187878068, 48.4568178240183], [-89.2373301789583, 48.4568347234058], [-89.2373447148381, 48.4568562942019], [-89.2373666191129, 48.4568887964441], [-89.2373940729275, 48.4569295330287], [-89.2374070011313, 48.4569487175149], [-89.2374144650584, 48.4569597910583], [-89.2374203590438, 48.4569685378476], [-89.2374337994575, 48.4569884807365], [-89.2374470200252, 48.457008099499], [-89.2374537069037, 48.4570180203058], [-89.2374570597809, 48.457022995371], [-89.2374592825028, 48.4570262937304], [-89.237462901767, 48.4570316666926], [-89.2374675135853, 48.4570385093999], [-89.2374720803853, 48.4570452819041], [-89.2374752032766, 48.4570499177457], [-89.2374794719435, 48.4570562470839], [-89.2374820464856, 48.4570600712391], [-89.2374841272762, 48.4570631564238], [-89.2374866322032, 48.4570668739655], [-89.2374884108043, 48.4570695160633], [-89.2374918965654, 48.4570746828842], [-89.2374946924763, 48.4570788347332], [-89.237497967202, 48.4570836934529], [-89.2375012158619, 48.4570885130914], [-89.2375041694849, 48.4570928985012], [-89.237506962181, 48.4570970387159], [-89.2375092660885, 48.4571004605575], [-89.2375102660738, 48.4571019454533], [-89.23751160433, 48.4571039249182], [-89.2375123033579, 48.457104964004], [-89.2375133264696, 48.4571064826396], [-89.2375143827216, 48.4571080474164], [-89.2375152236845, 48.4571092996764], [-89.2375162047961, 48.4571107552481], [-89.2375172641071, 48.457112328063], [-89.2375180163825, 48.4571134398908], [-89.2375188788436, 48.4571147196242], [-89.2375196054874, 48.4571158022595], [-89.2375206212491, 48.457117307542], [-89.2375215097374, 48.4571186254574], [-89.2375220134649, 48.4571193759302], [-89.2375227022421, 48.4571203972207], [-89.237523231878, 48.4571211831787], [-89.2375240436371, 48.4571223865215], [-89.2375248988271, 48.4571236546997], [-89.2375257655408, 48.4571249388489], [-89.2375265991934, 48.4571261786548], [-89.2375272331348, 48.4571271218358], [-89.2375280998486, 48.457128405985], [-89.2375288042833, 48.4571294449655], [-89.2375296785848, 48.4571307478614], [-89.2375306148357, 48.457132136826], [-89.2375314381188, 48.4571333561397], [-89.2375322009622, 48.4571344929543], [-89.2375322455865, 48.4571345541676], [-89.2348232433092, 48.4583173008829], [-89.231563576753, 48.459538982237], [-89.2279849320791, 48.4609174603289], [-89.2228057759214, 48.4629388723228], [-89.2196859804418, 48.4644588157519], [-89.2175187097622, 48.4657437040522], [-89.2109125852147, 48.4698169222088], [-89.2035991593998, 48.4742611255104], [-89.1949998894321, 48.4794639755904], [-89.1931649872452, 48.480600834302], [-89.1915034617555, 48.4814895030539], [-89.190043250718, 48.4821200286861], [-89.1880477033574, 48.4826650175429], [-89.187940089376, 48.4838745880492], [-89.1866823318483, 48.484792450792], [-89.1853282026176, 48.4849294669543], [-89.1846664272163, 48.485423609491], [-89.1846617250559, 48.4859961923223], [-89.1851409778019, 48.4876449835327], [-89.1859905073786, 48.488412633585], [-89.1864961023973, 48.4887151085798], [-89.1882138442987, 48.4893760318764], [-89.1889676942165, 48.489881864236], [-89.1903446372123, 48.490146992171], [-89.1909207249045, 48.4901220414064], [-89.1940066991492, 48.4898688789888], [-89.1964423724222, 48.4898776773538], [-89.1970992929574, 48.490094072705], [-89.1981155975063, 48.4901578202758], [-89.1995283801352, 48.4906024579054], [-89.2006602252756, 48.4907333363126], [-89.2045670638941, 48.4905820046482], [-89.2054621101789, 48.4904468419444], [-89.2065004020773, 48.4900453847263], [-89.2073694164256, 48.4899592940643], [-89.209384203145, 48.4896776572164], [-89.2098651354285, 48.4897308306089], [-89.2100228726686, 48.4897971602902], [-89.2103788780472, 48.4902134390146], [-89.2106551907018, 48.4904162214623], [-89.2110691302204, 48.4905469789532], [-89.212681369769, 48.4910430296214], [-89.2147761171674, 48.4919460448914], [-89.2156604918, 48.4925324958345], [-89.2160926519524, 48.4930790052243], [-89.2161748072282, 48.4933479648], [-89.2160514981044, 48.4943908807167], [-89.2160734489816, 48.4945708513464], [-89.2156436356903, 48.4950438630178], [-89.2152919105279, 48.4960148934136], [-89.2154141431324, 48.4962344940412], [-89.2160534020388, 48.4966869414979], [-89.2167425624263, 48.4969926626871], [-89.2174993444616, 48.4972347293141], [-89.2184347479015, 48.4973761661606], [-89.2187301584318, 48.4973704507944], [-89.2188830764967, 48.497325926477], [-89.2191176590985, 48.4972172907523], [-89.2194715551095, 48.4969398971081], [-89.219761499336, 48.4968094948422], [-89.2205024849102, 48.4966910569446], [-89.2210938982271, 48.4966934626806], [-89.2216345201328, 48.4968217312403], [-89.2219788126646, 48.4969676583312], [-89.2222686699449, 48.4971562947944], [-89.2225080341615, 48.4974777179764], [-89.2261873517392, 48.5028941025926], [-89.2262868829647, 48.5031286200683], [-89.2262931621102, 48.5032714625901], [-89.2262083641706, 48.5033720736982], [-89.2257166363623, 48.50361256103], [-89.2256346013167, 48.5037791587387], [-89.2256353415643, 48.5040486093075], [-89.2256756109663, 48.5044614621236], [-89.2255484626896, 48.5050136858094], [-89.2257853056043, 48.5053532756968], [-89.2254870516378, 48.5055311186586], [-89.2254109344068, 48.5057895946094], [-89.2258521494044, 48.5060670759021], [-89.2259754588175, 48.5072149626545], [-89.2259790460061, 48.5086235590324], [-89.2255281459568, 48.5088490540683], [-89.2255598491319, 48.5093423427542], [-89.2254720661354, 48.5097323360201], [-89.2260790397939, 48.5104185672465], [-89.2261233986992, 48.5116646565169], [-89.2266348395466, 48.5130379936322], [-89.2268679718685, 48.5135491423333], [-89.2276441505334, 48.5144193401277], [-89.2279839029748, 48.5144838334349], [-89.2281210857415, 48.514598734497], [-89.2281990582696, 48.5147469884408], [-89.2198767336231, 48.5147182553708], [-89.2089562096044, 48.5146891236576], [-89.1980537177515, 48.5146481069026], [-89.182062147307, 48.5145860941347], [-89.1821215454135, 48.5091751927045], [-89.1821309710045, 48.5083171148532], [-89.1821416547255, 48.50734331737], [-89.1821492419917, 48.5066522195703], [-89.1821660047989, 48.505124377795], [-89.1821679909921, 48.5049433977402], [-89.1821553526578, 48.5041321047959], [-89.1821502263763, 48.5038032001087], [-89.1821236013526, 48.5020939712991], [-89.1821149206148, 48.5015367825586], [-89.1820833457111, 48.499510197323], [-89.1820661660772, 48.4984077470967], [-89.1820610396469, 48.4980788457307]]]}, "properties": {"OBJECTID": 42, "WARD_NAME": "CURRENT RIVER", "WARD_NO": "100", "Shape__Area": 33289920.77746582, "Shape__Length": 40784.0407021695}}]}