{"type":"FeatureCollection","crs":{"type":"name","properties":{"name":"EPSG:4326"}},"features":[{"type":"Feature","id":1,"geometry":{"type":"Point","coordinates":[-89.2507087170607,48.3886442683958]},"properties":{"OBJECTID":1,"NAME":"STATION 1","Address":"330 VICKERS ST N","GlobalID":"2182331b-2936-40a0-ab50-e531537307ad"}},{"type":"Feature","id":2,"geometry":{"type":"Point","coordinates":[-89.1818246661491,48.4610104013276]},"properties":{"OBJECTID":2,"NAME":"STATION 5","Address":"300 HODDER AVE","GlobalID":"a00cf754-870f-4b1c-a949-61877cdbee03"}},{"type":"Feature","id":3,"geometry":{"type":"Point","coordinates":[-89.3614662242498,48.3641140498924]},"properties":{"OBJECTID":3,"NAME":"STATION 7","Address":"2145 ROSSLYN RD","GlobalID":"8b107109-38d5-4921-b38e-79ce776219d3"}},{"type":"Feature","id":4,"geometry":{"type":"Point","coordinates":[-89.3064673427871,48.3646476787882]},"properties":{"OBJECTID":4,"NAME":"STATION 6","Address":"1710 FREDERCIA ST W","GlobalID":"35caf2be-c821-438b-9866-d6283b034567"}},{"type":"Feature","id":5,"geometry":{"type":"Point","coordinates":[-89.2898496870262,48.3902991722563]},"properties":{"OBJECTID":5,"NAME":"STATION 4","Address":"501 CHURCHILL DR","GlobalID":"b1a68b4c-8839-417f-a2e6-dd00fd8abac5"}},{"type":"Feature","id":6,"geometry":{"type":"Point","coordinates":[-89.2210062929366,48.4322761272474]},"properties":{"OBJECTID":6,"NAME":"STATION 3","Address":"60 WATER ST N","GlobalID":"54423e66-706c-41e5-906b-90f51079f158"}},{"type":"Feature","id":7,"geometry":{"type":"Point","coordinates":[-89.2486332661362,48.4482710661956]},"properties":{"OBJECTID":7,"NAME":"STATION 2","Address":"20 JUNOT AVE N","GlobalID":"3991be06-0431-4f21-be6f-d533495928fc"}},{"type":"Feature","id":8,"geometry":{"type":"Point","coordinates":[-89.3734976502984,48.4706272465405]},"properties":{"OBJECTID":8,"NAME":"STATION 8","Address":"3000 GOVERNMENT RD","GlobalID":"8961e11e-8abc-42cd-9fa4-80032f1eaaf9"}},{"type":"Feature","id":9,"geometry":{"type":"Point","coordinates":[-89.231488267205,48.4117841435212]},"properties":{"OBJECTID":9,"NAME":"TRAINING CENTRE","Address":"750 HAMMOND AVE","GlobalID":"9d58165b-f35e-45b9-a20e-4c39a7302b4f"}}]}