{"type":"FeatureCollection","crs":{"type":"name","properties":{"name":"EPSG:4326"}},"features":[{"type":"Feature","id":4001,"geometry":{"type":"Point","coordinates":[-89.2963456142419,48.3741986927988]},"properties":{"OBJECTID":4001,"LOC_ID":"FC1232","FDMID":null,"X_COORD":329951.1519,"Y_COORD":5360439.1121,"BEAT":null,"ROT_ANGLE":null,"NODE_ID":null,"GLOBALID":"c0133fbf-35da-4b21-962d-ceb2042f35c7","CREATEDDATE":1520794199000,"LASTUPDATE":1765410161000}},{"type":"Feature","id":4002,"geometry":{"type":"Point","coordinates":[-89.2390476329688,48.4260166837853]},"properties":{"OBJECTID":4002,"LOC_ID":"PC1338","FDMID":null,"X_COORD":334362.3235,"Y_COORD":5366072.7628,"BEAT":"N 3","ROT_ANGLE":null,"NODE_ID":null,"GLOBALID":"c4a8302b-22de-4575-9a80-a00f09f5e6f1","CREATEDDATE":1520794199000,"LASTUPDATE":1765410161000}},{"type":"Feature","id":4003,"geometry":{"type":"Point","coordinates":[-89.2374498052135,48.4260102934598]},"properties":{"OBJECTID":4003,"LOC_ID":"PC1339","FDMID":null,"X_COORD":334480.4982,"Y_COORD":5366068.5966,"BEAT":"N 3","ROT_ANGLE":null,"NODE_ID":null,"GLOBALID":"de6c5466-b989-4517-8ab4-15a23ff2536a","CREATEDDATE":1520794199000,"LASTUPDATE":1765410161000}},{"type":"Feature","id":4004,"geometry":{"type":"Point","coordinates":[-89.2948945662585,48.3798321739763]},"properties":{"OBJECTID":4004,"LOC_ID":"FC1233","FDMID":null,"X_COORD":330077.3553,"Y_COORD":5361062.013,"BEAT":null,"ROT_ANGLE":null,"NODE_ID":null,"GLOBALID":"23329116-a05b-4fa4-92a9-87e9edbf3707","CREATEDDATE":1520794199000,"LASTUPDATE":1765410161000}},{"type":"Feature","id":4005,"geometry":{"type":"Point","coordinates":[-89.2443891900525,48.406182442189]},"properties":{"OBJECTID":4005,"LOC_ID":"PP0259","FDMID":null,"X_COORD":333902.571,"Y_COORD":5363879.8801,"BEAT":null,"ROT_ANGLE":null,"NODE_ID":null,"GLOBALID":"66b99d5c-8ca4-47c1-9ef9-d7963b6edd46","CREATEDDATE":1520794199000,"LASTUPDATE":1765410161000}},{"type":"Feature","id":4006,"geometry":{"type":"Point","coordinates":[-89.2690871482948,48.4042704672381]},"properties":{"OBJECTID":4006,"LOC_ID":"PP0255","FDMID":null,"X_COORD":332068.5929,"Y_COORD":5363721.2421,"BEAT":null,"ROT_ANGLE":null,"NODE_ID":null,"GLOBALID":"205605da-1816-4e54-8c45-effecba099c8","CREATEDDATE":1520794199000,"LASTUPDATE":1765410161000}},{"type":"Feature","id":4007,"geometry":{"type":"Point","coordinates":[-89.2900055306012,48.4207752631105]},"properties":{"OBJECTID":4007,"LOC_ID":"MP0024","FDMID":null,"X_COORD":330575.4169,"Y_COORD":5365601.725,"BEAT":null,"ROT_ANGLE":null,"NODE_ID":null,"GLOBALID":"0bd55f5e-f3cb-430c-9349-74b5ccda8b4c","CREATEDDATE":1520794199000,"LASTUPDATE":1765410161000}},{"type":"Feature","id":4008,"geometry":{"type":"Point","coordinates":[-89.2770934898751,48.4079113491149]},"properties":{"OBJECTID":4008,"LOC_ID":"PC1310","FDMID":null,"X_COORD":331488.1256,"Y_COORD":5364143.4904,"BEAT":null,"ROT_ANGLE":null,"NODE_ID":null,"GLOBALID":"db2fd323-083e-4b65-846a-5e24409192f1","CREATEDDATE":1520794199000,"LASTUPDATE":1765410161000}},{"type":"Feature","id":4009,"geometry":{"type":"Point","coordinates":[-89.2758779714498,48.4079111845228]},"properties":{"OBJECTID":4009,"LOC_ID":"PC1311","FDMID":null,"X_COORD":331578.0718,"Y_COORD":5364140.7979,"BEAT":null,"ROT_ANGLE":null,"NODE_ID":null,"GLOBALID":"4aa52438-86d2-4331-8ac2-70e88833ecb8","CREATEDDATE":1520794199000,"LASTUPDATE":1765410161000}},{"type":"Feature","id":4010,"geometry":{"type":"Point","coordinates":[-89.2970160079413,48.3802940196823]},"properties":{"OBJECTID":4010,"LOC_ID":"FP0151","FDMID":null,"X_COORD":329921.8244,"Y_COORD":5361118.0516,"BEAT":null,"ROT_ANGLE":null,"NODE_ID":null,"GLOBALID":"37b8be5c-10b4-406f-baa9-8ed36c672bd5","CREATEDDATE":1520794199000,"LASTUPDATE":1765410161000}},{"type":"Feature","id":4011,"geometry":{"type":"Point","coordinates":[-89.2503955852477,48.4464324000089]},"properties":{"OBJECTID":4011,"LOC_ID":"PP0260","FDMID":null,"X_COORD":333589.604,"Y_COORD":5368366.4653,"BEAT":null,"ROT_ANGLE":null,"NODE_ID":null,"GLOBALID":"7c3fa10a-8e1b-42f6-84c7-a3a5c887a57a","CREATEDDATE":1520794199000,"LASTUPDATE":1765410161000}},{"type":"Feature","id":4012,"geometry":{"type":"Point","coordinates":[-89.1823280976544,48.4851307110443]},"properties":{"OBJECTID":4012,"LOC_ID":"PC1312","FDMID":null,"X_COORD":338745.4141,"Y_COORD":5372521.8273,"BEAT":null,"ROT_ANGLE":null,"NODE_ID":null,"GLOBALID":"197522d9-66e3-4c3c-a326-d6ff14630fe9","CREATEDDATE":1520794199000,"LASTUPDATE":1765410161000}},{"type":"Feature","id":4013,"geometry":{"type":"Point","coordinates":[-89.3018858921696,48.3731976521031]},"properties":{"OBJECTID":4013,"LOC_ID":"FC1234","FDMID":null,"X_COORD":329537.5652,"Y_COORD":5360340.1657,"BEAT":null,"ROT_ANGLE":220.4,"NODE_ID":null,"GLOBALID":"1006eefe-4c0f-4e05-a853-637a42d1c19d","CREATEDDATE":1520794199000,"LASTUPDATE":1765410161000}},{"type":"Feature","id":4014,"geometry":{"type":"Point","coordinates":[-89.299850980779,48.374357218249]},"properties":{"OBJECTID":4014,"LOC_ID":"FC1235","FDMID":null,"X_COORD":329692.1172,"Y_COORD":5360464.5174,"BEAT":null,"ROT_ANGLE":null,"NODE_ID":null,"GLOBALID":"1757eb36-96d8-4f1f-bb34-456da0cb0813","CREATEDDATE":1520794199000,"LASTUPDATE":1765410161000}},{"type":"Feature","id":4015,"geometry":{"type":"Point","coordinates":[-89.2325218304269,48.4286545444685]},"properties":{"OBJECTID":4015,"LOC_ID":"PC1313","FDMID":null,"X_COORD":334853.6048,"Y_COORD":5366351.8464,"BEAT":null,"ROT_ANGLE":null,"NODE_ID":null,"GLOBALID":"3837ed7f-b91f-41c1-81d7-36b1fc77b88a","CREATEDDATE":1520794199000,"LASTUPDATE":1765410161000}},{"type":"Feature","id":4016,"geometry":{"type":"Point","coordinates":[-89.2313659331352,48.4297957920118]},"properties":{"OBJECTID":4016,"LOC_ID":"PC1314","FDMID":null,"X_COORD":334942.8027,"Y_COORD":5366476.1964,"BEAT":null,"ROT_ANGLE":null,"NODE_ID":null,"GLOBALID":"88a8e1bd-ea62-4fe4-90cf-12dfc825d765","CREATEDDATE":1520794199000,"LASTUPDATE":1765410161000}},{"type":"Feature","id":4017,"geometry":{"type":"Point","coordinates":[-89.2301287109449,48.431011810171]},"properties":{"OBJECTID":4017,"LOC_ID":"PC1315","FDMID":null,"X_COORD":335039.6593,"Y_COORD":5366607.8073,"BEAT":null,"ROT_ANGLE":360,"NODE_ID":null,"GLOBALID":"e75d9ed8-172e-4f6b-a9b0-e4610928b539","CREATEDDATE":1520794199000,"LASTUPDATE":1767733635000}},{"type":"Feature","id":4018,"geometry":{"type":"Point","coordinates":[-89.3059245218979,48.3682257828795]},"properties":{"OBJECTID":4018,"LOC_ID":"FC1236","FDMID":null,"X_COORD":329221.877,"Y_COORD":5359796.5731,"BEAT":null,"ROT_ANGLE":null,"NODE_ID":null,"GLOBALID":"440b781a-db49-4b71-81a4-056081b79034","CREATEDDATE":1520794199000,"LASTUPDATE":1765410161000}},{"type":"Feature","id":4019,"geometry":{"type":"Point","coordinates":[-89.305925703697,48.3702607039971]},"properties":{"OBJECTID":4019,"LOC_ID":"FC1237","FDMID":null,"X_COORD":329228.5966,"Y_COORD":5360022.742,"BEAT":null,"ROT_ANGLE":null,"NODE_ID":null,"GLOBALID":"0df7b6d9-eae1-459e-b2ff-f67cfb499729","CREATEDDATE":1520794199000,"LASTUPDATE":1765410161000}},{"type":"Feature","id":4020,"geometry":{"type":"Point","coordinates":[-89.2891557613297,48.4502005497781]},"properties":{"OBJECTID":4020,"LOC_ID":"MC0344","FDMID":null,"X_COORD":330736.0996,"Y_COORD":5368870.2817,"BEAT":null,"ROT_ANGLE":null,"NODE_ID":null,"GLOBALID":"4ba3bb61-f326-4a41-8280-b3d0dedacd5b","CREATEDDATE":1520794199000,"LASTUPDATE":1765410161000}},{"type":"Feature","id":4021,"geometry":{"type":"Point","coordinates":[-89.2892466318112,48.4513677085203]},"properties":{"OBJECTID":4021,"LOC_ID":"MC0345","FDMID":null,"X_COORD":330733.2619,"Y_COORD":5369000.2054,"BEAT":null,"ROT_ANGLE":null,"NODE_ID":null,"GLOBALID":"515021c2-f203-46be-8933-d596b3f564e7","CREATEDDATE":1520794199000,"LASTUPDATE":1765410161000}},{"type":"Feature","id":4022,"geometry":{"type":"Point","coordinates":[-89.2881944789912,48.45138044176]},"properties":{"OBJECTID":4022,"LOC_ID":"MC0346","FDMID":null,"X_COORD":330811.0956,"Y_COORD":5368999.2938,"BEAT":null,"ROT_ANGLE":null,"NODE_ID":null,"GLOBALID":"4e934fff-509e-4f28-bc07-43650514f53e","CREATEDDATE":1520794199000,"LASTUPDATE":1765410161000}},{"type":"Feature","id":4023,"geometry":{"type":"Point","coordinates":[-89.2476718570862,48.3856693416903]},"properties":{"OBJECTID":4023,"LOC_ID":"FC1238","FDMID":null,"X_COORD":333592.7368,"Y_COORD":5361607.108,"BEAT":null,"ROT_ANGLE":null,"NODE_ID":null,"GLOBALID":"6df240df-7689-48bb-873c-15b02f36605a","CREATEDDATE":1520794199000,"LASTUPDATE":1765410161000}},{"type":"Feature","id":4024,"geometry":{"type":"Point","coordinates":[-89.233179990374,48.3939314748616]},"properties":{"OBJECTID":4024,"LOC_ID":"FC1239","FDMID":null,"X_COORD":334692.361,"Y_COORD":5362494.0102,"BEAT":null,"ROT_ANGLE":null,"NODE_ID":null,"GLOBALID":"222b5811-f0db-4023-ad34-23b75f039c4f","CREATEDDATE":1520794199000,"LASTUPDATE":1765410161000}},{"type":"Feature","id":4025,"geometry":{"type":"Point","coordinates":[-89.2232591349594,48.3797780107581]},"properties":{"OBJECTID":4025,"LOC_ID":"FC1287","FDMID":null,"X_COORD":335381.0361,"Y_COORD":5360899.5794,"BEAT":null,"ROT_ANGLE":null,"NODE_ID":null,"GLOBALID":"54a7ec1b-71ea-463f-a536-d06385b9a29e","CREATEDDATE":1520794199000,"LASTUPDATE":1765410161000}},{"type":"Feature","id":4026,"geometry":{"type":"Point","coordinates":[-89.2654143880824,48.4643472348502]},"properties":{"OBJECTID":4026,"LOC_ID":"MC0358","FDMID":null,"X_COORD":332538.0251,"Y_COORD":5370390.3641,"BEAT":null,"ROT_ANGLE":null,"NODE_ID":null,"GLOBALID":"a504017e-1fb9-4847-a17a-1aa20deb47c7","CREATEDDATE":1520794199000,"LASTUPDATE":1765410161000}},{"type":"Feature","id":4027,"geometry":{"type":"Point","coordinates":[-89.2655452821043,48.4636319618917]},"properties":{"OBJECTID":4027,"LOC_ID":"MC0348","FDMID":null,"X_COORD":332525.9956,"Y_COORD":5370311.152,"BEAT":null,"ROT_ANGLE":null,"NODE_ID":null,"GLOBALID":"913d3094-8277-4bc8-ba5c-3736752446a4","CREATEDDATE":1520794199000,"LASTUPDATE":1765410161000}},{"type":"Feature","id":4028,"geometry":{"type":"Point","coordinates":[-89.1737122475135,48.4721761695195]},"properties":{"OBJECTID":4028,"LOC_ID":"PC1318","FDMID":null,"X_COORD":339341.0954,"Y_COORD":5371063.8592,"BEAT":null,"ROT_ANGLE":null,"NODE_ID":null,"GLOBALID":"9ca70ef3-748d-4b08-9edb-952a86883517","CREATEDDATE":1520794199000,"LASTUPDATE":1765410161000}},{"type":"Feature","id":4029,"geometry":{"type":"Point","coordinates":[-89.2306530250938,48.4096103590742]},"properties":{"OBJECTID":4029,"LOC_ID":"PC1317","FDMID":null,"X_COORD":334930.1656,"Y_COORD":5364231.1691,"BEAT":null,"ROT_ANGLE":null,"NODE_ID":null,"GLOBALID":"a6b8a38a-5389-43b7-9f27-c4d657b046d9","CREATEDDATE":1520794199000,"LASTUPDATE":1765410161000}},{"type":"Feature","id":4030,"geometry":{"type":"Point","coordinates":[-89.2473762643423,48.407127482532]},"properties":{"OBJECTID":4030,"LOC_ID":"PP0263","FDMID":null,"X_COORD":333684.6062,"Y_COORD":5363991.3987,"BEAT":null,"ROT_ANGLE":null,"NODE_ID":null,"GLOBALID":"80388d9a-9f09-4071-bdd2-913c0cb29445","CREATEDDATE":1520794199000,"LASTUPDATE":1765410161000}},{"type":"Feature","id":4031,"geometry":{"type":"Point","coordinates":[-89.2663963730238,48.3800260449818]},"properties":{"OBJECTID":4031,"LOC_ID":"FC1240","FDMID":null,"X_COORD":332187.9827,"Y_COORD":5361020.7409,"BEAT":null,"ROT_ANGLE":null,"NODE_ID":null,"GLOBALID":"6062d47a-f588-488b-b6c3-ef06e09f2f6b","CREATEDDATE":1520794199000,"LASTUPDATE":1765410161000}},{"type":"Feature","id":4032,"geometry":{"type":"Point","coordinates":[-89.2704773405585,48.3752413756877]},"properties":{"OBJECTID":4032,"LOC_ID":"FC1241","FDMID":null,"X_COORD":331870.0698,"Y_COORD":5360497.9061,"BEAT":null,"ROT_ANGLE":null,"NODE_ID":null,"GLOBALID":"e0fa7f6a-cd48-4503-8caf-388f9ccb6aec","CREATEDDATE":1520794199000,"LASTUPDATE":1765410161000}},{"type":"Feature","id":4033,"geometry":{"type":"Point","coordinates":[-89.209384027001,48.4612879366454]},"properties":{"OBJECTID":4033,"LOC_ID":"PC1320","FDMID":null,"X_COORD":336669.7952,"Y_COORD":5369929.2156,"BEAT":null,"ROT_ANGLE":null,"NODE_ID":null,"GLOBALID":"dc6a8bfa-8995-4329-a704-f2d3e33f5631","CREATEDDATE":1520794199000,"LASTUPDATE":1765410161000}},{"type":"Feature","id":4034,"geometry":{"type":"Point","coordinates":[-89.2092537803871,48.4581081377458]},"properties":{"OBJECTID":4034,"LOC_ID":"PC1321","FDMID":null,"X_COORD":336669.2182,"Y_COORD":5369575.5192,"BEAT":null,"ROT_ANGLE":null,"NODE_ID":null,"GLOBALID":"d8e50b73-2559-4cee-83db-106e2c710c32","CREATEDDATE":1520794199000,"LASTUPDATE":1765410161000}},{"type":"Feature","id":4035,"geometry":{"type":"Point","coordinates":[-89.3113685483359,48.3632206145665]},"properties":{"OBJECTID":4035,"LOC_ID":"NC0638","FDMID":null,"X_COORD":328801.9319,"Y_COORD":5359252.4351,"BEAT":null,"ROT_ANGLE":null,"NODE_ID":null,"GLOBALID":"c2ab1e8b-9017-47a7-8d66-a054a74988ae","CREATEDDATE":1520794199000,"LASTUPDATE":1765410161000}},{"type":"Feature","id":4036,"geometry":{"type":"Point","coordinates":[-89.2989645523518,48.3652075516754]},"properties":{"OBJECTID":4036,"LOC_ID":"FC1242","FDMID":null,"X_COORD":329727.24,"Y_COORD":5359445.6296,"BEAT":null,"ROT_ANGLE":null,"NODE_ID":null,"GLOBALID":"3743446d-93b1-4759-8e79-bcb241a8ee69","CREATEDDATE":1520794199000,"LASTUPDATE":1765410161000}},{"type":"Feature","id":4037,"geometry":{"type":"Point","coordinates":[-89.2910713855048,48.3650105593701]},"properties":{"OBJECTID":4037,"LOC_ID":"FC1243","FDMID":null,"X_COORD":330311.1578,"Y_COORD":5359406.2254,"BEAT":null,"ROT_ANGLE":null,"NODE_ID":null,"GLOBALID":"c7915eac-3c4a-4293-9346-bc06f5f51e88","CREATEDDATE":1520794199000,"LASTUPDATE":1765410161000}},{"type":"Feature","id":4038,"geometry":{"type":"Point","coordinates":[-89.2882005731529,48.3842073488582]},"properties":{"OBJECTID":4038,"LOC_ID":"FC1244","FDMID":null,"X_COORD":330592.0657,"Y_COORD":5361533.5494,"BEAT":null,"ROT_ANGLE":360,"NODE_ID":null,"GLOBALID":"9f8e6b2b-79c0-4236-94e2-535870989c93","CREATEDDATE":1520794199000,"LASTUPDATE":1768002372000}},{"type":"Feature","id":4039,"geometry":{"type":"Point","coordinates":[-89.2824874474925,48.3840430053577]},"properties":{"OBJECTID":4039,"LOC_ID":"FC1245","FDMID":null,"X_COORD":331009.916,"Y_COORD":5361502.5712,"BEAT":null,"ROT_ANGLE":null,"NODE_ID":null,"GLOBALID":"f38ea794-0b0e-4745-af09-e12f370ad33b","CREATEDDATE":1520794199000,"LASTUPDATE":1765410161000}},{"type":"Feature","id":4040,"geometry":{"type":"Point","coordinates":[-89.2332729277821,48.3922582715111]},"properties":{"OBJECTID":4040,"LOC_ID":"FC1246","FDMID":null,"X_COORD":334680.0592,"Y_COORD":5362308.245,"BEAT":null,"ROT_ANGLE":null,"NODE_ID":null,"GLOBALID":"75b623b9-fac2-49d7-ab18-dbd32bfa4d19","CREATEDDATE":1520794199000,"LASTUPDATE":1765410161000}},{"type":"Feature","id":4041,"geometry":{"type":"Point","coordinates":[-89.2321564881163,48.3908922994928]},"properties":{"OBJECTID":4041,"LOC_ID":"FC1247","FDMID":null,"X_COORD":334758.2753,"Y_COORD":5362154.0169,"BEAT":null,"ROT_ANGLE":null,"NODE_ID":null,"GLOBALID":"81aed80c-a6da-4f1a-8449-ed8b4b954aa9","CREATEDDATE":1520794199000,"LASTUPDATE":1765410161000}},{"type":"Feature","id":4042,"geometry":{"type":"Point","coordinates":[-89.2473737574157,48.4147036868427]},"properties":{"OBJECTID":4042,"LOC_ID":"PC1322","FDMID":null,"X_COORD":333709.5073,"Y_COORD":5364833.4409,"BEAT":"N 2","ROT_ANGLE":0,"NODE_ID":null,"GLOBALID":"2e7f6cc0-7086-4e18-b42d-c913ad5d471e","CREATEDDATE":1520794199000,"LASTUPDATE":1765410161000}},{"type":"Feature","id":4043,"geometry":{"type":"Point","coordinates":[-89.2666234123934,48.4656961492406]},"properties":{"OBJECTID":4043,"LOC_ID":"MC0347","FDMID":null,"X_COORD":332453.1,"Y_COORD":5370542.9355,"BEAT":null,"ROT_ANGLE":null,"NODE_ID":null,"GLOBALID":"6b713265-ab95-4405-b217-4345be4e04e4","CREATEDDATE":1520794199000,"LASTUPDATE":1765410161000}},{"type":"Feature","id":4044,"geometry":{"type":"Point","coordinates":[-89.187136503308,48.4574014698005]},"properties":{"OBJECTID":4044,"LOC_ID":"PP1398","FDMID":null,"X_COORD":338302.019,"Y_COORD":5369450.002,"BEAT":null,"ROT_ANGLE":null,"NODE_ID":null,"GLOBALID":"274932b3-1e3f-4089-bad3-c1c38d098499","CREATEDDATE":1520794199000,"LASTUPDATE":1765410161000}},{"type":"Feature","id":4045,"geometry":{"type":"Point","coordinates":[-89.253170663555,48.4497990816385]},"properties":{"OBJECTID":4045,"LOC_ID":"MC0359","FDMID":null,"X_COORD":333395.4246,"Y_COORD":5368746.6908,"BEAT":null,"ROT_ANGLE":null,"NODE_ID":null,"GLOBALID":"66f88501-3b5d-432a-9019-dcca239a2ada","CREATEDDATE":1520794199000,"LASTUPDATE":1765410161000}},{"type":"Feature","id":4046,"geometry":{"type":"Point","coordinates":[-89.2556453001194,48.448652768595]},"properties":{"OBJECTID":4046,"LOC_ID":"MC0349","FDMID":null,"X_COORD":333208.6995,"Y_COORD":5368624.6752,"BEAT":null,"ROT_ANGLE":null,"NODE_ID":null,"GLOBALID":"ab9ed035-48fc-4e45-961f-94cbba1fb9d0","CREATEDDATE":1520794199000,"LASTUPDATE":1765410161000}},{"type":"Feature","id":4047,"geometry":{"type":"Point","coordinates":[-89.2740384740307,48.4234236793501]},"properties":{"OBJECTID":4047,"LOC_ID":"PP0262","FDMID":null,"X_COORD":331765.4028,"Y_COORD":5365860.8677,"BEAT":null,"ROT_ANGLE":null,"NODE_ID":null,"GLOBALID":"97e7f968-3d50-4e5e-8c76-1455e0debd4b","CREATEDDATE":1520794199000,"LASTUPDATE":1765410161000}},{"type":"Feature","id":4048,"geometry":{"type":"Point","coordinates":[-89.2860158833723,48.4524129867398]},"properties":{"OBJECTID":4048,"LOC_ID":"MC0350","FDMID":null,"X_COORD":330975.5996,"Y_COORD":5369109.2405,"BEAT":null,"ROT_ANGLE":null,"NODE_ID":null,"GLOBALID":"2f0dd53d-64b6-4639-8e9b-4e4400a39f92","CREATEDDATE":1520794199000,"LASTUPDATE":1765410161000}},{"type":"Feature","id":4049,"geometry":{"type":"Point","coordinates":[-89.2879101126217,48.4524004721014]},"properties":{"OBJECTID":4049,"LOC_ID":"MC0351","FDMID":null,"X_COORD":330835.5102,"Y_COORD":5369112.0354,"BEAT":null,"ROT_ANGLE":null,"NODE_ID":null,"GLOBALID":"d544960c-5d2c-4799-b396-9041fa9b2a9a","CREATEDDATE":1520794199000,"LASTUPDATE":1765410161000}},{"type":"Feature","id":4050,"geometry":{"type":"Point","coordinates":[-89.2484053899411,48.4073596426318]},"properties":{"OBJECTID":4050,"LOC_ID":"PP0264","FDMID":null,"X_COORD":333609.2086,"Y_COORD":5364019.4375,"BEAT":null,"ROT_ANGLE":null,"NODE_ID":null,"GLOBALID":"4abd289a-24b9-42e3-a850-cd8d3af31c71","CREATEDDATE":1520794199000,"LASTUPDATE":1765410161000}},{"type":"Feature","id":4051,"geometry":{"type":"Point","coordinates":[-89.2493137782529,48.405504645553]},"properties":{"OBJECTID":4051,"LOC_ID":"PP0265","FDMID":null,"X_COORD":333535.9319,"Y_COORD":5363815.2406,"BEAT":null,"ROT_ANGLE":null,"NODE_ID":null,"GLOBALID":"ed69a004-cab4-4167-bba3-05fa023da38b","CREATEDDATE":1520794199000,"LASTUPDATE":1765410161000}},{"type":"Feature","id":4052,"geometry":{"type":"Point","coordinates":[-89.2358332966375,48.4050020406088]},"properties":{"OBJECTID":4052,"LOC_ID":"PP0266","FDMID":null,"X_COORD":334531.8884,"Y_COORD":5363730.1633,"BEAT":null,"ROT_ANGLE":null,"NODE_ID":null,"GLOBALID":"8b6f46a4-a5a7-41b4-b0e4-a30d31e14669","CREATEDDATE":1520794199000,"LASTUPDATE":1765410161000}},{"type":"Feature","id":4053,"geometry":{"type":"Point","coordinates":[-89.2372945107227,48.4049205338505]},"properties":{"OBJECTID":4053,"LOC_ID":"PP0267","FDMID":null,"X_COORD":334423.4893,"Y_COORD":5363724.2627,"BEAT":null,"ROT_ANGLE":null,"NODE_ID":null,"GLOBALID":"322c31c8-5967-4e53-b2fe-669b5a1505d6","CREATEDDATE":1520794199000,"LASTUPDATE":1765410161000}},{"type":"Feature","id":4054,"geometry":{"type":"Point","coordinates":[-89.2659288040648,48.4651367074999]},"properties":{"OBJECTID":4054,"LOC_ID":"MC0352","FDMID":null,"X_COORD":332502.6001,"Y_COORD":5370479.2357,"BEAT":null,"ROT_ANGLE":null,"NODE_ID":null,"GLOBALID":"9b767df4-4243-48d6-8df9-44812226c4d0","CREATEDDATE":1520794199000,"LASTUPDATE":1765410161000}},{"type":"Feature","id":4055,"geometry":{"type":"Point","coordinates":[-89.2683367234482,48.4658659035907]},"properties":{"OBJECTID":4055,"LOC_ID":"MC0353","FDMID":null,"X_COORD":332327.0205,"Y_COORD":5370565.5563,"BEAT":null,"ROT_ANGLE":360,"NODE_ID":null,"GLOBALID":"a4bf8c69-0dce-4946-9db0-065c9ea9a53c","CREATEDDATE":1520794199000,"LASTUPDATE":1765410161000}},{"type":"Feature","id":4056,"geometry":{"type":"Point","coordinates":[-89.2666444087013,48.466319251965]},"properties":{"OBJECTID":4056,"LOC_ID":"MC0354","FDMID":null,"X_COORD":332453.6,"Y_COORD":5370612.2359,"BEAT":null,"ROT_ANGLE":null,"NODE_ID":null,"GLOBALID":"dd1c8f52-f2ff-450b-88ca-f98e67dce93a","CREATEDDATE":1520794199000,"LASTUPDATE":1765410161000}},{"type":"Feature","id":4057,"geometry":{"type":"Point","coordinates":[-89.2648042776709,48.4658798100092]},"properties":{"OBJECTID":4057,"LOC_ID":"MC0355","FDMID":null,"X_COORD":332588.1652,"Y_COORD":5370559.3661,"BEAT":null,"ROT_ANGLE":360,"NODE_ID":null,"GLOBALID":"4c5d04b9-3318-46cf-a54b-7825b30158c7","CREATEDDATE":1520794199000,"LASTUPDATE":1765410161000}},{"type":"Feature","id":4058,"geometry":{"type":"Point","coordinates":[-89.2675107032767,48.4651145346126]},"properties":{"OBJECTID":4058,"LOC_ID":"MC0356","FDMID":null,"X_COORD":332385.6001,"Y_COORD":5370480.2358,"BEAT":null,"ROT_ANGLE":null,"NODE_ID":null,"GLOBALID":"f8f4ade9-59d3-4870-91e7-a539177e94cf","CREATEDDATE":1520794199000,"LASTUPDATE":1765410161000}},{"type":"Feature","id":4059,"geometry":{"type":"Point","coordinates":[-89.2849726839321,48.4510195146893]},"properties":{"OBJECTID":4059,"LOC_ID":"MP0022","FDMID":null,"X_COORD":331048.1025,"Y_COORD":5368952.0606,"BEAT":null,"ROT_ANGLE":360,"NODE_ID":null,"GLOBALID":"74985e81-6a1e-49a9-ade1-cd2061a15135","CREATEDDATE":1520794199000,"LASTUPDATE":1765410161000}},{"type":"Feature","id":4060,"geometry":{"type":"Point","coordinates":[-89.2592436378719,48.3879545117592]},"properties":{"OBJECTID":4060,"LOC_ID":"FC1248","FDMID":null,"X_COORD":332743.5564,"Y_COORD":5361886.2923,"BEAT":null,"ROT_ANGLE":null,"NODE_ID":null,"GLOBALID":"cbdb211c-6f25-479c-a9f7-e76e89852a9c","CREATEDDATE":1520794199000,"LASTUPDATE":1765410161000}},{"type":"Feature","id":4061,"geometry":{"type":"Point","coordinates":[-89.2524608508135,48.3832909929189]},"properties":{"OBJECTID":4061,"LOC_ID":"FC1249","FDMID":null,"X_COORD":333230.429,"Y_COORD":5361353.1852,"BEAT":null,"ROT_ANGLE":null,"NODE_ID":null,"GLOBALID":"789937e0-a905-4365-9eb7-3c85ae01e70d","CREATEDDATE":1520794199000,"LASTUPDATE":1765410161000}},{"type":"Feature","id":4062,"geometry":{"type":"Point","coordinates":[-89.3025373423927,48.3898047173881]},"properties":{"OBJECTID":4062,"LOC_ID":"NC0639","FDMID":null,"X_COORD":329544.8081,"Y_COORD":5362187.3703,"BEAT":null,"ROT_ANGLE":null,"NODE_ID":null,"GLOBALID":"f39fae15-5674-4d20-afe8-2446c54527e6","CREATEDDATE":1520794199000,"LASTUPDATE":1765410161000}},{"type":"Feature","id":4063,"geometry":{"type":"Point","coordinates":[-89.3039804388089,48.3899189819943]},"properties":{"OBJECTID":4063,"LOC_ID":"NC0640","FDMID":null,"X_COORD":329438.3652,"Y_COORD":5362203.2825,"BEAT":null,"ROT_ANGLE":null,"NODE_ID":null,"GLOBALID":"b97265be-a5c7-432a-af00-2981fd12fac8","CREATEDDATE":1520794199000,"LASTUPDATE":1765410161000}},{"type":"Feature","id":4064,"geometry":{"type":"Point","coordinates":[-89.2718475130386,48.3798335294722]},"properties":{"OBJECTID":4064,"LOC_ID":"FC1250","FDMID":null,"X_COORD":331783.75,"Y_COORD":5361011.2995,"BEAT":null,"ROT_ANGLE":null,"NODE_ID":null,"GLOBALID":"ea519be2-0dc3-408a-bf13-3e6d0beb22d0","CREATEDDATE":1520794199000,"LASTUPDATE":1765410161000}},{"type":"Feature","id":4065,"geometry":{"type":"Point","coordinates":[-89.312673395159,48.3246090128028]},"properties":{"OBJECTID":4065,"LOC_ID":"NC0642","FDMID":null,"X_COORD":328575.802,"Y_COORD":5354963.9787,"BEAT":null,"ROT_ANGLE":null,"NODE_ID":null,"GLOBALID":"652f0319-9e91-4768-a644-506fc90ad301","CREATEDDATE":1520794199000,"LASTUPDATE":1765410161000}},{"type":"Feature","id":4066,"geometry":{"type":"Point","coordinates":[-89.3125639672716,48.3236535449791]},"properties":{"OBJECTID":4066,"LOC_ID":"NC0643","FDMID":null,"X_COORD":328580.7096,"Y_COORD":5354857.5417,"BEAT":null,"ROT_ANGLE":null,"NODE_ID":null,"GLOBALID":"0ddfa085-f860-4918-8c3d-4d8d81e7cab0","CREATEDDATE":1520794199000,"LASTUPDATE":1765410161000}},{"type":"Feature","id":4067,"geometry":{"type":"Point","coordinates":[-89.3126784074392,48.3220884217793]},"properties":{"OBJECTID":4067,"LOC_ID":"NC0644","FDMID":null,"X_COORD":328566.9801,"Y_COORD":5354683.8471,"BEAT":null,"ROT_ANGLE":null,"NODE_ID":null,"GLOBALID":"f05f2e96-5c1b-4955-bd7e-139351ca1d17","CREATEDDATE":1520794199000,"LASTUPDATE":1765410161000}},{"type":"Feature","id":4068,"geometry":{"type":"Point","coordinates":[-89.3125864624863,48.3210986767709]},"properties":{"OBJECTID":4068,"LOC_ID":"NC0645","FDMID":null,"X_COORD":328570.4774,"Y_COORD":5354573.6396,"BEAT":null,"ROT_ANGLE":null,"NODE_ID":null,"GLOBALID":"8fb5f39c-f318-4015-b01d-32debbcf9b5b","CREATEDDATE":1520794199000,"LASTUPDATE":1765410161000}},{"type":"Feature","id":4069,"geometry":{"type":"Point","coordinates":[-89.3126464343933,48.3202444977362]},"properties":{"OBJECTID":4069,"LOC_ID":"NC0646","FDMID":null,"X_COORD":328563.1685,"Y_COORD":5354478.8388,"BEAT":null,"ROT_ANGLE":null,"NODE_ID":null,"GLOBALID":"c5dd412f-647a-4423-a68f-a3c4756e9b48","CREATEDDATE":1520794199000,"LASTUPDATE":1765410161000}},{"type":"Feature","id":4070,"geometry":{"type":"Point","coordinates":[-89.3129188256601,48.3194338398634]},"properties":{"OBJECTID":4070,"LOC_ID":"NC0647","FDMID":null,"X_COORD":328540.2594,"Y_COORD":5354389.35,"BEAT":null,"ROT_ANGLE":null,"NODE_ID":null,"GLOBALID":"1f283122-49c8-4625-aeb5-d2824501d0b5","CREATEDDATE":1520794199000,"LASTUPDATE":1765410161000}},{"type":"Feature","id":4071,"geometry":{"type":"Point","coordinates":[-89.2512492132208,48.4213324027546]},"properties":{"OBJECTID":4071,"LOC_ID":"PP0268","FDMID":null,"X_COORD":333444.4307,"Y_COORD":5365578.6058,"BEAT":null,"ROT_ANGLE":null,"NODE_ID":null,"GLOBALID":"ce4812e8-dc94-4c82-8f99-34cd5109c977","CREATEDDATE":1520794199000,"LASTUPDATE":1765410161000}},{"type":"Feature","id":4072,"geometry":{"type":"Point","coordinates":[-89.2506637798925,48.4214541562719]},"properties":{"OBJECTID":4072,"LOC_ID":"PP0269","FDMID":null,"X_COORD":333488.1385,"Y_COORD":5365590.8645,"BEAT":null,"ROT_ANGLE":null,"NODE_ID":null,"GLOBALID":"928036ec-ed70-488a-99b9-df932ce56a83","CREATEDDATE":1520794199000,"LASTUPDATE":1765410161000}},{"type":"Feature","id":4073,"geometry":{"type":"Point","coordinates":[-89.2507458851301,48.4219682387422]},"properties":{"OBJECTID":4073,"LOC_ID":"PP0270","FDMID":null,"X_COORD":333483.7443,"Y_COORD":5365648.1802,"BEAT":null,"ROT_ANGLE":null,"NODE_ID":null,"GLOBALID":"4ba206f9-7134-4683-8222-2110273e217e","CREATEDDATE":1520794199000,"LASTUPDATE":1765410161000}},{"type":"Feature","id":4074,"geometry":{"type":"Point","coordinates":[-89.2514442091286,48.4218674017733]},"properties":{"OBJECTID":4074,"LOC_ID":"PP0271","FDMID":null,"X_COORD":333431.7538,"Y_COORD":5365638.4919,"BEAT":null,"ROT_ANGLE":null,"NODE_ID":null,"GLOBALID":"49e51370-c648-4e45-9b2b-c5462ce69cf0","CREATEDDATE":1520794199000,"LASTUPDATE":1765410161000}},{"type":"Feature","id":4075,"geometry":{"type":"Point","coordinates":[-89.2529605566949,48.382415821263]},"properties":{"OBJECTID":4075,"LOC_ID":"FC0200","FDMID":null,"X_COORD":333190.5726,"Y_COORD":5361257.0038,"BEAT":null,"ROT_ANGLE":360,"NODE_ID":null,"GLOBALID":"c63caad8-c53d-4570-ac4b-cfa20b9f7001","CREATEDDATE":1520794199000,"LASTUPDATE":1765410161000}},{"type":"Feature","id":4076,"geometry":{"type":"Point","coordinates":[-89.2395924435611,48.4497784814568]},"properties":{"OBJECTID":4076,"LOC_ID":"PC1323","FDMID":null,"X_COORD":334399.3037,"Y_COORD":5368714.9289,"BEAT":null,"ROT_ANGLE":null,"NODE_ID":null,"GLOBALID":"aa21abbd-b117-4c2e-97b3-a76bb693b8bd","CREATEDDATE":1520794199000,"LASTUPDATE":1765410161000}},{"type":"Feature","id":4077,"geometry":{"type":"Point","coordinates":[-89.2381080442622,48.4523231167369]},"properties":{"OBJECTID":4077,"LOC_ID":"PC1324","FDMID":null,"X_COORD":334517.3295,"Y_COORD":5368994.5399,"BEAT":null,"ROT_ANGLE":null,"NODE_ID":null,"GLOBALID":"8a9509f4-f779-45c9-af8e-08b9cded5f8e","CREATEDDATE":1520794199000,"LASTUPDATE":1765410161000}},{"type":"Feature","id":4078,"geometry":{"type":"Point","coordinates":[-89.2259224589119,48.4285320591017]},"properties":{"OBJECTID":4078,"LOC_ID":"PC1325","FDMID":null,"X_COORD":335341.3566,"Y_COORD":5366324.0168,"BEAT":"14","ROT_ANGLE":null,"NODE_ID":null,"GLOBALID":"40e694de-4c62-4488-823c-da11f2fa718a","CREATEDDATE":1520794199000,"LASTUPDATE":1765410161000}},{"type":"Feature","id":4079,"geometry":{"type":"Point","coordinates":[-89.2743164080277,48.4230338253782]},"properties":{"OBJECTID":4079,"LOC_ID":"PC1327","FDMID":null,"X_COORD":331743.555,"Y_COORD":5365818.1487,"BEAT":null,"ROT_ANGLE":null,"NODE_ID":null,"GLOBALID":"c9538e4b-9ed9-4a11-a7f8-a22133a46c46","CREATEDDATE":1520794199000,"LASTUPDATE":1765410161000}},{"type":"Feature","id":4080,"geometry":{"type":"Point","coordinates":[-89.2707079564477,48.4275331920243]},"properties":{"OBJECTID":4080,"LOC_ID":"PC1331","FDMID":null,"X_COORD":332025.3304,"Y_COORD":5366310.3008,"BEAT":null,"ROT_ANGLE":null,"NODE_ID":null,"GLOBALID":"312b867c-b60f-417a-9038-9e5b4da78a6d","CREATEDDATE":1520794199000,"LASTUPDATE":1765410161000}},{"type":"Feature","id":4081,"geometry":{"type":"Point","coordinates":[-89.271925320638,48.427190113336]},"properties":{"OBJECTID":4081,"LOC_ID":"PC1332","FDMID":null,"X_COORD":331934.15,"Y_COORD":5366274.8417,"BEAT":null,"ROT_ANGLE":null,"NODE_ID":null,"GLOBALID":"35f35b6a-832e-4d16-9b41-2707b7983143","CREATEDDATE":1520794199000,"LASTUPDATE":1765410161000}},{"type":"Feature","id":4082,"geometry":{"type":"Point","coordinates":[-89.2690919265273,48.4273638121041]},"properties":{"OBJECTID":4082,"LOC_ID":"PC1333","FDMID":null,"X_COORD":332144.3104,"Y_COORD":5366287.9305,"BEAT":null,"ROT_ANGLE":null,"NODE_ID":null,"GLOBALID":"5abf9a4b-5a15-45cb-b744-2a5a4807019f","CREATEDDATE":1520794199000,"LASTUPDATE":1765410161000}},{"type":"Feature","id":4083,"geometry":{"type":"Point","coordinates":[-89.2675845422939,48.4273663653816]},"properties":{"OBJECTID":4083,"LOC_ID":"PC1334","FDMID":null,"X_COORD":332255.8207,"Y_COORD":5366284.9101,"BEAT":null,"ROT_ANGLE":null,"NODE_ID":null,"GLOBALID":"b20f1c3a-c7cd-4793-8449-5d726345cc41","CREATEDDATE":1520794199000,"LASTUPDATE":1765410161000}},{"type":"Feature","id":4084,"geometry":{"type":"Point","coordinates":[-89.2659862851711,48.4273560280894]},"properties":{"OBJECTID":4084,"LOC_ID":"PC1335","FDMID":null,"X_COORD":332374.0105,"Y_COORD":5366280.2602,"BEAT":null,"ROT_ANGLE":null,"NODE_ID":null,"GLOBALID":"85c3709c-8a00-44bd-ba65-40fb85ef8832","CREATEDDATE":1520794199000,"LASTUPDATE":1765410161000}},{"type":"Feature","id":4085,"geometry":{"type":"Point","coordinates":[-89.2665558364754,48.4625240046637]},"properties":{"OBJECTID":4085,"LOC_ID":"MC0360","FDMID":null,"X_COORD":332447.6494,"Y_COORD":5370190.2213,"BEAT":null,"ROT_ANGLE":null,"NODE_ID":null,"GLOBALID":"d3ee5aa1-4024-416b-a9ba-4a4e6d30facb","CREATEDDATE":1520794199000,"LASTUPDATE":1765410161000}},{"type":"Feature","id":4086,"geometry":{"type":"Point","coordinates":[-89.2652107684183,48.4620565628925]},"properties":{"OBJECTID":4086,"LOC_ID":"MC0361","FDMID":null,"X_COORD":332545.5377,"Y_COORD":5370135.323,"BEAT":null,"ROT_ANGLE":null,"NODE_ID":null,"GLOBALID":"921513e7-6d73-4391-8f08-ac7a0e0ca70f","CREATEDDATE":1520794199000,"LASTUPDATE":1765410161000}},{"type":"Feature","id":4087,"geometry":{"type":"Point","coordinates":[-89.265028531583,48.4624929774097]},"properties":{"OBJECTID":4087,"LOC_ID":"MC0362","FDMID":null,"X_COORD":332560.4447,"Y_COORD":5370183.4292,"BEAT":null,"ROT_ANGLE":null,"NODE_ID":null,"GLOBALID":"59d41d68-ba5e-488c-8928-7e6f6d0b6de1","CREATEDDATE":1520794199000,"LASTUPDATE":1765410161000}},{"type":"Feature","id":4088,"geometry":{"type":"Point","coordinates":[-89.2211340040961,48.4303096198688]},"properties":{"OBJECTID":4088,"LOC_ID":"PC1337","FDMID":null,"X_COORD":335701.2867,"Y_COORD":5366511.2938,"BEAT":null,"ROT_ANGLE":null,"NODE_ID":null,"GLOBALID":"d7236505-02e2-4992-8796-f6a55f25b607","CREATEDDATE":1520794199000,"LASTUPDATE":1765410161000}},{"type":"Feature","id":4089,"geometry":{"type":"Point","coordinates":[-89.2215492640364,48.4274069215585]},"properties":{"OBJECTID":4089,"LOC_ID":"PC1336","FDMID":null,"X_COORD":335661.2083,"Y_COORD":5366189.5669,"BEAT":null,"ROT_ANGLE":null,"NODE_ID":null,"GLOBALID":"ed907c0f-2fec-40de-95c3-90132a49ce2b","CREATEDDATE":1520794199000,"LASTUPDATE":1765410161000}},{"type":"Feature","id":4090,"geometry":{"type":"Point","coordinates":[-89.2784518118223,48.3815466432729]},"properties":{"OBJECTID":4090,"LOC_ID":"FC1251","FDMID":null,"X_COORD":331300.4346,"Y_COORD":5361216.223,"BEAT":null,"ROT_ANGLE":null,"NODE_ID":null,"GLOBALID":"3561f527-3cbf-484d-80a5-814bbdd5050d","CREATEDDATE":1520794199000,"LASTUPDATE":1765410161000}},{"type":"Feature","id":4091,"geometry":{"type":"Point","coordinates":[-89.3047310777263,48.369335835679]},"properties":{"OBJECTID":4091,"LOC_ID":"FC1252","FDMID":null,"X_COORD":329313.9702,"Y_COORD":5359917.2878,"BEAT":null,"ROT_ANGLE":null,"NODE_ID":null,"GLOBALID":"65d2b1e6-ee49-4542-b48b-09ca21c65ac7","CREATEDDATE":1520794199000,"LASTUPDATE":1765410161000}},{"type":"Feature","id":4092,"geometry":{"type":"Point","coordinates":[-89.3002096499469,48.3693496398321]},"properties":{"OBJECTID":4092,"LOC_ID":"FC1253","FDMID":null,"X_COORD":329648.8485,"Y_COORD":5359908.7594,"BEAT":null,"ROT_ANGLE":null,"NODE_ID":null,"GLOBALID":"cb2cf333-de47-4185-ae4f-e6c0be87e596","CREATEDDATE":1520794199000,"LASTUPDATE":1765410161000}},{"type":"Feature","id":4093,"geometry":{"type":"Point","coordinates":[-89.1542497825169,48.4788310710402]},"properties":{"OBJECTID":4093,"LOC_ID":"PC1340","FDMID":null,"X_COORD":340800.3178,"Y_COORD":5371762.8327,"BEAT":null,"ROT_ANGLE":null,"NODE_ID":null,"GLOBALID":"f9d04554-e139-4a62-9822-45ac071e87e3","CREATEDDATE":1520794199000,"LASTUPDATE":1765410161000}},{"type":"Feature","id":4094,"geometry":{"type":"Point","coordinates":[-89.1542458496471,48.4787601432785]},"properties":{"OBJECTID":4094,"LOC_ID":"PC1341","FDMID":null,"X_COORD":340800.3864,"Y_COORD":5371754.9412,"BEAT":null,"ROT_ANGLE":null,"NODE_ID":null,"GLOBALID":"a6be8546-0072-4b2b-a79d-8c6690748fe4","CREATEDDATE":1520794199000,"LASTUPDATE":1765410161000}},{"type":"Feature","id":4095,"geometry":{"type":"Point","coordinates":[-89.1514507499608,48.4764102456841]},"properties":{"OBJECTID":4095,"LOC_ID":"PC1342","FDMID":null,"X_COORD":340999.5881,"Y_COORD":5371487.9468,"BEAT":null,"ROT_ANGLE":null,"NODE_ID":null,"GLOBALID":"2e03f992-f806-4607-a251-3098beb27530","CREATEDDATE":1520794199000,"LASTUPDATE":1765410161000}},{"type":"Feature","id":4096,"geometry":{"type":"Point","coordinates":[-89.2622045167927,48.3586802601711]},"properties":{"OBJECTID":4096,"LOC_ID":"FC1254","FDMID":null,"X_COORD":332422.9807,"Y_COORD":5358587.4258,"BEAT":null,"ROT_ANGLE":360,"NODE_ID":null,"GLOBALID":"c16d5190-6bed-49d8-8bca-ec7268563d33","CREATEDDATE":1520794199000,"LASTUPDATE":1774565183000}},{"type":"Feature","id":4097,"geometry":{"type":"Point","coordinates":[-89.2453836440188,48.3868668568536]},"properties":{"OBJECTID":4097,"LOC_ID":"FC1255","FDMID":null,"X_COORD":333766.0375,"Y_COORD":5361735.2355,"BEAT":null,"ROT_ANGLE":null,"NODE_ID":null,"GLOBALID":"6900ba29-ca95-4983-8c44-996aa9526270","CREATEDDATE":1520794199000,"LASTUPDATE":1765410161000}},{"type":"Feature","id":4098,"geometry":{"type":"Point","coordinates":[-89.2794843703112,48.3968936918624]},"properties":{"OBJECTID":4098,"LOC_ID":"FC1256","FDMID":null,"X_COORD":331274.752,"Y_COORD":5362924.2158,"BEAT":null,"ROT_ANGLE":null,"NODE_ID":null,"GLOBALID":"2f425bee-12c9-4426-b95e-7957ec11936b","CREATEDDATE":1520794199000,"LASTUPDATE":1765410161000}},{"type":"Feature","id":4099,"geometry":{"type":"Point","coordinates":[-89.1875344770152,48.4698560801437]},"properties":{"OBJECTID":4099,"LOC_ID":"PC1343","FDMID":null,"X_COORD":338312.178,"Y_COORD":5370835.1125,"BEAT":null,"ROT_ANGLE":null,"NODE_ID":null,"GLOBALID":"6c28b6c1-8e6c-42e8-b928-a2083619f9ab","CREATEDDATE":1520794199000,"LASTUPDATE":1765410161000}},{"type":"Feature","id":4100,"geometry":{"type":"Point","coordinates":[-89.1823488512552,48.4773011019625]},"properties":{"OBJECTID":4100,"LOC_ID":"PC1344","FDMID":null,"X_COORD":338719.0508,"Y_COORD":5371651.6454,"BEAT":null,"ROT_ANGLE":null,"NODE_ID":null,"GLOBALID":"78b352d8-347f-433a-a5cf-8108ad03c5cd","CREATEDDATE":1520794199000,"LASTUPDATE":1765410161000}},{"type":"Feature","id":4101,"geometry":{"type":"Point","coordinates":[-89.2855768141189,48.4532716105757]},"properties":{"OBJECTID":4101,"LOC_ID":"MC0363","FDMID":null,"X_COORD":331010.9123,"Y_COORD":5369203.7017,"BEAT":null,"ROT_ANGLE":null,"NODE_ID":null,"GLOBALID":"8c2e28b3-c17b-4aff-a1d4-6a05c86f305f","CREATEDDATE":1520794199000,"LASTUPDATE":1765410161000}},{"type":"Feature","id":4102,"geometry":{"type":"Point","coordinates":[-89.2866506857712,48.4532455126632]},"properties":{"OBJECTID":4102,"LOC_ID":"MC0364","FDMID":null,"X_COORD":330931.4314,"Y_COORD":5369203.1732,"BEAT":null,"ROT_ANGLE":null,"NODE_ID":null,"GLOBALID":"a71b7d62-271c-4e59-a140-ff21ff169f2e","CREATEDDATE":1520794199000,"LASTUPDATE":1765410161000}},{"type":"Feature","id":4103,"geometry":{"type":"Point","coordinates":[-89.2078189547296,48.456663262546]},"properties":{"OBJECTID":4103,"LOC_ID":"PC1345","FDMID":null,"X_COORD":336770.6554,"Y_COORD":5369411.867,"BEAT":null,"ROT_ANGLE":null,"NODE_ID":null,"GLOBALID":"d467636a-a5ed-4fc6-8156-f243fbacc2ac","CREATEDDATE":1520794199000,"LASTUPDATE":1765410161000}},{"type":"Feature","id":4104,"geometry":{"type":"Point","coordinates":[-89.2141115926189,48.4565377305526]},"properties":{"OBJECTID":4104,"LOC_ID":"PC1346","FDMID":null,"X_COORD":336305.0482,"Y_COORD":5369411.3574,"BEAT":null,"ROT_ANGLE":null,"NODE_ID":null,"GLOBALID":"fb1c35bf-702a-4de0-9d41-081ae765a739","CREATEDDATE":1520794199000,"LASTUPDATE":1765410161000}},{"type":"Feature","id":4105,"geometry":{"type":"Point","coordinates":[-89.220747175205,48.4557381925596]},"properties":{"OBJECTID":4105,"LOC_ID":"PC1347","FDMID":null,"X_COORD":335811.9113,"Y_COORD":5369336.7097,"BEAT":null,"ROT_ANGLE":null,"NODE_ID":null,"GLOBALID":"ac95d03c-4a38-4b8e-8fcf-373fb4c278ec","CREATEDDATE":1520794199000,"LASTUPDATE":1765410161000}},{"type":"Feature","id":4106,"geometry":{"type":"Point","coordinates":[-89.2228078862446,48.4532971484799]},"properties":{"OBJECTID":4106,"LOC_ID":"PC1348","FDMID":null,"X_COORD":335651.6824,"Y_COORD":5369069.8244,"BEAT":null,"ROT_ANGLE":360,"NODE_ID":null,"GLOBALID":"88bc4f7e-8448-4739-8c1a-ca3b4fc586ad","CREATEDDATE":1520794199000,"LASTUPDATE":1765410161000}},{"type":"Feature","id":4107,"geometry":{"type":"Point","coordinates":[-89.2654060245432,48.4267823313805]},"properties":{"OBJECTID":4107,"LOC_ID":"PC1349","FDMID":null,"X_COORD":332415.0456,"Y_COORD":5366215.2269,"BEAT":null,"ROT_ANGLE":null,"NODE_ID":null,"GLOBALID":"711675da-7171-4c5c-9da6-b33a499a3bab","CREATEDDATE":1520794199000,"LASTUPDATE":1765410161000}},{"type":"Feature","id":4108,"geometry":{"type":"Point","coordinates":[-89.2159395755358,48.4587595423203]},"properties":{"OBJECTID":4108,"LOC_ID":"PC1350","FDMID":null,"X_COORD":336177.0603,"Y_COORD":5369662.2124,"BEAT":null,"ROT_ANGLE":null,"NODE_ID":null,"GLOBALID":"58d5af8e-5df4-4b8f-84c6-e5f3c2e84566","CREATEDDATE":1520794199000,"LASTUPDATE":1765410161000}},{"type":"Feature","id":4109,"geometry":{"type":"Point","coordinates":[-89.2155279972389,48.454632526251]},"properties":{"OBJECTID":4109,"LOC_ID":"PC1351","FDMID":null,"X_COORD":336194.2043,"Y_COORD":5369202.635,"BEAT":null,"ROT_ANGLE":null,"NODE_ID":null,"GLOBALID":"266dab2a-3eec-45a5-b0c9-cbe4d5b560ee","CREATEDDATE":1520794199000,"LASTUPDATE":1765410161000}},{"type":"Feature","id":4110,"geometry":{"type":"Point","coordinates":[-89.2354172040432,48.3556151389959]},"properties":{"OBJECTID":4110,"LOC_ID":"FC1257","FDMID":null,"X_COORD":334402.502,"Y_COORD":5358240.2392,"BEAT":null,"ROT_ANGLE":null,"NODE_ID":null,"GLOBALID":"de4d1f19-4383-4db6-8cc0-afd367ea0431","CREATEDDATE":1520794199000,"LASTUPDATE":1765410161000}},{"type":"Feature","id":4111,"geometry":{"type":"Point","coordinates":[-89.1826290085956,48.4680453835929]},"properties":{"OBJECTID":4111,"LOC_ID":"PC1352","FDMID":null,"X_COORD":338668.9953,"Y_COORD":5370623.5062,"BEAT":null,"ROT_ANGLE":null,"NODE_ID":null,"GLOBALID":"85125d5e-c175-4f6c-9290-198d18986313","CREATEDDATE":1520794199000,"LASTUPDATE":1765410161000}},{"type":"Feature","id":4112,"geometry":{"type":"Point","coordinates":[-89.1997288017935,48.4534535999599]},"properties":{"OBJECTID":4112,"LOC_ID":"PC1353","FDMID":null,"X_COORD":337358.4906,"Y_COORD":5369037.9031,"BEAT":null,"ROT_ANGLE":null,"NODE_ID":null,"GLOBALID":"933a9732-3e4f-470f-85bd-4198c3337c9f","CREATEDDATE":1520794199000,"LASTUPDATE":1765410161000}},{"type":"Feature","id":4113,"geometry":{"type":"Point","coordinates":[-89.1997001455104,48.4533055796771]},"properties":{"OBJECTID":4113,"LOC_ID":"PC1354","FDMID":null,"X_COORD":337360.1363,"Y_COORD":5369021.3905,"BEAT":null,"ROT_ANGLE":null,"NODE_ID":null,"GLOBALID":"38ba2340-944a-4068-9270-de3206ba7ab1","CREATEDDATE":1520794199000,"LASTUPDATE":1765410161000}},{"type":"Feature","id":4114,"geometry":{"type":"Point","coordinates":[-89.1992659641122,48.4576735129135]},"properties":{"OBJECTID":4114,"LOC_ID":"PC1355","FDMID":null,"X_COORD":337406.1905,"Y_COORD":5369505.9413,"BEAT":null,"ROT_ANGLE":null,"NODE_ID":null,"GLOBALID":"295ad00e-3dd8-41d6-be31-c8adad7677ab","CREATEDDATE":1520794199000,"LASTUPDATE":1765410161000}},{"type":"Feature","id":4115,"geometry":{"type":"Point","coordinates":[-89.199096817225,48.4576973071641]},"properties":{"OBJECTID":4115,"LOC_ID":"PC1356","FDMID":null,"X_COORD":337418.771,"Y_COORD":5369508.2265,"BEAT":null,"ROT_ANGLE":null,"NODE_ID":null,"GLOBALID":"090deaba-4b6d-44a7-9680-3ecfdf86d7c7","CREATEDDATE":1520794199000,"LASTUPDATE":1765410161000}},{"type":"Feature","id":4116,"geometry":{"type":"Point","coordinates":[-89.2846539022602,48.3693601956276]},"properties":{"OBJECTID":4116,"LOC_ID":"FC1258","FDMID":null,"X_COORD":330800.8578,"Y_COORD":5359875.4637,"BEAT":null,"ROT_ANGLE":null,"NODE_ID":null,"GLOBALID":"f99c0717-74e9-4a25-bece-46d10e98158e","CREATEDDATE":1520794199000,"LASTUPDATE":1765410161000}},{"type":"Feature","id":4117,"geometry":{"type":"Point","coordinates":[-89.3016861577482,48.364939332008]},"properties":{"OBJECTID":4117,"LOC_ID":"FC1259","FDMID":null,"X_COORD":329524.7809,"Y_COORD":5359421.8705,"BEAT":null,"ROT_ANGLE":null,"NODE_ID":null,"GLOBALID":"e749097e-39c0-4cf1-925d-368b7ba62def","CREATEDDATE":1520794199000,"LASTUPDATE":1765410161000}},{"type":"Feature","id":4118,"geometry":{"type":"Point","coordinates":[-89.2302816767758,48.4341280933838]},"properties":{"OBJECTID":4118,"LOC_ID":"PC1357","FDMID":null,"X_COORD":335037.0322,"Y_COORD":5366955.3694,"BEAT":null,"ROT_ANGLE":null,"NODE_ID":null,"GLOBALID":"55c7f91c-b200-48a7-bbd6-4eb9c8612acc","CREATEDDATE":1520794199000,"LASTUPDATE":1765410161000}},{"type":"Feature","id":4119,"geometry":{"type":"Point","coordinates":[-89.2415497531991,48.3944358869259]},"properties":{"OBJECTID":4119,"LOC_ID":"FC1260","FDMID":null,"X_COORD":334074.4786,"Y_COORD":5362568.1706,"BEAT":null,"ROT_ANGLE":null,"NODE_ID":null,"GLOBALID":"a8db7e6d-7124-40c3-98d1-b3d082b250e5","CREATEDDATE":1520794199000,"LASTUPDATE":1765410161000}},{"type":"Feature","id":4120,"geometry":{"type":"Point","coordinates":[-89.1947581545583,48.4506418350819]},"properties":{"OBJECTID":4120,"LOC_ID":"PC1358","FDMID":null,"X_COORD":337717.0217,"Y_COORD":5368714.8371,"BEAT":null,"ROT_ANGLE":360,"NODE_ID":null,"GLOBALID":"4ec89e42-f9d2-4c29-a230-5f6179b59ce4","CREATEDDATE":1520794199000,"LASTUPDATE":1765410161000}},{"type":"Feature","id":4121,"geometry":{"type":"Point","coordinates":[-89.1991060521869,48.4483570101941]},"properties":{"OBJECTID":4121,"LOC_ID":"PC1359","FDMID":null,"X_COORD":337388.2531,"Y_COORD":5368470.1201,"BEAT":null,"ROT_ANGLE":null,"NODE_ID":null,"GLOBALID":"5321222e-574e-4e3d-ad95-1f2002e89caa","CREATEDDATE":1520794199000,"LASTUPDATE":1765410161000}},{"type":"Feature","id":4122,"geometry":{"type":"Point","coordinates":[-89.3000026248646,48.3640573947833]},"properties":{"OBJECTID":4122,"LOC_ID":"FC1261","FDMID":null,"X_COORD":329646.5225,"Y_COORD":5359320.1056,"BEAT":null,"ROT_ANGLE":null,"NODE_ID":null,"GLOBALID":"c181dff8-1c7b-4c24-9b34-3a92330b7e5c","CREATEDDATE":1520794199000,"LASTUPDATE":1765410161000}},{"type":"Feature","id":4123,"geometry":{"type":"Point","coordinates":[-89.2510731585202,48.4521481131042]},"properties":{"OBJECTID":4123,"LOC_ID":"MP0025","FDMID":null,"X_COORD":333558.1904,"Y_COORD":5369003.208,"BEAT":null,"ROT_ANGLE":null,"NODE_ID":null,"GLOBALID":"548e36b7-27ba-4342-8234-d3960fac1675","CREATEDDATE":1520794199000,"LASTUPDATE":1765410161000}},{"type":"Feature","id":4124,"geometry":{"type":"Point","coordinates":[-89.2171055078268,48.4567732019517]},"properties":{"OBJECTID":4124,"LOC_ID":"PC1360","FDMID":null,"X_COORD":336084.4713,"Y_COORD":5369443.938,"BEAT":null,"ROT_ANGLE":null,"NODE_ID":null,"GLOBALID":"1dfca616-41b8-4792-8be4-2e961bc33a40","CREATEDDATE":1520794199000,"LASTUPDATE":1765410161000}},{"type":"Feature","id":4125,"geometry":{"type":"Point","coordinates":[-89.2676518331743,48.4108857409203]},"properties":{"OBJECTID":4125,"LOC_ID":"PC1361","FDMID":null,"X_COORD":332196.5865,"Y_COORD":5364453.3402,"BEAT":null,"ROT_ANGLE":null,"NODE_ID":null,"GLOBALID":"1da2d974-441c-4cf4-8b1a-64ffdff4ca4c","CREATEDDATE":1520794199000,"LASTUPDATE":1765410161000}},{"type":"Feature","id":4126,"geometry":{"type":"Point","coordinates":[-89.2172267209527,48.4591367032178]},"properties":{"OBJECTID":4126,"LOC_ID":"PC1362","FDMID":null,"X_COORD":336083.1227,"Y_COORD":5369706.8885,"BEAT":null,"ROT_ANGLE":null,"NODE_ID":null,"GLOBALID":"0207daa4-711a-467a-a2f8-8d22307688ea","CREATEDDATE":1520794199000,"LASTUPDATE":1765410161000}},{"type":"Feature","id":4127,"geometry":{"type":"Point","coordinates":[-89.251709785894,48.4631684028225]},"properties":{"OBJECTID":4127,"LOC_ID":"MC0365","FDMID":null,"X_COORD":333547.1685,"Y_COORD":5370229.4371,"BEAT":null,"ROT_ANGLE":null,"NODE_ID":null,"GLOBALID":"650b3a72-c4e4-48f3-ad92-35cf26c7cd05","CREATEDDATE":1520794199000,"LASTUPDATE":1765410161000}},{"type":"Feature","id":4128,"geometry":{"type":"Point","coordinates":[-89.3574927256906,48.3563672815858]},"properties":{"OBJECTID":4128,"LOC_ID":"NC0659","FDMID":null,"X_COORD":325362.3917,"Y_COORD":5358594.8228,"BEAT":null,"ROT_ANGLE":null,"NODE_ID":null,"GLOBALID":"b58c764f-675b-4db0-b4d1-2d0fdddb83fd","CREATEDDATE":1520794199000,"LASTUPDATE":1765410161000}},{"type":"Feature","id":4129,"geometry":{"type":"Point","coordinates":[-89.1850863101103,48.4630327688507]},"properties":{"OBJECTID":4129,"LOC_ID":"PC1363","FDMID":null,"X_COORD":338471.4592,"Y_COORD":5370071.5629,"BEAT":null,"ROT_ANGLE":null,"NODE_ID":null,"GLOBALID":"b36077d5-3b3f-4664-bb7a-9c337427ed4d","CREATEDDATE":1520794199000,"LASTUPDATE":1765410161000}},{"type":"Feature","id":4130,"geometry":{"type":"Point","coordinates":[-89.2335375922854,48.4559305862738]},"properties":{"OBJECTID":4130,"LOC_ID":"PC1364","FDMID":null,"X_COORD":334866.9469,"Y_COORD":5369385.6169,"BEAT":null,"ROT_ANGLE":null,"NODE_ID":null,"GLOBALID":"b11d6ea9-1636-4508-a691-0b877641fbf3","CREATEDDATE":1520794199000,"LASTUPDATE":1765410161000}},{"type":"Feature","id":4131,"geometry":{"type":"Point","coordinates":[-89.2601489775507,48.3717719310001]},"properties":{"OBJECTID":4131,"LOC_ID":"FC1262","FDMID":null,"X_COORD":332623.4697,"Y_COORD":5360089.6872,"BEAT":null,"ROT_ANGLE":null,"NODE_ID":null,"GLOBALID":"705e663d-f582-4ecd-8f91-e1a327534698","CREATEDDATE":1520794199000,"LASTUPDATE":1765410161000}},{"type":"Feature","id":4132,"geometry":{"type":"Point","coordinates":[-89.2350587272867,48.4311531996436]},"properties":{"OBJECTID":4132,"LOC_ID":"PC1365","FDMID":null,"X_COORD":334674.0626,"Y_COORD":5366635.0334,"BEAT":null,"ROT_ANGLE":null,"NODE_ID":null,"GLOBALID":"4f34d855-3734-46d2-abc2-27999e1a411f","CREATEDDATE":1520794199000,"LASTUPDATE":1765410161000}},{"type":"Feature","id":4133,"geometry":{"type":"Point","coordinates":[-89.1824887348571,48.4740805549795]},"properties":{"OBJECTID":4133,"LOC_ID":"PC1366","FDMID":null,"X_COORD":338698.5006,"Y_COORD":5371293.9914,"BEAT":null,"ROT_ANGLE":null,"NODE_ID":null,"GLOBALID":"22f048b3-904b-43b2-b20a-866ca8838cc3","CREATEDDATE":1521733081000,"LASTUPDATE":1765410161000}},{"type":"Feature","id":4134,"geometry":{"type":"Point","coordinates":[-89.2470740380685,48.4268411599686]},"properties":{"OBJECTID":4134,"LOC_ID":"PC1367","FDMID":null,"X_COORD":333771.2797,"Y_COORD":5366181.7961,"BEAT":null,"ROT_ANGLE":null,"NODE_ID":null,"GLOBALID":"342e4e0a-5c0c-4ca6-938b-f57fbb81e6fe","CREATEDDATE":1521740998000,"LASTUPDATE":1765410161000}},{"type":"Feature","id":4135,"geometry":{"type":"Point","coordinates":[-89.2372512339071,48.4046480800623]},"properties":{"OBJECTID":4135,"LOC_ID":"PP0273","FDMID":null,"X_COORD":334425.8072,"Y_COORD":5363693.8876,"BEAT":null,"ROT_ANGLE":null,"NODE_ID":null,"GLOBALID":"17a08dae-9757-467a-9b78-2c9a13b5423a","CREATEDDATE":1521743717000,"LASTUPDATE":1765410161000}},{"type":"Feature","id":4136,"geometry":{"type":"Point","coordinates":[-89.2640410379998,48.4569594673799]},"properties":{"OBJECTID":4136,"LOC_ID":"MP0026","FDMID":null,"X_COORD":332615.24,"Y_COORD":5369566.25,"BEAT":null,"ROT_ANGLE":null,"NODE_ID":null,"GLOBALID":"58ae1ef8-c9e4-40a8-b787-6fe0a482f961","CREATEDDATE":1521744109000,"LASTUPDATE":1765410161000}},{"type":"Feature","id":4137,"geometry":{"type":"Point","coordinates":[-89.2374275045964,48.4202739223051]},"properties":{"OBJECTID":4137,"LOC_ID":"PC1368","FDMID":null,"X_COORD":334463.5136,"Y_COORD":5365430.985,"BEAT":null,"ROT_ANGLE":null,"NODE_ID":null,"GLOBALID":"71b86cdc-e341-4bfa-b011-13059130b3fd","CREATEDDATE":1523039410000,"LASTUPDATE":1765410161000}},{"type":"Feature","id":4138,"geometry":{"type":"Point","coordinates":[-89.2469772459221,48.3910159560861]},"properties":{"OBJECTID":4138,"LOC_ID":"FC1263","FDMID":null,"X_COORD":333661.5925,"Y_COORD":5362199.84,"BEAT":null,"ROT_ANGLE":null,"NODE_ID":null,"GLOBALID":"0b6d0bab-c07d-46fc-8e4d-cacfbac4e727","CREATEDDATE":1523632918000,"LASTUPDATE":1765410161000}},{"type":"Feature","id":4139,"geometry":{"type":"Point","coordinates":[-89.2469775379434,48.3927165682917]},"properties":{"OBJECTID":4139,"LOC_ID":"FC1264","FDMID":null,"X_COORD":333667.1161,"Y_COORD":5362388.8525,"BEAT":null,"ROT_ANGLE":null,"NODE_ID":null,"GLOBALID":"3a2941a7-1d37-4a57-a807-e48ad98cea84","CREATEDDATE":1523633485000,"LASTUPDATE":1765410161000}},{"type":"Feature","id":4140,"geometry":{"type":"Point","coordinates":[-89.2896077107355,48.4523854108798]},"properties":{"OBJECTID":4140,"LOC_ID":"MC0366","FDMID":null,"X_COORD":330709.95,"Y_COORD":5369114.1157,"BEAT":null,"ROT_ANGLE":null,"NODE_ID":null,"GLOBALID":"dbbc20f2-105c-43c0-be6d-164ba9f966b7","CREATEDDATE":1529697178000,"LASTUPDATE":1765410161000}},{"type":"Feature","id":4141,"geometry":{"type":"Point","coordinates":[-89.2283333474109,48.4488034078927]},"properties":{"OBJECTID":4141,"LOC_ID":"PC1369","FDMID":null,"X_COORD":335228.6238,"Y_COORD":5368582.2515,"BEAT":null,"ROT_ANGLE":null,"NODE_ID":null,"GLOBALID":"41310ffa-39f3-4099-bce2-3b238adae888","CREATEDDATE":1529697601000,"LASTUPDATE":1765410161000}},{"type":"Feature","id":4142,"geometry":{"type":"Point","coordinates":[-89.295106808925,48.3579803865922]},"properties":{"OBJECTID":4142,"LOC_ID":"FC1265","FDMID":null,"X_COORD":329988.8871,"Y_COORD":5358633.819,"BEAT":null,"ROT_ANGLE":null,"NODE_ID":null,"GLOBALID":"8461541a-9590-49bf-a244-fbb1bfd742fc","CREATEDDATE":1534251366000,"LASTUPDATE":1765410161000}},{"type":"Feature","id":4143,"geometry":{"type":"Point","coordinates":[-89.233852444565,48.432580255615]},"properties":{"OBJECTID":4143,"LOC_ID":"PC1370","FDMID":null,"X_COORD":334767.9144,"Y_COORD":5366791.0378,"BEAT":"N 6","ROT_ANGLE":null,"NODE_ID":null,"GLOBALID":"38a91aa9-4d5e-457a-9477-bb2e78bc88f3","CREATEDDATE":1537905285000,"LASTUPDATE":1765410161000}},{"type":"Feature","id":4144,"geometry":{"type":"Point","coordinates":[-89.3535230770554,48.3509873459217]},"properties":{"OBJECTID":4144,"LOC_ID":"NP0083","FDMID":null,"X_COORD":325638.0716,"Y_COORD":5357987.8481,"BEAT":null,"ROT_ANGLE":null,"NODE_ID":null,"GLOBALID":"139966eb-eb87-47b2-b2f1-a2a71a0727bd","CREATEDDATE":1538492556000,"LASTUPDATE":1765410161000}},{"type":"Feature","id":4145,"geometry":{"type":"Point","coordinates":[-89.3555798586859,48.3482817213652]},"properties":{"OBJECTID":4145,"LOC_ID":"NP0084","FDMID":null,"X_COORD":325476.4605,"Y_COORD":5357691.8217,"BEAT":null,"ROT_ANGLE":null,"NODE_ID":null,"GLOBALID":"55d9df8d-39eb-4c3f-bc03-9d62d5367ba6","CREATEDDATE":1538494143000,"LASTUPDATE":1765410161000}},{"type":"Feature","id":4146,"geometry":{"type":"Point","coordinates":[-89.3546181079549,48.3478520841388]},"properties":{"OBJECTID":4146,"LOC_ID":"NP0085","FDMID":null,"X_COORD":325546.2445,"Y_COORD":5357641.8815,"BEAT":null,"ROT_ANGLE":null,"NODE_ID":null,"GLOBALID":"c3331ac0-2611-49b9-935e-51a96d0b2337","CREATEDDATE":1538494242000,"LASTUPDATE":1765410161000}},{"type":"Feature","id":4147,"geometry":{"type":"Point","coordinates":[-89.3542564554189,48.3476571396111]},"properties":{"OBJECTID":4147,"LOC_ID":"NP0086","FDMID":null,"X_COORD":325572.3721,"Y_COORD":5357619.3919,"BEAT":null,"ROT_ANGLE":null,"NODE_ID":null,"GLOBALID":"70cec48c-ec93-4908-9066-0a12cc95d70f","CREATEDDATE":1538494320000,"LASTUPDATE":1765410161000}},{"type":"Feature","id":4148,"geometry":{"type":"Point","coordinates":[-89.3550688844651,48.3470751080833]},"properties":{"OBJECTID":4148,"LOC_ID":"NP0087","FDMID":null,"X_COORD":325510.1949,"Y_COORD":5357556.5532,"BEAT":null,"ROT_ANGLE":null,"NODE_ID":null,"GLOBALID":"c739003f-54ca-4c90-a89c-1d6126baf3f9","CREATEDDATE":1538494425000,"LASTUPDATE":1765410161000}},{"type":"Feature","id":4149,"geometry":{"type":"Point","coordinates":[-89.3574499383762,48.3452735935732]},"properties":{"OBJECTID":4149,"LOC_ID":"NP0088","FDMID":null,"X_COORD":325327.632,"Y_COORD":5357361.7534,"BEAT":null,"ROT_ANGLE":null,"NODE_ID":null,"GLOBALID":"9e7d3942-7e3d-4d05-a3a2-e08fdfb4cf48","CREATEDDATE":1538494506000,"LASTUPDATE":1765410161000}},{"type":"Feature","id":4150,"geometry":{"type":"Point","coordinates":[-89.2962041203085,48.3650058468578]},"properties":{"OBJECTID":4150,"LOC_ID":"FC1266","FDMID":null,"X_COORD":329931.0073,"Y_COORD":5359417.0811,"BEAT":null,"ROT_ANGLE":null,"NODE_ID":null,"GLOBALID":"7edce17f-cf9f-4fcc-b85d-95b56fc1dc57","CREATEDDATE":1538505157000,"LASTUPDATE":1765410161000}},{"type":"Feature","id":4151,"geometry":{"type":"Point","coordinates":[-89.2686492391733,48.3933922424369]},"properties":{"OBJECTID":4151,"LOC_ID":"FC1267","FDMID":null,"X_COORD":332065.1828,"Y_COORD":5362511.2396,"BEAT":null,"ROT_ANGLE":null,"NODE_ID":null,"GLOBALID":"a1fa7124-973d-4430-89ba-b779f82721d0","CREATEDDATE":1538506110000,"LASTUPDATE":1765410161000}},{"type":"Feature","id":4152,"geometry":{"type":"Point","coordinates":[-89.267708591526,48.4636559858916]},"properties":{"OBJECTID":4152,"LOC_ID":"MC0367","FDMID":null,"X_COORD":332366.1678,"Y_COORD":5370318.5598,"BEAT":null,"ROT_ANGLE":null,"NODE_ID":null,"GLOBALID":"41279d58-361a-4335-bf2e-3969d314bdaa","CREATEDDATE":1540558585000,"LASTUPDATE":1765410161000}},{"type":"Feature","id":4153,"geometry":{"type":"Point","coordinates":[-89.2683026294154,48.4643070789745]},"properties":{"OBJECTID":4153,"LOC_ID":"MC0368","FDMID":null,"X_COORD":332324.4035,"Y_COORD":5370392.2269,"BEAT":null,"ROT_ANGLE":null,"NODE_ID":null,"GLOBALID":"71ad7cf7-a9ac-4584-93a7-ce1e163d4e32","CREATEDDATE":1540559487000,"LASTUPDATE":1765410161000}},{"type":"Feature","id":4154,"geometry":{"type":"Point","coordinates":[-89.2671473530343,48.4643280947366]},"properties":{"OBJECTID":4154,"LOC_ID":"MC0369","FDMID":null,"X_COORD":332409.867,"Y_COORD":5370392.0314,"BEAT":null,"ROT_ANGLE":null,"NODE_ID":null,"GLOBALID":"7ccc2f30-aa59-4972-a977-fe09612f9f64","CREATEDDATE":1540560006000,"LASTUPDATE":1765410161000}},{"type":"Feature","id":4155,"geometry":{"type":"Point","coordinates":[-89.2264406506259,48.4313827094643]},"properties":{"OBJECTID":4155,"LOC_ID":"PC1371","FDMID":null,"X_COORD":335312.2421,"Y_COORD":5366641.9649,"BEAT":null,"ROT_ANGLE":null,"NODE_ID":null,"GLOBALID":"c95afc9d-ffcb-4030-8c42-ccb780246299","CREATEDDATE":1541183817000,"LASTUPDATE":1765410161000}},{"type":"Feature","id":4156,"geometry":{"type":"Point","coordinates":[-89.2497389223282,48.3881621156743]},"properties":{"OBJECTID":4156,"LOC_ID":"FC1268","FDMID":null,"X_COORD":333447.8472,"Y_COORD":5361888.6557,"BEAT":null,"ROT_ANGLE":null,"NODE_ID":null,"GLOBALID":"f390e851-7706-4e8b-9326-c6f2e515b7fb","CREATEDDATE":1541434005000,"LASTUPDATE":1765410161000}},{"type":"Feature","id":4157,"geometry":{"type":"Point","coordinates":[-89.2772437658777,48.3751075414337]},"properties":{"OBJECTID":4157,"LOC_ID":"FC1269","FDMID":null,"X_COORD":331368.6,"Y_COORD":5360497.9027,"BEAT":null,"ROT_ANGLE":null,"NODE_ID":null,"GLOBALID":"ad75f07d-4f4a-465b-ab8d-05b1e2097543","CREATEDDATE":1541434893000,"LASTUPDATE":1765410161000}},{"type":"Feature","id":4158,"geometry":{"type":"Point","coordinates":[-89.2798943972415,48.3752918846919]},"properties":{"OBJECTID":4158,"LOC_ID":"FC1270","FDMID":null,"X_COORD":331172.9403,"Y_COORD":5360524.2288,"BEAT":null,"ROT_ANGLE":null,"NODE_ID":null,"GLOBALID":"361169c9-20ee-4e25-832f-744b6c2a239d","CREATEDDATE":1541445897000,"LASTUPDATE":1765410161000}},{"type":"Feature","id":4159,"geometry":{"type":"Point","coordinates":[-89.2499025580391,48.3899844026392]},"properties":{"OBJECTID":4159,"LOC_ID":"FC1271","FDMID":null,"X_COORD":333441.6831,"Y_COORD":5362091.5466,"BEAT":null,"ROT_ANGLE":null,"NODE_ID":null,"GLOBALID":"05abfd82-c6d6-490b-aa55-2e12d46bd594","CREATEDDATE":1541446325000,"LASTUPDATE":1765410161000}},{"type":"Feature","id":4160,"geometry":{"type":"Point","coordinates":[-89.3515644145367,48.3839551474586]},"properties":{"OBJECTID":4160,"LOC_ID":"NC0662","FDMID":null,"X_COORD":325895.6349,"Y_COORD":5361647.5036,"BEAT":null,"ROT_ANGLE":null,"NODE_ID":null,"GLOBALID":"a0dacd37-70ec-48f9-8cd9-48c648bc8a9d","CREATEDDATE":1544029750000,"LASTUPDATE":1765410161000}},{"type":"Feature","id":4161,"geometry":{"type":"Point","coordinates":[-89.3507940648706,48.3846115618862]},"properties":{"OBJECTID":4161,"LOC_ID":"NC0663","FDMID":null,"X_COORD":325954.9053,"Y_COORD":5361718.7084,"BEAT":null,"ROT_ANGLE":null,"NODE_ID":null,"GLOBALID":"742b2f47-7e51-46e9-862d-cac0b2fd2d3e","CREATEDDATE":1544034862000,"LASTUPDATE":1765410161000}},{"type":"Feature","id":4162,"geometry":{"type":"Point","coordinates":[-89.3515734244725,48.3853041185829]},"properties":{"OBJECTID":4162,"LOC_ID":"NC0664","FDMID":null,"X_COORD":325899.5709,"Y_COORD":5361797.4519,"BEAT":null,"ROT_ANGLE":null,"NODE_ID":null,"GLOBALID":"43f92e9e-0e97-41a7-bb69-fe1c57db4389","CREATEDDATE":1544035409000,"LASTUPDATE":1765410161000}},{"type":"Feature","id":4163,"geometry":{"type":"Point","coordinates":[-89.3515819780362,48.3865834556774]},"properties":{"OBJECTID":4163,"LOC_ID":"NC0665","FDMID":null,"X_COORD":325903.3032,"Y_COORD":5361939.6599,"BEAT":null,"ROT_ANGLE":null,"NODE_ID":null,"GLOBALID":"f8d47e5d-d669-4f8d-ae13-02e5b7f35dcf","CREATEDDATE":1544035901000,"LASTUPDATE":1765410161000}},{"type":"Feature","id":4164,"geometry":{"type":"Point","coordinates":[-89.3515917533423,48.3879324268322]},"properties":{"OBJECTID":4164,"LOC_ID":"NC0666","FDMID":null,"X_COORD":325907.1828,"Y_COORD":5362089.61,"BEAT":null,"ROT_ANGLE":null,"NODE_ID":null,"GLOBALID":"b3785332-2f6a-499c-a689-ee904425d5ff","CREATEDDATE":1544036377000,"LASTUPDATE":1765410161000}},{"type":"Feature","id":4165,"geometry":{"type":"Point","coordinates":[-89.3508196595467,48.3883018807303]},"properties":{"OBJECTID":4165,"LOC_ID":"NC0667","FDMID":null,"X_COORD":325965.5991,"Y_COORD":5362128.9174,"BEAT":null,"ROT_ANGLE":null,"NODE_ID":null,"GLOBALID":"8938f7ca-3ddc-4b50-88ca-5ce868af6a25","CREATEDDATE":1544036679000,"LASTUPDATE":1765410161000}},{"type":"Feature","id":4166,"geometry":{"type":"Point","coordinates":[-89.3515996694925,48.3890943640632]},"properties":{"OBJECTID":4166,"LOC_ID":"NC0668","FDMID":null,"X_COORD":325910.5619,"Y_COORD":5362218.7685,"BEAT":null,"ROT_ANGLE":null,"NODE_ID":null,"GLOBALID":"292e69e8-ea1b-4aa8-8fb1-548f66e6b9d0","CREATEDDATE":1544037468000,"LASTUPDATE":1765410161000}},{"type":"Feature","id":4167,"geometry":{"type":"Point","coordinates":[-89.3507214131646,48.389280805066]},"properties":{"OBJECTID":4167,"LOC_ID":"NC0669","FDMID":null,"X_COORD":325976.2113,"Y_COORD":5362237.4942,"BEAT":null,"ROT_ANGLE":null,"NODE_ID":null,"GLOBALID":"8e199acb-b856-4f0b-88b8-b4d8a293411f","CREATEDDATE":1544037826000,"LASTUPDATE":1765410161000}},{"type":"Feature","id":4168,"geometry":{"type":"Point","coordinates":[-89.3506681251997,48.3825439236671]},"properties":{"OBJECTID":4168,"LOC_ID":"NC0660","FDMID":null,"X_COORD":325957.1764,"Y_COORD":5361488.6201,"BEAT":null,"ROT_ANGLE":null,"NODE_ID":null,"GLOBALID":"32f31f37-2145-4109-9f01-094ee9a7e6ce","CREATEDDATE":1544104465000,"LASTUPDATE":1765410161000}},{"type":"Feature","id":4169,"geometry":{"type":"Point","coordinates":[-89.3515562753707,48.3827344937179]},"properties":{"OBJECTID":4169,"LOC_ID":"NC0661","FDMID":null,"X_COORD":325892.0724,"Y_COORD":5361511.8188,"BEAT":null,"ROT_ANGLE":null,"NODE_ID":null,"GLOBALID":"7c285406-804b-4214-acc2-702456aa80b4","CREATEDDATE":1544547251000,"LASTUPDATE":1765410161000}},{"type":"Feature","id":4170,"geometry":{"type":"Point","coordinates":[-89.2894003612167,48.4535483100004]},"properties":{"OBJECTID":4170,"LOC_ID":"MC0370","FDMID":null,"X_COORD":330729.1474,"Y_COORD":5369242.9063,"BEAT":null,"ROT_ANGLE":null,"NODE_ID":null,"GLOBALID":"057fde2b-929a-4014-a139-0dec8a9c90b1","CREATEDDATE":1549986693000,"LASTUPDATE":1765410161000}},{"type":"Feature","id":4171,"geometry":{"type":"Point","coordinates":[-89.2682303578983,48.4439587522029]},"properties":{"OBJECTID":4171,"LOC_ID":"MC0371","FDMID":null,"X_COORD":332262.7021,"Y_COORD":5368130.4689,"BEAT":null,"ROT_ANGLE":null,"NODE_ID":null,"GLOBALID":"5ea75570-6026-4050-9612-87c305e6bb93","CREATEDDATE":1556809187000,"LASTUPDATE":1765410161000}},{"type":"Feature","id":4172,"geometry":{"type":"Point","coordinates":[-89.2536930296997,48.4457545696494]},"properties":{"OBJECTID":4172,"LOC_ID":"PC1372","FDMID":null,"X_COORD":333343.5629,"Y_COORD":5368298.3038,"BEAT":null,"ROT_ANGLE":null,"NODE_ID":null,"GLOBALID":"20571af9-f15a-44c5-95ae-1f4cfa29ace9","CREATEDDATE":1568663804000,"LASTUPDATE":1765410161000}},{"type":"Feature","id":4173,"geometry":{"type":"Point","coordinates":[-89.2355940211066,48.4626188092338]},"properties":{"OBJECTID":4173,"LOC_ID":"MC0372","FDMID":null,"X_COORD":334736.6376,"Y_COORD":5370133.417,"BEAT":null,"ROT_ANGLE":null,"NODE_ID":null,"GLOBALID":"bbbc6b25-59fd-4318-ad18-cdeb400796d8","CREATEDDATE":1570108318000,"LASTUPDATE":1765410161000}},{"type":"Feature","id":4174,"geometry":{"type":"Point","coordinates":[-89.2221225066264,48.4463807117587]},"properties":{"OBJECTID":4174,"LOC_ID":"PC1373","FDMID":null,"X_COORD":335680.0315,"Y_COORD":5368299.628,"BEAT":null,"ROT_ANGLE":360,"NODE_ID":null,"GLOBALID":"ac2e1485-1db6-4424-986a-5721183b424a","CREATEDDATE":1571766159000,"LASTUPDATE":1765410161000}},{"type":"Feature","id":4175,"geometry":{"type":"Point","coordinates":[-89.2739300070798,48.3840375255031]},"properties":{"OBJECTID":4175,"LOC_ID":"FC1282","FDMID":null,"X_COORD":331643.4337,"Y_COORD":5361483.1192,"BEAT":null,"ROT_ANGLE":null,"NODE_ID":null,"GLOBALID":"c372457e-9e9f-4ee4-97de-4baaae751edb","CREATEDDATE":1573147213000,"LASTUPDATE":1765410161000}},{"type":"Feature","id":4176,"geometry":{"type":"Point","coordinates":[-89.2590360730427,48.3987566515095]},"properties":{"OBJECTID":4176,"LOC_ID":"PP0274","FDMID":null,"X_COORD":332794.3347,"Y_COORD":5363086.425,"BEAT":null,"ROT_ANGLE":null,"NODE_ID":null,"GLOBALID":"4a9883b6-2089-468a-9e2a-0e0a53280f95","CREATEDDATE":1575298182000,"LASTUPDATE":1765410161000}},{"type":"Feature","id":4177,"geometry":{"type":"Point","coordinates":[-89.2527692474085,48.4330002260902]},"properties":{"OBJECTID":4177,"LOC_ID":"PC1374","FDMID":null,"X_COORD":333370.1443,"Y_COORD":5366878.7218,"BEAT":null,"ROT_ANGLE":null,"NODE_ID":null,"GLOBALID":"5180ea27-7b6f-4dc7-a086-6693493b6f76","CREATEDDATE":1575919934000,"LASTUPDATE":1765410161000}},{"type":"Feature","id":4178,"geometry":{"type":"Point","coordinates":[-89.2487928664351,48.4360061540529]},"properties":{"OBJECTID":4178,"LOC_ID":"PC1376","FDMID":null,"X_COORD":333674.0628,"Y_COORD":5367204.1645,"BEAT":null,"ROT_ANGLE":null,"NODE_ID":null,"GLOBALID":"49cfe4ad-520e-4375-b1c3-8c4f85aa19f2","CREATEDDATE":1575988028000,"LASTUPDATE":1765410161000}},{"type":"Feature","id":4179,"geometry":{"type":"Point","coordinates":[-89.2506097038854,48.4223956638481]},"properties":{"OBJECTID":4179,"LOC_ID":"PP0275","FDMID":null,"X_COORD":333495.2154,"Y_COORD":5365695.3897,"BEAT":null,"ROT_ANGLE":null,"NODE_ID":null,"GLOBALID":"1a50395f-007b-4277-94da-9174feb3591b","CREATEDDATE":1578933313000,"LASTUPDATE":1765410161000}},{"type":"Feature","id":4180,"geometry":{"type":"Point","coordinates":[-89.2772271300066,48.3727768016613]},"properties":{"OBJECTID":4180,"LOC_ID":"FC1272","FDMID":null,"X_COORD":331362.0386,"Y_COORD":5360254.3224,"BEAT":"S 7","ROT_ANGLE":360,"NODE_ID":null,"GLOBALID":"470dcab7-06e1-422c-9fdf-f1dc4f0987ca","CREATEDDATE":1591992598000,"LASTUPDATE":1773683264000}},{"type":"Feature","id":4181,"geometry":{"type":"Point","coordinates":[-89.2749074600001,48.3693557857626]},"properties":{"OBJECTID":4181,"LOC_ID":"FC0480","FDMID":null,"X_COORD":331522.6125,"Y_COORD":5359853.4964,"BEAT":null,"ROT_ANGLE":null,"NODE_ID":null,"GLOBALID":"1411a80d-05b7-4804-9d88-f765f50cf0e8","CREATEDDATE":1595525460000,"LASTUPDATE":1765410161000}},{"type":"Feature","id":4182,"geometry":{"type":"Point","coordinates":[-89.2758678201635,48.3749597115358]},"properties":{"OBJECTID":4182,"LOC_ID":"FC1273","FDMID":null,"X_COORD":331469.9956,"Y_COORD":5360478.4448,"BEAT":null,"ROT_ANGLE":null,"NODE_ID":null,"GLOBALID":"4d272f07-3b55-40bf-bd60-0a2b13cb7cf2","CREATEDDATE":1596128677000,"LASTUPDATE":1765410161000}},{"type":"Feature","id":4183,"geometry":{"type":"Point","coordinates":[-89.3539239645758,48.3541901978344]},"properties":{"OBJECTID":4183,"LOC_ID":"NC0673","FDMID":null,"X_COORD":325619.3079,"Y_COORD":5358344.731,"BEAT":null,"ROT_ANGLE":null,"NODE_ID":null,"GLOBALID":"1f00b2f4-8c75-4f3b-8ba6-5acef7bfe4e6","CREATEDDATE":1602595686000,"LASTUPDATE":1765410161000}},{"type":"Feature","id":4184,"geometry":{"type":"Point","coordinates":[-89.354219420669,48.3555400175947]},"properties":{"OBJECTID":4184,"LOC_ID":"NC0674","FDMID":null,"X_COORD":325602.0306,"Y_COORD":5358495.4248,"BEAT":null,"ROT_ANGLE":null,"NODE_ID":null,"GLOBALID":"cc3459ea-9465-4b8d-ae64-ba6bd6244dd9","CREATEDDATE":1602596844000,"LASTUPDATE":1765410161000}},{"type":"Feature","id":4185,"geometry":{"type":"Point","coordinates":[-89.3554311085051,48.3563400772151]},"properties":{"OBJECTID":4185,"LOC_ID":"NC0675","FDMID":null,"X_COORD":325515.009,"Y_COORD":5358587.1031,"BEAT":null,"ROT_ANGLE":null,"NODE_ID":null,"GLOBALID":"b077b3ae-5737-4d6a-8d8c-554830ed42ab","CREATEDDATE":1602597163000,"LASTUPDATE":1765410161000}},{"type":"Feature","id":4186,"geometry":{"type":"Point","coordinates":[-89.2332581849048,48.4259930451426]},"properties":{"OBJECTID":4186,"LOC_ID":"PC1377","FDMID":null,"X_COORD":334790.5074,"Y_COORD":5366057.6252,"BEAT":"N3","ROT_ANGLE":null,"NODE_ID":null,"GLOBALID":"9d6d7112-47ae-42dc-a719-80dadd9c1bc2","CREATEDDATE":1610552301000,"LASTUPDATE":1765410161000}},{"type":"Feature","id":4187,"geometry":{"type":"Point","coordinates":[-89.2691580070514,48.3650059263263]},"properties":{"OBJECTID":4187,"LOC_ID":"FC1274","FDMID":null,"X_COORD":331934.0682,"Y_COORD":5359357.4144,"BEAT":null,"ROT_ANGLE":null,"NODE_ID":null,"GLOBALID":"8a31083a-dd22-4544-8275-44aec5254e98","CREATEDDATE":1619128707000,"LASTUPDATE":1765410161000}},{"type":"Feature","id":4188,"geometry":{"type":"Point","coordinates":[-89.2712086934623,48.3650049616667]},"properties":{"OBJECTID":4188,"LOC_ID":"FC1275","FDMID":null,"X_COORD":331782.1891,"Y_COORD":5359361.8071,"BEAT":null,"ROT_ANGLE":null,"NODE_ID":null,"GLOBALID":"8a35b78b-fc00-4360-a88a-ccb5bacac8bc","CREATEDDATE":1619129644000,"LASTUPDATE":1765410161000}},{"type":"Feature","id":4189,"geometry":{"type":"Point","coordinates":[-89.275863858341,48.3734502258108]},"properties":{"OBJECTID":4189,"LOC_ID":"FC1276","FDMID":null,"X_COORD":331464.2823,"Y_COORD":5360310.6992,"BEAT":"S 7","ROT_ANGLE":360,"NODE_ID":null,"GLOBALID":"84f71e9e-24e1-45a6-a8d7-cd415c7f15dd","CREATEDDATE":1619737901000,"LASTUPDATE":1773683555000}},{"type":"Feature","id":4190,"geometry":{"type":"Point","coordinates":[-89.255190898205,48.381468549194]},"properties":{"OBJECTID":4190,"LOC_ID":"FC1277","FDMID":null,"X_COORD":333022.3478,"Y_COORD":5361156.58,"BEAT":null,"ROT_ANGLE":null,"NODE_ID":null,"GLOBALID":"4849de7b-2888-4483-859d-423ccda778a4","CREATEDDATE":1619738418000,"LASTUPDATE":1765410161000}},{"type":"Feature","id":4191,"geometry":{"type":"Point","coordinates":[-89.2500182312672,48.4339890497032]},"properties":{"OBJECTID":4191,"LOC_ID":"PC1375","FDMID":null,"X_COORD":333576.8467,"Y_COORD":5366982.6387,"BEAT":"N 5","ROT_ANGLE":0,"NODE_ID":null,"GLOBALID":"25567dc1-02de-4e59-9f1a-26750399ab56","CREATEDDATE":1625784298000,"LASTUPDATE":1765410161000}},{"type":"Feature","id":4192,"geometry":{"type":"Point","coordinates":[-89.2675739992443,48.3367922638284]},"properties":{"OBJECTID":4192,"LOC_ID":"FC1278","FDMID":null,"X_COORD":331983.7254,"Y_COORD":5356255.8156,"BEAT":null,"ROT_ANGLE":360,"NODE_ID":null,"GLOBALID":"5fe37c53-bc30-4b86-af66-d0682f42345f","CREATEDDATE":1622589870000,"LASTUPDATE":1773962495000}},{"type":"Feature","id":4193,"geometry":{"type":"Point","coordinates":[-89.2976054905453,48.3617228002206]},"properties":{"OBJECTID":4193,"LOC_ID":"FC1279","FDMID":null,"X_COORD":329816.279,"Y_COORD":5359055.3064,"BEAT":null,"ROT_ANGLE":null,"NODE_ID":null,"GLOBALID":"c861ad77-b808-4117-af91-4cd306479392","CREATEDDATE":1632158846000,"LASTUPDATE":1765410161000}},{"type":"Feature","id":4194,"geometry":{"type":"Point","coordinates":[-89.3068401765112,48.3269483653243]},"properties":{"OBJECTID":4194,"LOC_ID":"NC0681","FDMID":null,"X_COORD":329015.98,"Y_COORD":5355210.953,"BEAT":null,"ROT_ANGLE":null,"NODE_ID":null,"GLOBALID":"9779bf5a-a820-470e-9924-d2a12cc626f6","CREATEDDATE":1634591501000,"LASTUPDATE":1765410161000}},{"type":"Feature","id":4195,"geometry":{"type":"Point","coordinates":[-89.1935708377363,48.4608958070531]},"properties":{"OBJECTID":4195,"LOC_ID":"PC1378","FDMID":null,"X_COORD":337837.481,"Y_COORD":5369851.9972,"BEAT":null,"ROT_ANGLE":360,"NODE_ID":null,"GLOBALID":"3d2e80e9-3bf5-4496-8426-4618c45f4944","CREATEDDATE":1637105006000,"LASTUPDATE":1765410161000}},{"type":"Feature","id":4196,"geometry":{"type":"Point","coordinates":[-89.2732386732525,48.4336514158298]},"properties":{"OBJECTID":4196,"LOC_ID":"PC1379","FDMID":null,"X_COORD":331857.2282,"Y_COORD":5366996.0398,"BEAT":"N4","ROT_ANGLE":360,"NODE_ID":null,"GLOBALID":"023c862b-70ae-4ce0-8f90-daa7484c0a09","CREATEDDATE":1649198992000,"LASTUPDATE":1767658964000}},{"type":"Feature","id":4197,"geometry":{"type":"Point","coordinates":[-89.2808417128016,48.3853475769795]},"properties":{"OBJECTID":4197,"LOC_ID":"FC1280","FDMID":null,"X_COORD":331136.0727,"Y_COORD":5361643.9359,"BEAT":null,"ROT_ANGLE":null,"NODE_ID":null,"GLOBALID":"7dfff00a-7ad8-4b07-b591-d5d9072f31bd","CREATEDDATE":1652203287000,"LASTUPDATE":1765410161000}},{"type":"Feature","id":4198,"geometry":{"type":"Point","coordinates":[-89.2331851431851,48.4449190355561]},"properties":{"OBJECTID":4198,"LOC_ID":"PC1380","FDMID":null,"X_COORD":334857.2855,"Y_COORD":5368160.9829,"BEAT":null,"ROT_ANGLE":293,"NODE_ID":null,"GLOBALID":"4fe62c95-d058-4b93-ae9f-844bb775008c","CREATEDDATE":1660157761000,"LASTUPDATE":1765410161000}},{"type":"Feature","id":4199,"geometry":{"type":"Point","coordinates":[-89.231420190179,48.4444442684599]},"properties":{"OBJECTID":4199,"LOC_ID":"PC1381","FDMID":null,"X_COORD":334986.2566,"Y_COORD":5368104.4082,"BEAT":null,"ROT_ANGLE":293,"NODE_ID":null,"GLOBALID":"90b55043-50f1-4226-955e-24ce2103982f","CREATEDDATE":1660176619000,"LASTUPDATE":1765410161000}},{"type":"Feature","id":4200,"geometry":{"type":"Point","coordinates":[-89.2840374731418,48.3778959562984]},"properties":{"OBJECTID":4200,"LOC_ID":"FC1281","FDMID":null,"X_COORD":330874.7913,"Y_COORD":5360822.7909,"BEAT":"S 5","ROT_ANGLE":null,"NODE_ID":null,"GLOBALID":"787b4887-a426-4f5c-9efd-3a42368b974a","CREATEDDATE":1671654819000,"LASTUPDATE":1765410161000}},{"type":"Feature","id":4201,"geometry":{"type":"Point","coordinates":[-89.239909983589,48.4065728574371]},"properties":{"OBJECTID":4201,"LOC_ID":"PC1382","FDMID":null,"X_COORD":334235.3078,"Y_COORD":5363913.5665,"BEAT":"N 2","ROT_ANGLE":null,"NODE_ID":null,"GLOBALID":"c6127c73-9a21-476b-af1f-96390d57b805","CREATEDDATE":1672858345000,"LASTUPDATE":1765410161000}},{"type":"Feature","id":4202,"geometry":{"type":"Point","coordinates":[-89.2989693331338,48.37500614985]},"properties":{"OBJECTID":4202,"LOC_ID":"FC1283","FDMID":null,"X_COORD":329759.5652,"Y_COORD":5360534.6819,"BEAT":null,"ROT_ANGLE":null,"NODE_ID":null,"GLOBALID":"eaec0889-a1b4-482d-a73c-2c9c6b85b184","CREATEDDATE":1677631904000,"LASTUPDATE":1765410161000}},{"type":"Feature","id":4203,"geometry":{"type":"Point","coordinates":[-89.3114513379416,48.3891873169158]},"properties":{"OBJECTID":4203,"LOC_ID":"NC0683","FDMID":null,"X_COORD":328882.8806,"Y_COORD":5362138.6265,"BEAT":null,"ROT_ANGLE":null,"NODE_ID":null,"GLOBALID":"8efccb88-895f-4875-83c7-3372ee4f84b1","CREATEDDATE":1677782471000,"LASTUPDATE":1765410161000}},{"type":"Feature","id":4204,"geometry":{"type":"Point","coordinates":[-89.3130112416333,48.3891878776527]},"properties":{"OBJECTID":4204,"LOC_ID":"NC0682","FDMID":null,"X_COORD":328767.4096,"Y_COORD":5362142.1749,"BEAT":null,"ROT_ANGLE":null,"NODE_ID":null,"GLOBALID":"e8bcbd6e-2ad3-41d5-9925-20f0b0901f7a","CREATEDDATE":1677782531000,"LASTUPDATE":1765410161000}},{"type":"Feature","id":4205,"geometry":{"type":"Point","coordinates":[-89.2384248091317,48.4287430636877]},"properties":{"OBJECTID":4205,"LOC_ID":"PC1384","FDMID":null,"X_COORD":334417.2564,"Y_COORD":5366374.4364,"BEAT":"N 3","ROT_ANGLE":null,"NODE_ID":null,"GLOBALID":"00c3c2e1-bdcc-4f4a-a0ef-75b4f6895946","CREATEDDATE":1678321471000,"LASTUPDATE":1765410161000}},{"type":"Feature","id":4206,"geometry":{"type":"Point","coordinates":[-89.2219462483048,48.4295631023271]},"properties":{"OBJECTID":4206,"LOC_ID":"PC1385","FDMID":null,"X_COORD":335638.7994,"Y_COORD":5366430.0663,"BEAT":null,"ROT_ANGLE":null,"NODE_ID":null,"GLOBALID":"76b3fd56-49a5-4491-9129-bfdb9f08f0e9","CREATEDDATE":1678731563000,"LASTUPDATE":1765410161000}},{"type":"Feature","id":4207,"geometry":{"type":"Point","coordinates":[-89.2106679718131,48.4605284711964]},"properties":{"OBJECTID":4207,"LOC_ID":"PC1386","FDMID":null,"X_COORD":336572.4451,"Y_COORD":5369847.5465,"BEAT":null,"ROT_ANGLE":null,"NODE_ID":null,"GLOBALID":"450e97c2-a172-4340-b41d-df511467e35b","CREATEDDATE":1680131254000,"LASTUPDATE":1765410161000}},{"type":"Feature","id":4208,"geometry":{"type":"Point","coordinates":[-89.2136017512127,48.4606785645757]},"properties":{"OBJECTID":4208,"LOC_ID":"PC1387","FDMID":null,"X_COORD":336356.0552,"Y_COORD":5369870.4991,"BEAT":null,"ROT_ANGLE":null,"NODE_ID":null,"GLOBALID":"d3373197-b667-45db-8456-99d0e424b4e3","CREATEDDATE":1680131536000,"LASTUPDATE":1765410161000}},{"type":"Feature","id":4209,"geometry":{"type":"Point","coordinates":[-89.1935694109674,48.4608237644679]},"properties":{"OBJECTID":4209,"LOC_ID":"PC1388","FDMID":null,"X_COORD":337837.3569,"Y_COORD":5369843.987,"BEAT":null,"ROT_ANGLE":0,"NODE_ID":null,"GLOBALID":"7abd676e-1737-4308-b7b8-f1ec23e1f953","CREATEDDATE":1680203510000,"LASTUPDATE":1765410161000}},{"type":"Feature","id":4210,"geometry":{"type":"Point","coordinates":[-89.224552657891,48.4367155818179]},"properties":{"OBJECTID":4210,"LOC_ID":"PC1389","FDMID":null,"X_COORD":335469.1139,"Y_COORD":5367230.6232,"BEAT":"N 6","ROT_ANGLE":null,"NODE_ID":null,"GLOBALID":"d7478f5c-7e63-48ad-975d-4278e8cd29cd","CREATEDDATE":1683229760000,"LASTUPDATE":1765410161000}},{"type":"Feature","id":4211,"geometry":{"type":"Point","coordinates":[-89.1846979339078,48.4559451764846]},"properties":{"OBJECTID":4211,"LOC_ID":"PC1390","FDMID":null,"X_COORD":338477,"Y_COORD":5369283,"BEAT":null,"ROT_ANGLE":null,"NODE_ID":null,"GLOBALID":"872608a6-41f6-4ef7-8b48-add01557f6c3","CREATEDDATE":1687561985000,"LASTUPDATE":1711406344000}},{"type":"Feature","id":4212,"geometry":{"type":"Point","coordinates":[-89.1905512113297,48.4642945503455]},"properties":{"OBJECTID":4212,"LOC_ID":"PC1391","FDMID":null,"X_COORD":338071,"Y_COORD":5370223,"BEAT":null,"ROT_ANGLE":null,"NODE_ID":null,"GLOBALID":"84fe3fb5-bfac-4bbc-b30d-5d681ed69c28","CREATEDDATE":1690237590000,"LASTUPDATE":1710439092000}},{"type":"Feature","id":4213,"geometry":{"type":"Point","coordinates":[-89.2100380846048,48.4530654895904]},"properties":{"OBJECTID":4213,"LOC_ID":"PC1392","FDMID":null,"X_COORD":336595.0494,"Y_COORD":5369016.7295,"BEAT":null,"ROT_ANGLE":null,"NODE_ID":null,"GLOBALID":"214cc2b1-091e-4705-b298-5d701cbe3382","CREATEDDATE":1692825492000,"LASTUPDATE":1765410161000}},{"type":"Feature","id":4214,"geometry":{"type":"Point","coordinates":[-89.3608883241145,48.355668535533]},"properties":{"OBJECTID":4214,"LOC_ID":"NC0684","FDMID":null,"X_COORD":325108.4768,"Y_COORD":5358524.9067,"BEAT":null,"ROT_ANGLE":0,"NODE_ID":null,"GLOBALID":"1f3cd6bf-c67a-4397-9a4e-135c3db78ad4","CREATEDDATE":1697047741000,"LASTUPDATE":1765410161000}},{"type":"Feature","id":4215,"geometry":{"type":"Point","coordinates":[-89.3468448473298,48.327674351862]},"properties":{"OBJECTID":4215,"LOC_ID":"NC0686","FDMID":null,"X_COORD":535580.1,"Y_COORD":326051.82,"BEAT":"S 16","ROT_ANGLE":null,"NODE_ID":null,"GLOBALID":"fd018be4-4d8d-4221-875a-e0260926bdc8","CREATEDDATE":1699054542000,"LASTUPDATE":1699554944000}},{"type":"Feature","id":4216,"geometry":{"type":"Point","coordinates":[-89.3504807423776,48.3286588925112]},"properties":{"OBJECTID":4216,"LOC_ID":"NC0685","FDMID":null,"X_COORD":5355495.86,"Y_COORD":325788.75,"BEAT":"S 16","ROT_ANGLE":null,"NODE_ID":null,"GLOBALID":"8b51943a-57e8-44dd-896a-012e5fd9ed4b","CREATEDDATE":1699054759000,"LASTUPDATE":1699555054000}},{"type":"Feature","id":4217,"geometry":{"type":"Point","coordinates":[-89.2531442263334,48.4377227819233]},"properties":{"OBJECTID":4217,"LOC_ID":"PC1393","FDMID":null,"X_COORD":333357.8617,"Y_COORD":5367404.4223,"BEAT":"N  4","ROT_ANGLE":338.1,"NODE_ID":null,"GLOBALID":"c584e62d-d70d-4640-a006-e38bd813fa77","CREATEDDATE":1699642490000,"LASTUPDATE":1765410161000}},{"type":"Feature","id":4218,"geometry":{"type":"Point","coordinates":[-89.3049088405798,48.3939107763433]},"properties":{"OBJECTID":4218,"LOC_ID":"NC0690","FDMID":null,"X_COORD":329382.9926,"Y_COORD":5362649.0099,"BEAT":null,"ROT_ANGLE":47.2,"NODE_ID":null,"GLOBALID":"f006385c-64fc-412b-8223-1315648477df","CREATEDDATE":1701199718000,"LASTUPDATE":1765410161000}},{"type":"Feature","id":4219,"geometry":{"type":"Point","coordinates":[-89.3050380551862,48.39287351052]},"properties":{"OBJECTID":4219,"LOC_ID":"NC0689","FDMID":null,"X_COORD":329369.9585,"Y_COORD":5362534.013,"BEAT":null,"ROT_ANGLE":null,"NODE_ID":null,"GLOBALID":"44c6de83-afaf-4dd6-a951-9add43852ab4","CREATEDDATE":1701199892000,"LASTUPDATE":1765410161000}},{"type":"Feature","id":4220,"geometry":{"type":"Point","coordinates":[-89.3050405136547,48.3917306586594]},"properties":{"OBJECTID":4220,"LOC_ID":"NC0688","FDMID":null,"X_COORD":329365.9536,"Y_COORD":5362406.9986,"BEAT":null,"ROT_ANGLE":null,"NODE_ID":null,"GLOBALID":"e0e5e038-0d3e-472a-b834-f4a375f6bf18","CREATEDDATE":1701199923000,"LASTUPDATE":1765410161000}},{"type":"Feature","id":4221,"geometry":{"type":"Point","coordinates":[-89.3050414415995,48.3905611833063]},"properties":{"OBJECTID":4221,"LOC_ID":"NC0687","FDMID":null,"X_COORD":329361.973,"Y_COORD":5362277.0218,"BEAT":null,"ROT_ANGLE":null,"NODE_ID":null,"GLOBALID":"d6cf0a3b-5265-460b-9df3-a507055c681d","CREATEDDATE":1701199956000,"LASTUPDATE":1765410161000}},{"type":"Feature","id":4222,"geometry":{"type":"Point","coordinates":[-89.2802757277295,48.3682737439615]},"properties":{"OBJECTID":4222,"LOC_ID":"FC1284","FDMID":null,"X_COORD":331121.488,"Y_COORD":5359745.0534,"BEAT":"S 6","ROT_ANGLE":null,"NODE_ID":null,"GLOBALID":"49ae6037-2e26-4755-91ed-e2571c54a6d6","CREATEDDATE":1711047895000,"LASTUPDATE":1765410161000}},{"type":"Feature","id":4223,"geometry":{"type":"Point","coordinates":[-89.2486391446095,48.4006062327551]},"properties":{"OBJECTID":4223,"LOC_ID":"PC1394","FDMID":null,"X_COORD":333569.8694,"Y_COORD":5363269.3471,"BEAT":null,"ROT_ANGLE":null,"NODE_ID":null,"GLOBALID":"24a251ee-6c97-49e3-9f1c-7015e35e2566","CREATEDDATE":1714081998000,"LASTUPDATE":1765410161000}},{"type":"Feature","id":4224,"geometry":{"type":"Point","coordinates":[-89.2291351285672,48.439405638815]},"properties":{"OBJECTID":4224,"LOC_ID":"PC1395","FDMID":null,"X_COORD":335138.9157,"Y_COORD":5367539.4683,"BEAT":"N 6","ROT_ANGLE":null,"NODE_ID":null,"GLOBALID":"81b169ab-eb5d-4c49-9315-fc5ab54e5e41","CREATEDDATE":1732914170000,"LASTUPDATE":1765410161000}},{"type":"Feature","id":4225,"geometry":{"type":"Point","coordinates":[-89.2584625462301,48.391760129401]},"properties":{"OBJECTID":4225,"LOC_ID":"FC1285","FDMID":null,"X_COORD":332813.851,"Y_COORD":5362307.5559,"BEAT":null,"ROT_ANGLE":null,"NODE_ID":null,"GLOBALID":"8416ea38-998c-42f8-ba52-8dab6fb17bb2","CREATEDDATE":1741390865000,"LASTUPDATE":1765410161000}},{"type":"Feature","id":4226,"geometry":{"type":"Point","coordinates":[-89.2227019388615,48.428762123237]},"properties":{"OBJECTID":4226,"LOC_ID":"PC1400","FDMID":null,"X_COORD":335580.3178,"Y_COORD":5366342.6649,"BEAT":null,"ROT_ANGLE":null,"NODE_ID":null,"GLOBALID":"bbd20511-fd9e-40cb-a3f3-dd13a97b8727","CREATEDDATE":1741394790000,"LASTUPDATE":1765410161000}},{"type":"Feature","id":4227,"geometry":{"type":"Point","coordinates":[-89.2440759023117,48.390034083123]},"properties":{"OBJECTID":4227,"LOC_ID":"FC1286","FDMID":null,"X_COORD":333873.1624,"Y_COORD":5362084.4146,"BEAT":null,"ROT_ANGLE":null,"NODE_ID":null,"GLOBALID":"ba78aeb1-25db-476b-af5c-9764f90f2d0c","CREATEDDATE":1743709084000,"LASTUPDATE":1765410161000}},{"type":"Feature","id":4228,"geometry":{"type":"Point","coordinates":[-89.2469874438022,48.4094382983427]},"properties":{"OBJECTID":4228,"LOC_ID":"PC1396","FDMID":null,"X_COORD":333720.9158,"Y_COORD":5364247.3869,"BEAT":"N 2","ROT_ANGLE":null,"NODE_ID":null,"GLOBALID":"4a6854bd-1d26-4a85-abdc-e6083a3580eb","CREATEDDATE":1749579042000,"LASTUPDATE":1765410161000}},{"type":"Feature","id":4229,"geometry":{"type":"Point","coordinates":[-89.2520844350485,48.4172368809315]},"properties":{"OBJECTID":4229,"LOC_ID":"PC1397","FDMID":null,"X_COORD":333369.2511,"Y_COORD":5365125.2312,"BEAT":null,"ROT_ANGLE":360,"NODE_ID":null,"GLOBALID":"d5f6be11-a2d2-4422-b4ca-ca22331292f4","CREATEDDATE":1750369866000,"LASTUPDATE":1765410161000}},{"type":"Feature","id":4230,"geometry":{"type":"Point","coordinates":[-89.3040048590313,48.3908520243657]},"properties":{"OBJECTID":4230,"LOC_ID":null,"FDMID":null,"X_COORD":329439.6771,"Y_COORD":5362307.0379,"BEAT":null,"ROT_ANGLE":null,"NODE_ID":null,"GLOBALID":"d88c5f16-08ba-4bc0-af70-8b2e7ea6a65d","CREATEDDATE":1752173802000,"LASTUPDATE":1765410161000}},{"type":"Feature","id":4231,"geometry":{"type":"Point","coordinates":[-89.2226651246623,48.4094093982474]},"properties":{"OBJECTID":4231,"LOC_ID":"PP0276","FDMID":null,"X_COORD":335520.5939,"Y_COORD":5364191.6448,"BEAT":null,"ROT_ANGLE":null,"NODE_ID":null,"GLOBALID":"382cea4e-7a15-4ae0-aa9a-a58abe6fbe9a","CREATEDDATE":1762977116000,"LASTUPDATE":1765410161000}},{"type":"Feature","id":4232,"geometry":{"type":"Point","coordinates":[-89.2503380052689,48.4148988439258]},"properties":{"OBJECTID":4232,"LOC_ID":"PC1399","FDMID":null,"X_COORD":333490.8232,"Y_COORD":5364861.5735,"BEAT":null,"ROT_ANGLE":322.4,"NODE_ID":null,"GLOBALID":"dc23e8ad-2585-49db-8f6a-4597cc233728","CREATEDDATE":1763068771000,"LASTUPDATE":1765410161000}},{"type":"Feature","id":4233,"geometry":{"type":"Point","coordinates":[-89.341883836722,48.3637489460906]},"properties":{"OBJECTID":4233,"LOC_ID":"NC0691","FDMID":null,"X_COORD":326543.6647,"Y_COORD":5359379.7829,"BEAT":"S 15","ROT_ANGLE":318.2,"NODE_ID":null,"GLOBALID":"0d447c01-b2a7-4032-8a92-7ff9d0f54e67","CREATEDDATE":1763414266000,"LASTUPDATE":1765410161000}},{"type":"Feature","id":4234,"geometry":{"type":"Point","coordinates":[-89.1944545615228,48.4498682829966]},"properties":{"OBJECTID":4234,"LOC_ID":"PC1401","FDMID":null,"X_COORD":337737.0029,"Y_COORD":5368628.217,"BEAT":"N 10","ROT_ANGLE":360,"NODE_ID":null,"GLOBALID":"ad1d8ad6-f2b8-4d04-b2cf-c018286d930a","CREATEDDATE":1764118115000,"LASTUPDATE":1765410161000}},{"type":"Feature","id":4235,"geometry":{"type":"Point","coordinates":[-89.2293755602739,48.4440842682962]},"properties":{"OBJECTID":4235,"LOC_ID":"PC1404","FDMID":null,"X_COORD":null,"Y_COORD":null,"BEAT":"N 6","ROT_ANGLE":null,"NODE_ID":null,"GLOBALID":"c3db6a75-1a59-4483-b85b-d628a1550be4","CREATEDDATE":1770083249000,"LASTUPDATE":1772481748000}},{"type":"Feature","id":4236,"geometry":{"type":"Point","coordinates":[-89.2302619561603,48.4426073428994]},"properties":{"OBJECTID":4236,"LOC_ID":"PC1403","FDMID":null,"X_COORD":null,"Y_COORD":null,"BEAT":"N 6","ROT_ANGLE":336.3,"NODE_ID":null,"GLOBALID":"7bc3dec2-f30c-4b94-b905-7b4cf4cffc74","CREATEDDATE":1770147766000,"LASTUPDATE":1772479634000}},{"type":"Feature","id":4237,"geometry":{"type":"Point","coordinates":[-89.2798368656616,48.418109124302]},"properties":{"OBJECTID":4237,"LOC_ID":null,"FDMID":null,"X_COORD":null,"Y_COORD":null,"BEAT":null,"ROT_ANGLE":null,"NODE_ID":null,"GLOBALID":"6eefdfcb-3f23-41db-94db-f0e253bd9076","CREATEDDATE":1771460868000,"LASTUPDATE":1771460868000}},{"type":"Feature","id":4238,"geometry":{"type":"Point","coordinates":[-89.2240471992601,48.460185761685]},"properties":{"OBJECTID":4238,"LOC_ID":"PC1402","FDMID":null,"X_COORD":null,"Y_COORD":null,"BEAT":"N 9","ROT_ANGLE":360,"NODE_ID":null,"GLOBALID":"bdff652b-feee-4866-ae0d-152c5ae53e6a","CREATEDDATE":1771613958000,"LASTUPDATE":1772479634000}},{"type":"Feature","id":4239,"geometry":{"type":"Point","coordinates":[-89.3039094424759,48.3720174604627]},"properties":{"OBJECTID":4239,"LOC_ID":"FC1288","FDMID":null,"X_COORD":null,"Y_COORD":null,"BEAT":"S 2","ROT_ANGLE":null,"NODE_ID":null,"GLOBALID":"ac13d10d-078e-49d1-bf70-072ee0414d1b","CREATEDDATE":1772219061000,"LASTUPDATE":1772479634000}},{"type":"Feature","id":4240,"geometry":{"type":"Point","coordinates":[-89.2152910861975,48.4386358571828]},"properties":{"OBJECTID":4240,"LOC_ID":"PC1406","FDMID":null,"X_COORD":null,"Y_COORD":null,"BEAT":"N 7","ROT_ANGLE":null,"NODE_ID":null,"GLOBALID":"653f2502-eec3-49d0-9bd1-1ddfc56590c8","CREATEDDATE":1772657695000,"LASTUPDATE":1773683819000}},{"type":"Feature","id":4241,"geometry":{"type":"Point","coordinates":[-89.2555924908014,48.4445169413606]},"properties":{"OBJECTID":4241,"LOC_ID":"PC1405","FDMID":null,"X_COORD":null,"Y_COORD":null,"BEAT":"N 4","ROT_ANGLE":null,"NODE_ID":null,"GLOBALID":"a0acdb87-afe7-4a1c-afac-87a038c02e50","CREATEDDATE":1773341366000,"LASTUPDATE":1773343683000}},{"type":"Feature","id":4242,"geometry":{"type":"Point","coordinates":[-89.1810297369404,48.4641272960452]},"properties":{"OBJECTID":4242,"LOC_ID":"PC1407","FDMID":null,"X_COORD":null,"Y_COORD":null,"BEAT":"N 11","ROT_ANGLE":360,"NODE_ID":null,"GLOBALID":"a6e1f412-1773-4a0c-af22-c1013b7528dd","CREATEDDATE":1777312547000,"LASTUPDATE":1777481625000}},{"type":"Feature","id":4243,"geometry":{"type":"Point","coordinates":[-89.241199216668,48.3863987561983]},"properties":{"OBJECTID":4243,"LOC_ID":"FC","FDMID":null,"X_COORD":null,"Y_COORD":null,"BEAT":null,"ROT_ANGLE":null,"NODE_ID":null,"GLOBALID":"6ef69b53-7470-46f1-a9ad-6df2db08e6bd","CREATEDDATE":1778192007000,"LASTUPDATE":1778622296000}}]}