{"type": "FeatureCollection", "crs": {"type": "name", "properties": {"name": "EPSG:4326"}}, "features": [{"type": "Feature", "id": 163, "geometry": {"type": "LineString", "coordinates": [[-89.221190580582, 48.4602845113619], [-89.2211950434123, 48.4603867412934]]}, "properties": {"OBJECTID": 163, "Type": "SCHOOL", "Colour": "WHITE", "Shape__Length": 17.168289473758264}}, {"type": "Feature", "id": 164, "geometry": {"type": "LineString", "coordinates": [[-89.2500843706728, 48.4384353088665], [-89.2499552064097, 48.4383988114037]]}, "properties": {"OBJECTID": 164, "Type": "SCHOOL", "Colour": "WHITE", "Shape__Length": 15.628367254631156}}, {"type": "Feature", "id": 165, "geometry": {"type": "LineString", "coordinates": [[-89.1823642576335, 48.4653156529313], [-89.1821251099352, 48.4653255728669]]}, "properties": {"OBJECTID": 165, "Type": "SCHOOL", "Colour": "WHITE", "Shape__Length": 26.673840975972745}}, {"type": "Feature", "id": 166, "geometry": {"type": "LineString", "coordinates": [[-89.1851245154986, 48.4689501306214], [-89.1851184482771, 48.4688088371403]]}, "properties": {"OBJECTID": 166, "Type": "SCHOOL", "Colour": "WHITE", "Shape__Length": 23.7322126197859}}, {"type": "Feature", "id": 167, "geometry": {"type": "LineString", "coordinates": [[-89.1851147436249, 48.4689609039458], [-89.1849716123557, 48.4689643793074]]}, "properties": {"OBJECTID": 167, "Type": "SCHOOL", "Colour": "WHITE", "Shape__Length": 15.943980718005271}}, {"type": "Feature", "id": 168, "geometry": {"type": "LineString", "coordinates": [[-89.2147895622614, 48.4604850465108], [-89.2147844508475, 48.4603692924444]]}, "properties": {"OBJECTID": 168, "Type": "SCHOOL", "Colour": "WHITE", "Shape__Length": 19.439729087642178}}, {"type": "Feature", "id": 169, "geometry": {"type": "LineString", "coordinates": [[-89.214725328227, 48.4603392223406], [-89.2145843726775, 48.4603399079997]]}, "properties": {"OBJECTID": 169, "Type": "SCHOOL", "Colour": "WHITE", "Shape__Length": 15.691522144221722}}, {"type": "Feature", "id": 170, "geometry": {"type": "LineString", "coordinates": [[-89.2149146212237, 48.4424263095032], [-89.2148053447627, 48.4423611339668]]}, "properties": {"OBJECTID": 170, "Type": "SCHOOL", "Colour": " ", "Shape__Length": 16.35834533740903}}, {"type": "Feature", "id": 171, "geometry": {"type": "LineString", "coordinates": [[-89.2351175801483, 48.4485069937406], [-89.2353108697497, 48.4485648003164]]}, "properties": {"OBJECTID": 171, "Type": "SCHOOL", "Colour": "WHITE", "Shape__Length": 23.60292414558325}}, {"type": "Feature", "id": 172, "geometry": {"type": "LineString", "coordinates": [[-89.2353108697497, 48.4485648003164], [-89.235413160911, 48.4484047821917]]}, "properties": {"OBJECTID": 172, "Type": "SCHOOL", "Colour": "WHITE", "Shape__Length": 29.16996778005114}}, {"type": "Feature", "id": 173, "geometry": {"type": "LineString", "coordinates": [[-89.2380949617158, 48.4491421045483], [-89.2380101625497, 48.4492680259604]]}, "properties": {"OBJECTID": 173, "Type": "SCHOOL", "Colour": "WHITE", "Shape__Length": 23.1459423308886}}, {"type": "Feature", "id": 174, "geometry": {"type": "LineString", "coordinates": [[-89.2380949617158, 48.4491421045483], [-89.2383755792409, 48.4492211877718]]}, "properties": {"OBJECTID": 174, "Type": "SCHOOL", "Colour": "WHITE", "Shape__Length": 33.940934722590484}}, {"type": "Feature", "id": 175, "geometry": {"type": "LineString", "coordinates": [[-89.2549786079364, 48.4406530754432], [-89.2548630441666, 48.4407092008795]]}, "properties": {"OBJECTID": 175, "Type": "SCHOOL", "Colour": "WHITE", "Shape__Length": 15.943465251787051}}, {"type": "Feature", "id": 176, "geometry": {"type": "LineString", "coordinates": [[-89.2547915813891, 48.4406948936071], [-89.2547070328529, 48.4406135182365], [-89.2547069340382, 48.4406112763149]]}, "properties": {"OBJECTID": 176, "Type": "SCHOOL", "Colour": "WHITE", "Shape__Length": 16.960777764974882}}, {"type": "Feature", "id": 177, "geometry": {"type": "LineString", "coordinates": [[-89.254864618015, 48.4405161757207], [-89.25471912238, 48.4405818643443]]}, "properties": {"OBJECTID": 177, "Type": "SCHOOL", "Colour": "WHITE", "Shape__Length": 19.591491204647895}}, {"type": "Feature", "id": 178, "geometry": {"type": "LineString", "coordinates": [[-89.2385710454602, 48.3925206017585], [-89.2384534811424, 48.392476681242], [-89.2384558607796, 48.3924781760792]]}, "properties": {"OBJECTID": 178, "Type": "SCHOOL", "Colour": "WHITE", "Shape__Length": 15.380930699563688}}, {"type": "Feature", "id": 179, "geometry": {"type": "LineString", "coordinates": [[-89.2420316263276, 48.3946308696043], [-89.2419218045891, 48.3947468546214]]}, "properties": {"OBJECTID": 179, "Type": "SCHOOL", "Colour": "WHITE", "Shape__Length": 22.968804607119218}}, {"type": "Feature", "id": 180, "geometry": {"type": "LineString", "coordinates": [[-89.2565095366065, 48.374405506897], [-89.2565021255054, 48.3742850090938]]}, "properties": {"OBJECTID": 180, "Type": "SCHOOL", "Colour": "WHITE", "Shape__Length": 20.21034554729608}}, {"type": "Feature", "id": 181, "geometry": {"type": "LineString", "coordinates": [[-89.2567039248475, 48.3744238791544], [-89.256545626423, 48.374421439784]]}, "properties": {"OBJECTID": 181, "Type": "SCHOOL", "Colour": "WHITE", "Shape__Length": 17.626441170280884}}, {"type": "Feature", "id": 182, "geometry": {"type": "LineString", "coordinates": [[-89.2567049480286, 48.3742588400851], [-89.256544631988, 48.37425782686]]}, "properties": {"OBJECTID": 182, "Type": "SCHOOL", "Colour": " ", "Shape__Length": 17.847107769637415}}, {"type": "Feature", "id": 183, "geometry": {"type": "LineString", "coordinates": [[-89.2674290969758, 48.3715517086363], [-89.2674301093771, 48.37166817293]]}, "properties": {"OBJECTID": 183, "Type": "SCHOOL", "Colour": "WHITE", "Shape__Length": 19.516825399690667}}, {"type": "Feature", "id": 184, "geometry": {"type": "LineString", "coordinates": [[-89.261542650718, 48.3715442528597], [-89.2615397374815, 48.3716663433031]]}, "properties": {"OBJECTID": 184, "Type": "SCHOOL", "Colour": "WHITE", "Shape__Length": 20.461870071810893}}, {"type": "Feature", "id": 185, "geometry": {"type": "LineString", "coordinates": [[-89.2615138076109, 48.3716918136602], [-89.261324571208, 48.3716955373606]]}, "properties": {"OBJECTID": 185, "Type": "SCHOOL", "Colour": "WHITE", "Shape__Length": 21.07493991673225}}, {"type": "Feature", "id": 186, "geometry": {"type": "LineString", "coordinates": [[-89.2612920863308, 48.3716670546258], [-89.2612905358386, 48.3715381200738]]}, "properties": {"OBJECTID": 186, "Type": "SCHOOL", "Colour": "WHITE", "Shape__Length": 21.60688938672077}}, {"type": "Feature", "id": 187, "geometry": {"type": "LineString", "coordinates": [[-89.2786746361988, 48.3693853818485], [-89.278670961191, 48.3694873596669]]}, "properties": {"OBJECTID": 187, "Type": "SCHOOL", "Colour": "WHITE", "Shape__Length": 17.093096322627563}}, {"type": "Feature", "id": 188, "geometry": {"type": "LineString", "coordinates": [[-89.2786327010447, 48.3695144179317], [-89.2784698364837, 48.36951326079]]}, "properties": {"OBJECTID": 188, "Type": "SCHOOL", "Colour": "WHITE", "Shape__Length": 18.13103684765025}}, {"type": "Feature", "id": 189, "geometry": {"type": "LineString", "coordinates": [[-89.2784256986605, 48.3694823587112], [-89.2784261343434, 48.3693815392211]]}, "properties": {"OBJECTID": 189, "Type": "SCHOOL", "Colour": " ", "Shape__Length": 16.894169612854174}}, {"type": "Feature", "id": 190, "geometry": {"type": "LineString", "coordinates": [[-89.2786769179196, 48.3684046228103], [-89.2786750763733, 48.3682896042282]]}, "properties": {"OBJECTID": 190, "Type": "SCHOOL", "Colour": "WHITE", "Shape__Length": 19.274090226870662}}, {"type": "Feature", "id": 191, "geometry": {"type": "LineString", "coordinates": [[-89.2786353205321, 48.3684306504057], [-89.2784644421004, 48.3684340365643]]}, "properties": {"OBJECTID": 191, "Type": "SCHOOL", "Colour": "WHITE", "Shape__Length": 19.030560453127094}}, {"type": "Feature", "id": 192, "geometry": {"type": "LineString", "coordinates": [[-89.278428811323, 48.3684095385315], [-89.2784267263332, 48.3682890450391]]}, "properties": {"OBJECTID": 192, "Type": "SCHOOL", "Colour": " ", "Shape__Length": 20.191734012850468}}, {"type": "Feature", "id": 193, "geometry": {"type": "LineString", "coordinates": [[-89.2786294895676, 48.3682631110668], [-89.2784799712767, 48.3682660741145]]}, "properties": {"OBJECTID": 193, "Type": "SCHOOL", "Colour": " ", "Shape__Length": 16.6517036595376}}, {"type": "Feature", "id": 194, "geometry": {"type": "LineString", "coordinates": [[-89.2816710755251, 48.3683923749818], [-89.2816666728819, 48.368293844398]]}, "properties": {"OBJECTID": 194, "Type": "SCHOOL", "Colour": " ", "Shape__Length": 16.51747262286024}}, {"type": "Feature", "id": 195, "geometry": {"type": "LineString", "coordinates": [[-89.2816199119781, 48.3684251677407], [-89.2814686015483, 48.3684248824774]]}, "properties": {"OBJECTID": 195, "Type": "SCHOOL", "Colour": "WHITE", "Shape__Length": 16.84386782506408}}, {"type": "Feature", "id": 196, "geometry": {"type": "LineString", "coordinates": [[-89.2814231153539, 48.3684005813793], [-89.281419180733, 48.3682757414668]]}, "properties": {"OBJECTID": 196, "Type": "SCHOOL", "Colour": "WHITE", "Shape__Length": 20.923284958792145}}, {"type": "Feature", "id": 197, "geometry": {"type": "LineString", "coordinates": [[-89.2816453899962, 48.3682592009178], [-89.2814531002198, 48.3682619216702]]}, "properties": {"OBJECTID": 197, "Type": "SCHOOL", "Colour": " ", "Shape__Length": 21.410454364546585}}, {"type": "Feature", "id": 198, "geometry": {"type": "LineString", "coordinates": [[-89.2816687120576, 48.369480518264], [-89.2816658563133, 48.3693797650121]]}, "properties": {"OBJECTID": 198, "Type": "SCHOOL", "Colour": " ", "Shape__Length": 16.885992699701326}}, {"type": "Feature", "id": 199, "geometry": {"type": "LineString", "coordinates": [[-89.2816189974932, 48.3695089013673], [-89.2814677355724, 48.369509709994]]}, "properties": {"OBJECTID": 199, "Type": "SCHOOL", "Colour": "WHITE", "Shape__Length": 16.83894518173557}}, {"type": "Feature", "id": 200, "geometry": {"type": "LineString", "coordinates": [[-89.2814186642017, 48.3694789063806], [-89.281417402967, 48.3693770234323]]}, "properties": {"OBJECTID": 200, "Type": "SCHOOL", "Colour": "WHITE", "Shape__Length": 17.072877306346005}}, {"type": "Feature", "id": 201, "geometry": {"type": "LineString", "coordinates": [[-89.281485140431, 48.369347189497], [-89.2816166403139, 48.369345676674]]}, "properties": {"OBJECTID": 201, "Type": "SCHOOL", "Colour": " ", "Shape__Length": 14.640694810607084}}, {"type": "Feature", "id": 202, "geometry": {"type": "LineString", "coordinates": [[-89.289331979235, 48.3840384459593], [-89.2893286213325, 48.3842108702601]]}, "properties": {"OBJECTID": 202, "Type": "SCHOOL", "Colour": "WHITE", "Shape__Length": 28.90351722159407}}, {"type": "Feature", "id": 203, "geometry": {"type": "LineString", "coordinates": [[-89.2893551369047, 48.3842251152802], [-89.2896895985496, 48.3842233815605]]}, "properties": {"OBJECTID": 203, "Type": "SCHOOL", "Colour": "WHITE", "Shape__Length": 37.233234063348604}}, {"type": "Feature", "id": 204, "geometry": {"type": "LineString", "coordinates": [[-89.2897130553583, 48.3842106029832], [-89.2897144531369, 48.3840357564766]]}, "properties": {"OBJECTID": 204, "Type": "SCHOOL", "Colour": "WHITE", "Shape__Length": 29.30751305813351}}, {"type": "Feature", "id": 205, "geometry": {"type": "LineString", "coordinates": [[-89.2893367645605, 48.3900388613362], [-89.2893376215533, 48.390181657139]]}, "properties": {"OBJECTID": 205, "Type": "SCHOOL", "Colour": "WHITE", "Shape__Length": 23.93789010360108}}, {"type": "Feature", "id": 206, "geometry": {"type": "LineString", "coordinates": [[-89.2893815895949, 48.3902140200835], [-89.2896587243516, 48.3902109634647]]}, "properties": {"OBJECTID": 206, "Type": "SCHOOL", "Colour": "WHITE", "Shape__Length": 30.854754964768837}}, {"type": "Feature", "id": 207, "geometry": {"type": "LineString", "coordinates": [[-89.2897072073258, 48.3901792209097], [-89.2897061275509, 48.3900315043084]]}, "properties": {"OBJECTID": 207, "Type": "SCHOOL", "Colour": "WHITE", "Shape__Length": 24.762891734027203}}, {"type": "Feature", "id": 208, "geometry": {"type": "LineString", "coordinates": [[-89.2840648306358, 48.3901609706615], [-89.2840677591436, 48.3900611919043]]}, "properties": {"OBJECTID": 208, "Type": "SCHOOL", "Colour": " ", "Shape__Length": 16.729676577937067}}, {"type": "Feature", "id": 209, "geometry": {"type": "LineString", "coordinates": [[-89.2847416734731, 48.3940071573556], [-89.284736550381, 48.3938927620787]]}, "properties": {"OBJECTID": 209, "Type": "SCHOOL", "Colour": "WHITE", "Shape__Length": 19.18667759917924}}, {"type": "Feature", "id": 210, "geometry": {"type": "LineString", "coordinates": [[-89.2956452725765, 48.3929149613218], [-89.2955956792846, 48.3928112230337]]}, "properties": {"OBJECTID": 210, "Type": "SCHOOL", "Colour": "WHITE", "Shape__Length": 18.246423372330522}}, {"type": "Feature", "id": 211, "geometry": {"type": "LineString", "coordinates": [[-89.2676266401001, 48.3742612806568], [-89.2674724990788, 48.3742609279971]]}, "properties": {"OBJECTID": 211, "Type": "SCHOOL", "Colour": "WHITE", "Shape__Length": 17.159001778237585}}, {"type": "Feature", "id": 212, "geometry": {"type": "LineString", "coordinates": [[-89.2674265322857, 48.3742686662197], [-89.2674291481798, 48.3744053738296]]}, "properties": {"OBJECTID": 212, "Type": "SCHOOL", "Colour": "WHITE", "Shape__Length": 22.911850593480708}}, {"type": "Feature", "id": 213, "geometry": {"type": "LineString", "coordinates": [[-89.2729434933823, 48.3694956912102], [-89.2727315475691, 48.3694973305445]]}, "properties": {"OBJECTID": 213, "Type": "SCHOOL", "Colour": "WHITE", "Shape__Length": 23.59529910444958}}, {"type": "Feature", "id": 214, "geometry": {"type": "LineString", "coordinates": [[-89.2727115438843, 48.3694853622686], [-89.272710730909, 48.3693760912713]]}, "properties": {"OBJECTID": 214, "Type": "SCHOOL", "Colour": "WHITE", "Shape__Length": 18.31052365008319}}, {"type": "Feature", "id": 215, "geometry": {"type": "LineString", "coordinates": [[-89.2386921302757, 48.3924138198996], [-89.2386115190554, 48.3925116739011]]}, "properties": {"OBJECTID": 215, "Type": "SCHOOL", "Colour": "WHITE", "Shape__Length": 18.698566741436967}}, {"type": "Feature", "id": 216, "geometry": {"type": "LineString", "coordinates": [[-89.2512420098165, 48.387292438133], [-89.2512424149567, 48.3871882027781]]}, "properties": {"OBJECTID": 216, "Type": "SCHOOL", "Colour": "WHITE", "Shape__Length": 17.472658203723853}}, {"type": "Feature", "id": 217, "geometry": {"type": "LineString", "coordinates": [[-89.2814871867932, 48.3799562531863], [-89.2813229307418, 48.3799582680734]]}, "properties": {"OBJECTID": 217, "Type": "SCHOOL", "Colour": "WHITE", "Shape__Length": 18.28801818973039}}, {"type": "Feature", "id": 218, "geometry": {"type": "LineString", "coordinates": [[-89.2812905365944, 48.3799856596711], [-89.2812925703802, 48.3800938542199]]}, "properties": {"OBJECTID": 218, "Type": "SCHOOL", "Colour": "WHITE", "Shape__Length": 18.135113249893866}}, {"type": "Feature", "id": 219, "geometry": {"type": "LineString", "coordinates": [[-89.3611064119338, 48.3625191866816], [-89.3608618860219, 48.3625204788713]]}, "properties": {"OBJECTID": 219, "Type": "SCHOOL", "Colour": "WHITE", "Shape__Length": 27.22136095954616}}, {"type": "Feature", "id": 220, "geometry": {"type": "LineString", "coordinates": [[-89.3608618860219, 48.3625204788713], [-89.3608601019677, 48.3624204197204]]}, "properties": {"OBJECTID": 220, "Type": "SCHOOL", "Colour": "WHITE", "Shape__Length": 16.765576317260994}}, {"type": "Feature", "id": 221, "geometry": {"type": "LineString", "coordinates": [[-89.2784596720463, 48.3790791838115], [-89.2784596648598, 48.3789679411487]]}, "properties": {"OBJECTID": 221, "Type": "SCHOOL", "Colour": " ", "Shape__Length": 18.644200014350197}}, {"type": "Feature", "id": 222, "geometry": {"type": "LineString", "coordinates": [[-89.2784998348243, 48.37894180975], [-89.2786539515911, 48.3789497710094]]}, "properties": {"OBJECTID": 222, "Type": "SCHOOL", "Colour": "WHITE", "Shape__Length": 17.2080084527957}}, {"type": "Feature", "id": 223, "geometry": {"type": "LineString", "coordinates": [[-89.2254238886634, 48.4577994715671], [-89.2255738668917, 48.4577958143369]]}, "properties": {"OBJECTID": 223, "Type": "SCHOOL", "Colour": "WHITE", "Shape__Length": 16.706782857258453}}, {"type": "Feature", "id": 224, "geometry": {"type": "LineString", "coordinates": [[-89.225371897768, 48.4579313115899], [-89.225369609759, 48.4578392858531]]}, "properties": {"OBJECTID": 224, "Type": "SCHOOL", "Colour": "WHITE", "Shape__Length": 15.44949962729951}}, {"type": "Feature", "id": 225, "geometry": {"type": "LineString", "coordinates": [[-89.2461686395022, 48.4318356966291], [-89.2462232678512, 48.4317463010215]]}, "properties": {"OBJECTID": 225, "Type": "SCHOOL", "Colour": "WHITE", "Shape__Length": 16.184158818386045}}, {"type": "Feature", "id": 226, "geometry": {"type": "LineString", "coordinates": [[-89.2592052199757, 48.4390542402434], [-89.259032005026, 48.4391322497679]]}, "properties": {"OBJECTID": 226, "Type": "SCHOOL", "Colour": "WHITE", "Shape__Length": 23.305495080141636}}, {"type": "Feature", "id": 227, "geometry": {"type": "LineString", "coordinates": [[-89.2578760484268, 48.4436533030722], [-89.2577678292828, 48.4435400342838]]}, "properties": {"OBJECTID": 227, "Type": "SCHOOL", "Colour": "WHITE", "Shape__Length": 22.50395659209585}}, {"type": "Feature", "id": 228, "geometry": {"type": "LineString", "coordinates": [[-89.2847057363702, 48.4500934927122], [-89.2845418486281, 48.4500934384919]]}, "properties": {"OBJECTID": 228, "Type": "SCHOOL", "Colour": "WHITE", "Shape__Length": 18.24390226871075}}, {"type": "Feature", "id": 229, "geometry": {"type": "LineString", "coordinates": [[-89.2847379185152, 48.4502270198673], [-89.2847369465381, 48.4501191538054]]}, "properties": {"OBJECTID": 229, "Type": "SCHOOL", "Colour": "WHITE", "Shape__Length": 18.103923340039344}}, {"type": "Feature", "id": 230, "geometry": {"type": "LineString", "coordinates": [[-89.2511944278525, 48.3873200441264], [-89.2509823122578, 48.3873219238986]]}, "properties": {"OBJECTID": 230, "Type": "SCHOOL", "Colour": "WHITE", "Shape__Length": 23.614702344021353}}, {"type": "Feature", "id": 231, "geometry": {"type": "LineString", "coordinates": [[-89.26762614423, 48.3716907771108], [-89.2674615791582, 48.3716849122819]]}, "properties": {"OBJECTID": 231, "Type": "SCHOOL", "Colour": "WHITE", "Shape__Length": 18.34564385120058}}, {"type": "Feature", "id": 232, "geometry": {"type": "LineString", "coordinates": [[-89.2729652568667, 48.369485983509], [-89.2729619582529, 48.369371797482]]}, "properties": {"OBJECTID": 232, "Type": "SCHOOL", "Colour": "WHITE", "Shape__Length": 19.13742315015248}}, {"type": "Feature", "id": 233, "geometry": {"type": "LineString", "coordinates": [[-89.2750381436393, 48.3842006534814], [-89.2750324653884, 48.3840673924923]]}, "properties": {"OBJECTID": 233, "Type": "SCHOOL", "Colour": "WHITE", "Shape__Length": 22.345642020157374}}, {"type": "Feature", "id": 234, "geometry": {"type": "LineString", "coordinates": [[-89.274976425786, 48.3840278294224], [-89.2748542099916, 48.3840257293822]]}, "properties": {"OBJECTID": 234, "Type": "SCHOOL", "Colour": "WHITE", "Shape__Length": 13.609552858592417}}, {"type": "Feature", "id": 235, "geometry": {"type": "LineString", "coordinates": [[-89.2385373568405, 48.392351529931], [-89.2384535988217, 48.3924532130087]]}, "properties": {"OBJECTID": 235, "Type": "SCHOOL", "Colour": "WHITE", "Shape__Length": 19.4298294797154}}, {"type": "Feature", "id": 236, "geometry": {"type": "LineString", "coordinates": [[-89.2676354004707, 48.3744188858442], [-89.2674603835005, 48.374422454796]]}, "properties": {"OBJECTID": 236, "Type": "SCHOOL", "Colour": "White", "Shape__Length": 19.491978335361402}}, {"type": "Feature", "id": 237, "geometry": {"type": "LineString", "coordinates": [[-89.2786341266711, 48.3693509264979], [-89.2784597304368, 48.3693527955951]]}, "properties": {"OBJECTID": 237, "Type": "SCHOOL", "Colour": "WHITE", "Shape__Length": 19.41622625309728}}, {"type": "Feature", "id": 238, "geometry": {"type": "LineString", "coordinates": [[-89.3611064119338, 48.3625191866816], [-89.3611093125938, 48.3624197554202]]}, "properties": {"OBJECTID": 238, "Type": "SCHOOL", "Colour": "WHITE", "Shape__Length": 16.662329038148904}}, {"type": "Feature", "id": 239, "geometry": {"type": "LineString", "coordinates": [[-89.2420146733215, 48.4467825219905], [-89.2421449407158, 48.4467210946852]]}, "properties": {"OBJECTID": 239, "Type": "SCHOOL", "Colour": "WHITE", "Shape__Length": 17.792164591820914}}, {"type": "Feature", "id": 240, "geometry": {"type": "LineString", "coordinates": [[-89.2421660071075, 48.44665797087], [-89.2421184880256, 48.4465803649845]]}, "properties": {"OBJECTID": 240, "Type": "SCHOOL", "Colour": "WHITE", "Shape__Length": 14.057260050828038}}, {"type": "Feature", "id": 241, "geometry": {"type": "LineString", "coordinates": [[-89.2577742899664, 48.4434941323422], [-89.2579256722614, 48.4434399877937]]}, "properties": {"OBJECTID": 241, "Type": "SCHOOL", "Colour": "WHITE", "Shape__Length": 19.14524422430767}}, {"type": "Feature", "id": 242, "geometry": {"type": "LineString", "coordinates": [[-89.185110641019, 48.4687898634517], [-89.1849647824646, 48.4687971066414]]}, "properties": {"OBJECTID": 242, "Type": "SCHOOL", "Colour": "WHITE", "Shape__Length": 16.282377615582725}}, {"type": "Feature", "id": 243, "geometry": {"type": "LineString", "coordinates": [[-89.245273563543, 48.4565832162255], [-89.2453755959896, 48.4566376178284]]}, "properties": {"OBJECTID": 243, "Type": "SCHOOL", "Colour": "WHITE", "Shape__Length": 14.573771845783595}}]}