{"type": "FeatureCollection", "crs": {"type": "name", "properties": {"name": "EPSG:4326"}}, "features": [{"type": "Feature", "id": 52, "geometry": {"type": "Point", "coordinates": [-89.3690804311435, 48.433113763446]}, "properties": {"OBJECTID": 52, "Souce": "Used address centroid", "Site_Type": "Active Solid Waste and Recycling Depot"}}, {"type": "Feature", "id": 53, "geometry": {"type": "Point", "coordinates": [-89.2953899952953, 48.3736327007993]}, "properties": {"OBJECTID": 53, "Souce": "Used address centroid", "Site_Type": "Active Recycling Depot"}}, {"type": "Feature", "id": 54, "geometry": {"type": "Point", "coordinates": [-89.2080576967957, 48.4422113437499]}, "properties": {"OBJECTID": 54, "Souce": "Used address centroid", "Site_Type": "Active Recycling Depot"}}, {"type": "Feature", "id": 55, "geometry": {"type": "Point", "coordinates": [-89.3027291579082, 48.4398921790682]}, "properties": {"OBJECTID": 55, "Souce": "From Figure 6 OP 2002 - CAD file", "Site_Type": "Closed Waste Disposal Site"}}, {"type": "Feature", "id": 56, "geometry": {"type": "Point", "coordinates": [-89.2359526823918, 48.441944947889]}, "properties": {"OBJECTID": 56, "Souce": "From Figure 6 OP 2002 - CAD file", "Site_Type": "Closed Waste Disposal Site"}}, {"type": "Feature", "id": 57, "geometry": {"type": "Point", "coordinates": [-89.1713198098131, 48.4631991658196]}, "properties": {"OBJECTID": 57, "Souce": "From Figure 6 OP 2002 - CAD file", "Site_Type": "Active Waste Disposal Site"}}, {"type": "Feature", "id": 58, "geometry": {"type": "Point", "coordinates": [-89.1705042714698, 48.4566681186688]}, "properties": {"OBJECTID": 58, "Souce": "From Figure 6 OP 2002 - CAD file", "Site_Type": "Active Waste Disposal Site"}}, {"type": "Feature", "id": 59, "geometry": {"type": "Point", "coordinates": [-89.3000228104238, 48.4080279490753]}, "properties": {"OBJECTID": 59, "Souce": "From Figure 6 OP 2002 - CAD file", "Site_Type": "Closed Waste Disposal Site"}}, {"type": "Feature", "id": 60, "geometry": {"type": "Point", "coordinates": [-89.2797988351171, 48.3861673249215]}, "properties": {"OBJECTID": 60, "Souce": "From Figure 6 OP 2002 - CAD file", "Site_Type": "Closed Waste Disposal Site"}}, {"type": "Feature", "id": 61, "geometry": {"type": "Point", "coordinates": [-89.2694402176265, 48.3895145977198]}, "properties": {"OBJECTID": 61, "Souce": "From Figure 6 OP 2002 - CAD file", "Site_Type": "Closed Waste Disposal Site"}}, {"type": "Feature", "id": 62, "geometry": {"type": "Point", "coordinates": [-89.2434586228796, 48.3920155811419]}, "properties": {"OBJECTID": 62, "Souce": "From Figure 6 OP 2002 - CAD file", "Site_Type": "Closed Waste Disposal Site"}}, {"type": "Feature", "id": 63, "geometry": {"type": "Point", "coordinates": [-89.2422744601563, 48.3992366284587]}, "properties": {"OBJECTID": 63, "Souce": "From Figure 6 OP 2002 - CAD file", "Site_Type": "Closed Waste Disposal Site"}}, {"type": "Feature", "id": 64, "geometry": {"type": "Point", "coordinates": [-89.2348983160113, 48.3973329540273]}, "properties": {"OBJECTID": 64, "Souce": "From Figure 6 OP 2002 - CAD file", "Site_Type": "Closed Waste Disposal Site"}}, {"type": "Feature", "id": 65, "geometry": {"type": "Point", "coordinates": [-89.2269844221912, 48.3962032048776]}, "properties": {"OBJECTID": 65, "Souce": "From Figure 6 OP 2002 - CAD file", "Site_Type": "Closed Waste Disposal Site"}}, {"type": "Feature", "id": 66, "geometry": {"type": "Point", "coordinates": [-89.2234031793044, 48.3968912080869]}, "properties": {"OBJECTID": 66, "Souce": "From Figure 6 OP 2002 - CAD file", "Site_Type": "Closed Waste Disposal Site"}}, {"type": "Feature", "id": 67, "geometry": {"type": "Point", "coordinates": [-89.2812571461808, 48.3486986919967]}, "properties": {"OBJECTID": 67, "Souce": "From Figure 6 OP 2002 - CAD file", "Site_Type": "Active Waste Disposal Site"}}, {"type": "Feature", "id": 68, "geometry": {"type": "Point", "coordinates": [-89.2255879571705, 48.3715691718541]}, "properties": {"OBJECTID": 68, "Souce": "From Figure 6 OP 2002 - CAD file", "Site_Type": "Active Waste Disposal Site"}}, {"type": "Feature", "id": 69, "geometry": {"type": "Point", "coordinates": [-89.2291223193638, 48.3640162044646]}, "properties": {"OBJECTID": 69, "Souce": "From Figure 6 OP 2002 - CAD file", "Site_Type": "Closed Waste Disposal Site"}}, {"type": "Feature", "id": 70, "geometry": {"type": "Point", "coordinates": [-89.2267383267375, 48.3617770527665]}, "properties": {"OBJECTID": 70, "Souce": "From Figure 6 OP 2002 - CAD file", "Site_Type": "Closed Waste Disposal Site"}}, {"type": "Feature", "id": 71, "geometry": {"type": "Point", "coordinates": [-89.2181186081042, 48.3640004489128]}, "properties": {"OBJECTID": 71, "Souce": "From Figure 6 OP 2002 - CAD file", "Site_Type": "Closed Waste Disposal Site"}}, {"type": "Feature", "id": 72, "geometry": {"type": "Point", "coordinates": [-89.2194957176923, 48.3480758537574]}, "properties": {"OBJECTID": 72, "Souce": "From Figure 6 OP 2002 - CAD file", "Site_Type": "Active Waste Disposal Site"}}, {"type": "Feature", "id": 73, "geometry": {"type": "Point", "coordinates": [-89.2261582878721, 48.397797596179]}, "properties": {"OBJECTID": 73, "Souce": "From Figure 6 OP 2002 - CAD file", "Site_Type": "Active Sewage Treatment Plant"}}, {"type": "Feature", "id": 74, "geometry": {"type": "Point", "coordinates": [-89.1516771924571, 48.4758253817515]}, "properties": {"OBJECTID": 74, "Souce": "2012 Aerial Photography", "Site_Type": "Water Treatment Plant"}}, {"type": "Feature", "id": 75, "geometry": {"type": "Point", "coordinates": [-89.2436542405057, 48.42445891027]}, "properties": {"OBJECTID": 75, "Souce": "2012 Aerial Photography", "Site_Type": "Closed Waste Disposal Site"}}, {"type": "Feature", "id": 76, "geometry": {"type": "Point", "coordinates": [-89.3029417817139, 48.3619422396327]}, "properties": {"OBJECTID": 76, "Souce": "2012 Aerial Photography", "Site_Type": "Active Waste Disposal Site"}}, {"type": "Feature", "id": 77, "geometry": {"type": "Point", "coordinates": [-89.2999751542263, 48.4247723193633]}, "properties": {"OBJECTID": 77, "Souce": "Belrose Study", "Site_Type": "Closed Waste Disposal Site"}}]}